<?xml version="1.0" encoding="UTF-8"?>
<gpx version="1.1" creator="한걸음 · gpx.studio" xmlns="http://www.topografix.com/GPX/1/1">
<trk><name>근대거리·시장</name><desc>gpx.studio GraphHopper foot profile · OpenStreetMap pedestrian network · 1631m · hours-and-closures-check</desc><trkseg><trkpt lat="34.7913910" lon="126.3859410"><ele>5.0</ele></trkpt><trkpt lat="34.7906020" lon="126.3856770"><ele>6.6</ele></trkpt><trkpt lat="34.7902060" lon="126.3855400"><ele>9.8</ele></trkpt><trkpt lat="34.7901670" lon="126.3855100"><ele>9.3</ele></trkpt><trkpt lat="34.7901290" lon="126.3851690"><ele>8.4</ele></trkpt><trkpt lat="34.7900530" lon="126.3844860"><ele>10.0</ele></trkpt><trkpt lat="34.7903490" lon="126.3843770"><ele>8.2</ele></trkpt><trkpt lat="34.7901440" lon="126.3844520"><ele>9.4</ele></trkpt><trkpt lat="34.7900530" lon="126.3844860"><ele>10.0</ele></trkpt><trkpt lat="34.7899530" lon="126.3838160"><ele>10.9</ele></trkpt><trkpt lat="34.7889160" lon="126.3841880"><ele>14.7</ele></trkpt><trkpt lat="34.7883820" lon="126.3843800"><ele>13.2</ele></trkpt><trkpt lat="34.7883600" lon="126.3842580"><ele>14.8</ele></trkpt><trkpt lat="34.7883820" lon="126.3843800"><ele>13.2</ele></trkpt><trkpt lat="34.7879460" lon="126.3845440"><ele>11.9</ele></trkpt><trkpt lat="34.7872370" lon="126.3842600"><ele>8.2</ele></trkpt><trkpt lat="34.7871100" lon="126.3841320"><ele>7.0</ele></trkpt><trkpt lat="34.7869120" lon="126.3839610"><ele>6.0</ele></trkpt><trkpt lat="34.7868980" lon="126.3831650"><ele>5.0</ele></trkpt><trkpt lat="34.7867880" lon="126.3811340"><ele>6.4</ele></trkpt><trkpt lat="34.7867950" lon="126.3812820"><ele>6.5</ele></trkpt><trkpt lat="34.7859570" lon="126.3813510"><ele>4.4</ele></trkpt><trkpt lat="34.7860870" lon="126.3813410"><ele>4.3</ele></trkpt><trkpt lat="34.7861290" lon="126.3822200"><ele>4.8</ele></trkpt><trkpt lat="34.7858770" lon="126.3822380"><ele>5.2</ele></trkpt><trkpt lat="34.7861290" lon="126.3822200"><ele>4.8</ele></trkpt><trkpt lat="34.7862110" lon="126.3831950"><ele>6.0</ele></trkpt><trkpt lat="34.7858590" lon="126.3832280"><ele>6.0</ele></trkpt><trkpt lat="34.7858450" lon="126.3832300"><ele>6.0</ele></trkpt><trkpt lat="34.7858590" lon="126.3832280"><ele>6.0</ele></trkpt><trkpt lat="34.7856340" lon="126.3835210"><ele>7.9</ele></trkpt><trkpt lat="34.7855710" lon="126.3835500"><ele>7.4</ele></trkpt><trkpt lat="34.7855820" lon="126.3836310"><ele>8.5</ele></trkpt><trkpt lat="34.7855660" lon="126.3836680"><ele>8.9</ele></trkpt><trkpt lat="34.7854880" lon="126.3837370"><ele>9.2</ele></trkpt><trkpt lat="34.7854790" lon="126.3837710"><ele>9.6</ele></trkpt><trkpt lat="34.7854890" lon="126.3837920"><ele>10.0</ele></trkpt><trkpt lat="34.7855280" lon="126.3838160"><ele>11.1</ele></trkpt><trkpt lat="34.7855900" lon="126.3837840"><ele>11.3</ele></trkpt><trkpt lat="34.7856180" lon="126.3837970"><ele>11.9</ele></trkpt><trkpt lat="34.7856240" lon="126.3838130"><ele>12.3</ele></trkpt><trkpt lat="34.7856070" lon="126.3838500"><ele>12.9</ele></trkpt><trkpt lat="34.7852610" lon="126.3840600"><ele>14.6</ele></trkpt><trkpt lat="34.7850440" lon="126.3841630"><ele>16.1</ele></trkpt><trkpt lat="34.7850590" lon="126.3846010"><ele>24.0</ele></trkpt><trkpt lat="34.7851040" lon="126.3846230"><ele>24.6</ele></trkpt><trkpt lat="34.7852720" lon="126.3847880"><ele>25.3</ele></trkpt></trkseg></trk><wpt lat="34.7914000" lon="126.3859000"><name>목포역 인근 시내 숙소 대표 출발점</name><desc>시내 숙소 대표 출발 좌표</desc></wpt><wpt lat="34.7903825" lon="126.3845095"><name>씨엘비베이커리(원도심점)</name><desc>09:04 방문 · 목화솜빵·비파다쿠아즈·맛김새우칩(목포 대표 주전부리)</desc></wpt><wpt lat="34.7901725" lon="126.3845655"><name>고호의 책방</name><desc>09:30 방문 · </desc></wpt><wpt lat="34.7883253" lon="126.3842670"><name>비팡이네</name><desc>09:59 방문 · </desc></wpt><wpt lat="34.7870468" lon="126.3811140"><name>무가보</name><desc>10:30 방문 · 오리지널 치즈케이크</desc></wpt><wpt lat="34.7859637" lon="126.3814912"><name>목포근대역사관 2관</name><desc>11:01 방문 · 일반 입장료</desc></wpt><wpt lat="34.7858834" lon="126.3823640"><name>목포쫀드기 본점</name><desc>11:48 방문 · </desc></wpt><wpt lat="34.7858388" lon="126.3831243"><name>정성김밥</name><desc>12:15 방문 · 매콤톳김밥</desc></wpt><wpt lat="34.7851748" lon="126.3849351"><name>소년 김대중 공부방</name><desc>13:03 방문 · 입장·관람료</desc></wpt>
<trk><name>서산동 골목</name><desc>gpx.studio GraphHopper foot profile · OpenStreetMap pedestrian network · 3978m · hours-and-closures-check</desc><trkseg><trkpt lat="34.7913910" lon="126.3859410"><ele>5.0</ele></trkpt><trkpt lat="34.7913170" lon="126.3859170"><ele>4.8</ele></trkpt><trkpt lat="34.7914680" lon="126.3852750"><ele>6.9</ele></trkpt><trkpt lat="34.7915590" lon="126.3846870"><ele>8.4</ele></trkpt><trkpt lat="34.7916500" lon="126.3843330"><ele>8.0</ele></trkpt><trkpt lat="34.7917190" lon="126.3840650"><ele>9.7</ele></trkpt><trkpt lat="34.7923550" lon="126.3843000"><ele>7.3</ele></trkpt><trkpt lat="34.7917190" lon="126.3840650"><ele>9.7</ele></trkpt><trkpt lat="34.7918230" lon="126.3838720"><ele>10.8</ele></trkpt><trkpt lat="34.7912980" lon="126.3840500"><ele>8.5</ele></trkpt><trkpt lat="34.7908460" lon="126.3841880"><ele>7.7</ele></trkpt><trkpt lat="34.7905350" lon="126.3843080"><ele>7.0</ele></trkpt><trkpt lat="34.7900530" lon="126.3844860"><ele>10.0</ele></trkpt><trkpt lat="34.7898430" lon="126.3845780"><ele>9.3</ele></trkpt><trkpt lat="34.7896470" lon="126.3847340"><ele>9.0</ele></trkpt><trkpt lat="34.7893060" lon="126.3851390"><ele>9.6</ele></trkpt><trkpt lat="34.7879460" lon="126.3845440"><ele>11.9</ele></trkpt><trkpt lat="34.7872370" lon="126.3842600"><ele>8.2</ele></trkpt><trkpt lat="34.7871100" lon="126.3841320"><ele>7.0</ele></trkpt><trkpt lat="34.7869120" lon="126.3839610"><ele>6.0</ele></trkpt><trkpt lat="34.7868980" lon="126.3831650"><ele>5.0</ele></trkpt><trkpt lat="34.7870630" lon="126.3831760"><ele>6.3</ele></trkpt><trkpt lat="34.7870930" lon="126.3831470"><ele>6.8</ele></trkpt><trkpt lat="34.7872620" lon="126.3827950"><ele>10.4</ele></trkpt><trkpt lat="34.7872700" lon="126.3827340"><ele>10.8</ele></trkpt><trkpt lat="34.7872690" lon="126.3826060"><ele>11.4</ele></trkpt><trkpt lat="34.7872840" lon="126.3822970"><ele>11.8</ele></trkpt><trkpt lat="34.7872850" lon="126.3819220"><ele>10.1</ele></trkpt><trkpt lat="34.7873730" lon="126.3818250"><ele>12.1</ele></trkpt><trkpt lat="34.7874760" lon="126.3817570"><ele>13.9</ele></trkpt><trkpt lat="34.7875460" lon="126.3817440"><ele>15.6</ele></trkpt><trkpt lat="34.7874760" lon="126.3817570"><ele>13.9</ele></trkpt><trkpt lat="34.7873730" lon="126.3818250"><ele>12.1</ele></trkpt><trkpt lat="34.7872850" lon="126.3819220"><ele>10.1</ele></trkpt><trkpt lat="34.7872840" lon="126.3822970"><ele>11.8</ele></trkpt><trkpt lat="34.7872690" lon="126.3826060"><ele>11.4</ele></trkpt><trkpt lat="34.7872700" lon="126.3827340"><ele>10.8</ele></trkpt><trkpt lat="34.7872620" lon="126.3827950"><ele>10.4</ele></trkpt><trkpt lat="34.7870930" lon="126.3831470"><ele>6.8</ele></trkpt><trkpt lat="34.7870630" lon="126.3831760"><ele>6.3</ele></trkpt><trkpt lat="34.7868980" lon="126.3831650"><ele>5.0</ele></trkpt><trkpt lat="34.7869120" lon="126.3839610"><ele>6.0</ele></trkpt><trkpt lat="34.7869580" lon="126.3851390"><ele>6.0</ele></trkpt><trkpt lat="34.7873360" lon="126.3855960"><ele>8.6</ele></trkpt><trkpt lat="34.7875250" lon="126.3858240"><ele>8.2</ele></trkpt><trkpt lat="34.7882380" lon="126.3865940"><ele>7.7</ele></trkpt><trkpt lat="34.7884860" lon="126.3869120"><ele>6.4</ele></trkpt><trkpt lat="34.7890600" lon="126.3861890"><ele>9.1</ele></trkpt><trkpt lat="34.7894470" lon="126.3866260"><ele>8.8</ele></trkpt><trkpt lat="34.7897670" lon="126.3862070"><ele>9.8</ele></trkpt><trkpt lat="34.7901490" lon="126.3857080"><ele>9.4</ele></trkpt><trkpt lat="34.7902060" lon="126.3855400"><ele>9.8</ele></trkpt><trkpt lat="34.7906020" lon="126.3856770"><ele>6.6</ele></trkpt><trkpt lat="34.7911270" lon="126.3858530"><ele>5.3</ele></trkpt><trkpt lat="34.7906020" lon="126.3856770"><ele>6.6</ele></trkpt><trkpt lat="34.7902060" lon="126.3855400"><ele>9.8</ele></trkpt><trkpt lat="34.7901670" lon="126.3855100"><ele>9.3</ele></trkpt><trkpt lat="34.7901290" lon="126.3851690"><ele>8.4</ele></trkpt><trkpt lat="34.7900530" lon="126.3844860"><ele>10.0</ele></trkpt><trkpt lat="34.7899120" lon="126.3835270"><ele>11.7</ele></trkpt><trkpt lat="34.7900290" lon="126.3834860"><ele>11.5</ele></trkpt><trkpt lat="34.7899120" lon="126.3835270"><ele>11.7</ele></trkpt><trkpt lat="34.7897760" lon="126.3822580"><ele>19.0</ele></trkpt><trkpt lat="34.7897160" lon="126.3816750"><ele>27.1</ele></trkpt><trkpt lat="34.7896990" lon="126.3813690"><ele>28.3</ele></trkpt><trkpt lat="34.7889950" lon="126.3811490"><ele>39.0</ele></trkpt><trkpt lat="34.7888880" lon="126.3811070"><ele>41.2</ele></trkpt><trkpt lat="34.7888300" lon="126.3810500"><ele>42.5</ele></trkpt><trkpt lat="34.7886710" lon="126.3810290"><ele>44.0</ele></trkpt><trkpt lat="34.7885340" lon="126.3810040"><ele>42.4</ele></trkpt><trkpt lat="34.7884930" lon="126.3809590"><ele>41.7</ele></trkpt><trkpt lat="34.7883600" lon="126.3806190"><ele>41.6</ele></trkpt><trkpt lat="34.7881920" lon="126.3802680"><ele>41.5</ele></trkpt><trkpt lat="34.7879850" lon="126.3799360"><ele>34.3</ele></trkpt><trkpt lat="34.7878890" lon="126.3797630"><ele>31.1</ele></trkpt><trkpt lat="34.7878210" lon="126.3796860"><ele>28.9</ele></trkpt><trkpt lat="34.7877570" lon="126.3796360"><ele>27.6</ele></trkpt><trkpt lat="34.7875580" lon="126.3795110"><ele>25.2</ele></trkpt><trkpt lat="34.7874290" lon="126.3794020"><ele>25.7</ele></trkpt><trkpt lat="34.7872750" lon="126.3792920"><ele>25.7</ele></trkpt><trkpt lat="34.7871600" lon="126.3792170"><ele>24.9</ele></trkpt><trkpt lat="34.7866700" lon="126.3788600"><ele>20.8</ele></trkpt><trkpt lat="34.7865270" lon="126.3787750"><ele>20.2</ele></trkpt><trkpt lat="34.7860990" lon="126.3784000"><ele>24.4</ele></trkpt><trkpt lat="34.7858850" lon="126.3782130"><ele>28.1</ele></trkpt><trkpt lat="34.7855250" lon="126.3778840"><ele>32.8</ele></trkpt><trkpt lat="34.7853450" lon="126.3777190"><ele>32.3</ele></trkpt><trkpt lat="34.7847030" lon="126.3769060"><ele>37.1</ele></trkpt><trkpt lat="34.7843040" lon="126.3763970"><ele>44.2</ele></trkpt><trkpt lat="34.7842000" lon="126.3762360"><ele>46.3</ele></trkpt><trkpt lat="34.7840770" lon="126.3763770"><ele>46.5</ele></trkpt><trkpt lat="34.7839770" lon="126.3766380"><ele>47.6</ele></trkpt><trkpt lat="34.7839410" lon="126.3767660"><ele>48.5</ele></trkpt><trkpt lat="34.7839490" lon="126.3769000"><ele>47.3</ele></trkpt><trkpt lat="34.7839740" lon="126.3770230"><ele>45.6</ele></trkpt><trkpt lat="34.7839760" lon="126.3771110"><ele>45.1</ele></trkpt><trkpt lat="34.7839670" lon="126.3772650"><ele>45.2</ele></trkpt><trkpt lat="34.7839410" lon="126.3773860"><ele>45.4</ele></trkpt><trkpt lat="34.7838340" lon="126.3777480"><ele>45.4</ele></trkpt><trkpt lat="34.7837930" lon="126.3778000"><ele>45.1</ele></trkpt><trkpt lat="34.7833890" lon="126.3775800"><ele>47.6</ele></trkpt><trkpt lat="34.7832010" lon="126.3774840"><ele>47.3</ele></trkpt><trkpt lat="34.7829440" lon="126.3773710"><ele>46.1</ele></trkpt><trkpt lat="34.7828550" lon="126.3773080"><ele>45.0</ele></trkpt><trkpt lat="34.7828310" lon="126.3772740"><ele>44.7</ele></trkpt><trkpt lat="34.7827890" lon="126.3771820"><ele>43.8</ele></trkpt><trkpt lat="34.7826430" lon="126.3767930"><ele>40.2</ele></trkpt><trkpt lat="34.7827890" lon="126.3771820"><ele>43.8</ele></trkpt><trkpt lat="34.7828310" lon="126.3772740"><ele>44.7</ele></trkpt><trkpt lat="34.7828550" lon="126.3773080"><ele>45.0</ele></trkpt><trkpt lat="34.7829440" lon="126.3773710"><ele>46.1</ele></trkpt><trkpt lat="34.7832010" lon="126.3774840"><ele>47.3</ele></trkpt><trkpt lat="34.7833890" lon="126.3775800"><ele>47.6</ele></trkpt><trkpt lat="34.7837930" lon="126.3778000"><ele>45.1</ele></trkpt></trkseg></trk><wpt lat="34.7914000" lon="126.3859000"><name>목포역 인근 시내 숙소 대표 출발점</name><desc>시내 숙소 대표 출발 좌표</desc></wpt><wpt lat="34.7923417" lon="126.3843625"><name>유달콩물(호남로 본점)</name><desc>08:34 방문 · 노랑콩국수</desc></wpt><wpt lat="34.7875870" lon="126.3820943"><name>목포근대역사관 1관</name><desc>09:48 방문 · 일반 성인 입장료</desc></wpt><wpt lat="34.7897235" lon="126.3861582"><name>구보책방</name><desc>11:00 방문 · </desc></wpt><wpt lat="34.7911734" lon="126.3856463"><name>물망초</name><desc>11:30 방문 · </desc></wpt><wpt lat="34.7900432" lon="126.3835452"><name>라멘집아저씨</name><desc>12:00 방문 · 돈코츠라멘</desc></wpt><wpt lat="34.7826234" lon="126.3768046"><name>서산동 시화골목</name><desc>13:19 방문 · </desc></wpt><wpt lat="34.7840241" lon="126.3785128"><name>보리마당</name><desc>13:56 방문 · </desc></wpt>
<trk><name>갓바위 문화타운</name><desc>gpx.studio GraphHopper foot profile · OpenStreetMap pedestrian network · 6448m · hours-and-closures-check</desc><trkseg><trkpt lat="34.7913910" lon="126.3859410"><ele>5.0</ele></trkpt><trkpt lat="34.7913170" lon="126.3859170"><ele>4.8</ele></trkpt><trkpt lat="34.7914680" lon="126.3852750"><ele>6.9</ele></trkpt><trkpt lat="34.7915590" lon="126.3846870"><ele>8.4</ele></trkpt><trkpt lat="34.7916500" lon="126.3843330"><ele>8.0</ele></trkpt><trkpt lat="34.7917190" lon="126.3840650"><ele>9.7</ele></trkpt><trkpt lat="34.7923550" lon="126.3843000"><ele>7.3</ele></trkpt><trkpt lat="34.7930200" lon="126.3845140"><ele>5.8</ele></trkpt><trkpt lat="34.7936430" lon="126.3847260"><ele>5.7</ele></trkpt><trkpt lat="34.7935100" lon="126.3853440"><ele>7.0</ele></trkpt><trkpt lat="34.7942270" lon="126.3855740"><ele>5.7</ele></trkpt><trkpt lat="34.7941280" lon="126.3861810"><ele>6.2</ele></trkpt><trkpt lat="34.7949070" lon="126.3864400"><ele>4.9</ele></trkpt><trkpt lat="34.7947810" lon="126.3870000"><ele>4.7</ele></trkpt><trkpt lat="34.7955270" lon="126.3872280"><ele>4.0</ele></trkpt><trkpt lat="34.7956200" lon="126.3872690"><ele>4.0</ele></trkpt><trkpt lat="34.7955850" lon="126.3873520"><ele>4.0</ele></trkpt><trkpt lat="34.7957500" lon="126.3874340"><ele>5.0</ele></trkpt><trkpt lat="34.7960390" lon="126.3876140"><ele>6.0</ele></trkpt><trkpt lat="34.7958640" lon="126.3882720"><ele>6.0</ele></trkpt><trkpt lat="34.7958570" lon="126.3885160"><ele>6.0</ele></trkpt><trkpt lat="34.7956480" lon="126.3899590"><ele>6.0</ele></trkpt><trkpt lat="34.7956190" lon="126.3903240"><ele>6.0</ele></trkpt><trkpt lat="34.7956160" lon="126.3906770"><ele>4.0</ele></trkpt><trkpt lat="34.7955730" lon="126.3913410"><ele>3.1</ele></trkpt><trkpt lat="34.7955790" lon="126.3917860"><ele>4.0</ele></trkpt><trkpt lat="34.7955580" lon="126.3951640"><ele>5.0</ele></trkpt><trkpt lat="34.7960860" lon="126.3951650"><ele>3.1</ele></trkpt><trkpt lat="34.7960820" lon="126.3958310"><ele>5.0</ele></trkpt><trkpt lat="34.7960610" lon="126.3970080"><ele>2.1</ele></trkpt><trkpt lat="34.7959990" lon="126.4004320"><ele>2.1</ele></trkpt><trkpt lat="34.7951740" lon="126.4015720"><ele>3.5</ele></trkpt><trkpt lat="34.7947310" lon="126.4021680"><ele>3.2</ele></trkpt><trkpt lat="34.7952870" lon="126.4021750"><ele>3.8</ele></trkpt><trkpt lat="34.7950990" lon="126.4023780"><ele>2.6</ele></trkpt><trkpt lat="34.7945700" lon="126.4031030"><ele>1.2</ele></trkpt><trkpt lat="34.7938650" lon="126.4040700"><ele>1.9</ele></trkpt><trkpt lat="34.7938620" lon="126.4047790"><ele>1.2</ele></trkpt><trkpt lat="34.7948170" lon="126.4058250"><ele>4.0</ele></trkpt><trkpt lat="34.7949160" lon="126.4059800"><ele>4.0</ele></trkpt><trkpt lat="34.7949360" lon="126.4060260"><ele>4.0</ele></trkpt><trkpt lat="34.7949180" lon="126.4074070"><ele>3.9</ele></trkpt><trkpt lat="34.7954800" lon="126.4076480"><ele>3.0</ele></trkpt><trkpt lat="34.7954400" lon="126.4082220"><ele>3.0</ele></trkpt><trkpt lat="34.7953610" lon="126.4084910"><ele>1.8</ele></trkpt><trkpt lat="34.7953130" lon="126.4088860"><ele>-0.1</ele></trkpt><trkpt lat="34.7952040" lon="126.4097810"><ele>3.7</ele></trkpt><trkpt lat="34.7951710" lon="126.4099270"><ele>4.0</ele></trkpt><trkpt lat="34.7950980" lon="126.4100720"><ele>4.8</ele></trkpt><trkpt lat="34.7950220" lon="126.4101480"><ele>4.7</ele></trkpt><trkpt lat="34.7947110" lon="126.4103840"><ele>3.4</ele></trkpt><trkpt lat="34.7940180" lon="126.4108630"><ele>3.0</ele></trkpt><trkpt lat="34.7939130" lon="126.4109740"><ele>3.0</ele></trkpt><trkpt lat="34.7938750" lon="126.4110280"><ele>3.0</ele></trkpt><trkpt lat="34.7938140" lon="126.4111530"><ele>3.5</ele></trkpt><trkpt lat="34.7937550" lon="126.4113320"><ele>4.0</ele></trkpt><trkpt lat="34.7935770" lon="126.4119720"><ele>4.8</ele></trkpt><trkpt lat="34.7935110" lon="126.4121800"><ele>4.3</ele></trkpt><trkpt lat="34.7934320" lon="126.4123440"><ele>3.8</ele></trkpt><trkpt lat="34.7932650" lon="126.4126500"><ele>3.3</ele></trkpt><trkpt lat="34.7925650" lon="126.4138640"><ele>4.1</ele></trkpt><trkpt lat="34.7921830" lon="126.4145980"><ele>4.9</ele></trkpt><trkpt lat="34.7919670" lon="126.4150770"><ele>3.7</ele></trkpt><trkpt lat="34.7919060" lon="126.4152820"><ele>3.0</ele></trkpt><trkpt lat="34.7918520" lon="126.4155180"><ele>2.8</ele></trkpt><trkpt lat="34.7918400" lon="126.4156950"><ele>3.2</ele></trkpt><trkpt lat="34.7918490" lon="126.4158560"><ele>3.5</ele></trkpt><trkpt lat="34.7918930" lon="126.4160150"><ele>3.9</ele></trkpt><trkpt lat="34.7919540" lon="126.4161550"><ele>4.3</ele></trkpt><trkpt lat="34.7920480" lon="126.4160950"><ele>5.2</ele></trkpt><trkpt lat="34.7922000" lon="126.4162820"><ele>6.2</ele></trkpt><trkpt lat="34.7922250" lon="126.4163020"><ele>6.6</ele></trkpt><trkpt lat="34.7922410" lon="126.4163030"><ele>7.0</ele></trkpt><trkpt lat="34.7922490" lon="126.4162900"><ele>7.2</ele></trkpt><trkpt lat="34.7922460" lon="126.4162400"><ele>7.4</ele></trkpt><trkpt lat="34.7922180" lon="126.4160990"><ele>7.7</ele></trkpt><trkpt lat="34.7922260" lon="126.4160770"><ele>8.0</ele></trkpt><trkpt lat="34.7922370" lon="126.4160730"><ele>8.2</ele></trkpt><trkpt lat="34.7922500" lon="126.4160780"><ele>8.5</ele></trkpt><trkpt lat="34.7923460" lon="126.4162710"><ele>9.3</ele></trkpt><trkpt lat="34.7923670" lon="126.4162830"><ele>9.6</ele></trkpt><trkpt lat="34.7923770" lon="126.4162780"><ele>9.8</ele></trkpt><trkpt lat="34.7923400" lon="126.4160710"><ele>10.4</ele></trkpt><trkpt lat="34.7923250" lon="126.4159410"><ele>10.9</ele></trkpt><trkpt lat="34.7923250" lon="126.4158000"><ele>11.7</ele></trkpt><trkpt lat="34.7923340" lon="126.4157550"><ele>11.9</ele></trkpt><trkpt lat="34.7923600" lon="126.4157060"><ele>12.5</ele></trkpt><trkpt lat="34.7923690" lon="126.4158960"><ele>12.1</ele></trkpt><trkpt lat="34.7923930" lon="126.4160280"><ele>11.8</ele></trkpt><trkpt lat="34.7924060" lon="126.4160950"><ele>11.7</ele></trkpt><trkpt lat="34.7925220" lon="126.4164030"><ele>11.4</ele></trkpt><trkpt lat="34.7926010" lon="126.4168700"><ele>10.3</ele></trkpt><trkpt lat="34.7926700" lon="126.4170650"><ele>10.7</ele></trkpt><trkpt lat="34.7926880" lon="126.4171150"><ele>10.7</ele></trkpt><trkpt lat="34.7928110" lon="126.4173650"><ele>10.4</ele></trkpt><trkpt lat="34.7928760" lon="126.4174720"><ele>10.0</ele></trkpt><trkpt lat="34.7928930" lon="126.4175210"><ele>9.7</ele></trkpt><trkpt lat="34.7933470" lon="126.4178340"><ele>10.2</ele></trkpt><trkpt lat="34.7933550" lon="126.4182680"><ele>6.8</ele></trkpt><trkpt lat="34.7934980" lon="126.4182710"><ele>7.7</ele></trkpt><trkpt lat="34.7935070" lon="126.4193110"><ele>7.8</ele></trkpt><trkpt lat="34.7933310" lon="126.4193290"><ele>7.6</ele></trkpt><trkpt lat="34.7933470" lon="126.4202470"><ele>10.2</ele></trkpt><trkpt lat="34.7933290" lon="126.4202940"><ele>10.0</ele></trkpt><trkpt lat="34.7929150" lon="126.4206370"><ele>5.9</ele></trkpt><trkpt lat="34.7927080" lon="126.4208080"><ele>5.4</ele></trkpt><trkpt lat="34.7927920" lon="126.4210840"><ele>5.5</ele></trkpt><trkpt lat="34.7928290" lon="126.4212070"><ele>5.5</ele></trkpt><trkpt lat="34.7928490" lon="126.4213440"><ele>5.4</ele></trkpt><trkpt lat="34.7931670" lon="126.4212310"><ele>6.2</ele></trkpt><trkpt lat="34.7934850" lon="126.4211190"><ele>10.4</ele></trkpt><trkpt lat="34.7934960" lon="126.4211610"><ele>10.3</ele></trkpt><trkpt lat="34.7934850" lon="126.4211190"><ele>10.4</ele></trkpt><trkpt lat="34.7931670" lon="126.4212310"><ele>6.2</ele></trkpt><trkpt lat="34.7928490" lon="126.4213440"><ele>5.4</ele></trkpt><trkpt lat="34.7928700" lon="126.4214960"><ele>5.0</ele></trkpt><trkpt lat="34.7929130" lon="126.4224240"><ele>3.1</ele></trkpt><trkpt lat="34.7929620" lon="126.4234550"><ele>3.0</ele></trkpt><trkpt lat="34.7929900" lon="126.4236440"><ele>3.2</ele></trkpt><trkpt lat="34.7930440" lon="126.4237930"><ele>3.5</ele></trkpt><trkpt lat="34.7931380" lon="126.4239650"><ele>4.0</ele></trkpt><trkpt lat="34.7932490" lon="126.4241170"><ele>4.0</ele></trkpt><trkpt lat="34.7933640" lon="126.4242380"><ele>3.8</ele></trkpt><trkpt lat="34.7935890" lon="126.4244000"><ele>3.0</ele></trkpt><trkpt lat="34.7935270" lon="126.4248440"><ele>3.1</ele></trkpt><trkpt lat="34.7934930" lon="126.4248880"><ele>3.1</ele></trkpt><trkpt lat="34.7931810" lon="126.4250150"><ele>3.0</ele></trkpt><trkpt lat="34.7926780" lon="126.4252210"><ele>5.9</ele></trkpt><trkpt lat="34.7925880" lon="126.4252380"><ele>5.8</ele></trkpt><trkpt lat="34.7924350" lon="126.4252010"><ele>4.7</ele></trkpt><trkpt lat="34.7922450" lon="126.4252060"><ele>3.2</ele></trkpt><trkpt lat="34.7920660" lon="126.4252460"><ele>2.1</ele></trkpt><trkpt lat="34.7920330" lon="126.4252710"><ele>2.0</ele></trkpt><trkpt lat="34.7918810" lon="126.4254310"><ele>2.3</ele></trkpt><trkpt lat="34.7916360" lon="126.4257450"><ele>2.6</ele></trkpt><trkpt lat="34.7918190" lon="126.4260570"><ele>2.8</ele></trkpt><trkpt lat="34.7923370" lon="126.4262680"><ele>3.2</ele></trkpt><trkpt lat="34.7925730" lon="126.4261850"><ele>3.3</ele></trkpt><trkpt lat="34.7927890" lon="126.4259830"><ele>3.5</ele></trkpt><trkpt lat="34.7930280" lon="126.4260240"><ele>3.8</ele></trkpt><trkpt lat="34.7932450" lon="126.4261700"><ele>4.2</ele></trkpt><trkpt lat="34.7934210" lon="126.4262140"><ele>4.4</ele></trkpt><trkpt lat="34.7936310" lon="126.4263500"><ele>6.1</ele></trkpt><trkpt lat="34.7938420" lon="126.4264720"><ele>6.1</ele></trkpt><trkpt lat="34.7938060" lon="126.4265740"><ele>4.4</ele></trkpt><trkpt lat="34.7938050" lon="126.4266100"><ele>3.9</ele></trkpt><trkpt lat="34.7938130" lon="126.4266570"><ele>3.7</ele></trkpt><trkpt lat="34.7939140" lon="126.4268960"><ele>3.6</ele></trkpt><trkpt lat="34.7939680" lon="126.4270560"><ele>3.5</ele></trkpt><trkpt lat="34.7940010" lon="126.4272560"><ele>3.8</ele></trkpt><trkpt lat="34.7940120" lon="126.4275250"><ele>4.1</ele></trkpt><trkpt lat="34.7940070" lon="126.4276000"><ele>4.5</ele></trkpt><trkpt lat="34.7939790" lon="126.4277600"><ele>4.6</ele></trkpt><trkpt lat="34.7939810" lon="126.4278290"><ele>4.7</ele></trkpt><trkpt lat="34.7939960" lon="126.4278850"><ele>4.8</ele></trkpt><trkpt lat="34.7941330" lon="126.4281740"><ele>6.0</ele></trkpt><trkpt lat="34.7942830" lon="126.4284590"><ele>8.7</ele></trkpt><trkpt lat="34.7942290" lon="126.4284380"><ele>8.6</ele></trkpt><trkpt lat="34.7941710" lon="126.4284660"><ele>8.7</ele></trkpt><trkpt lat="34.7939390" lon="126.4286460"><ele>8.3</ele></trkpt><trkpt lat="34.7938830" lon="126.4287020"><ele>7.8</ele></trkpt><trkpt lat="34.7940250" lon="126.4290050"><ele>5.3</ele></trkpt><trkpt lat="34.7945570" lon="126.4301300"><ele>6.4</ele></trkpt><trkpt lat="34.7949550" lon="126.4309620"><ele>4.9</ele></trkpt><trkpt lat="34.7954350" lon="126.4306380"><ele>7.0</ele></trkpt><trkpt lat="34.7955990" lon="126.4305200"><ele>6.6</ele></trkpt><trkpt lat="34.7954350" lon="126.4306380"><ele>7.0</ele></trkpt><trkpt lat="34.7952100" lon="126.4301770"><ele>6.2</ele></trkpt><trkpt lat="34.7953570" lon="126.4300710"><ele>6.2</ele></trkpt></trkseg></trk><wpt lat="34.7914000" lon="126.3859000"><name>목포역 인근 시내 숙소 대표 출발점</name><desc>시내 숙소 대표 출발 좌표</desc></wpt><wpt lat="34.7923417" lon="126.3843625"><name>유달콩물(호남로 본점)</name><desc>08:33 방문 · 노랑콩국수</desc></wpt><wpt lat="34.7927462" lon="126.4159330"><name>옥공예전시관</name><desc>10:21 방문 · 일반 입장료</desc></wpt><wpt lat="34.7928511" lon="126.4169703"><name>목포문학관</name><desc>11:07 방문 · 일반 성인 입장료</desc></wpt><wpt lat="34.7924637" lon="126.4212311"><name>수중유산박물관(옛 국립해양유물전시관)</name><desc>11:58 방문 · 일반 입장료</desc></wpt><wpt lat="34.7937272" lon="126.4210673"><name>목포자연사박물관</name><desc>12:44 방문 · 일반 성인 입장료</desc></wpt><wpt lat="34.7946403" lon="126.4300707"><name>해빔</name><desc>13:45 방문 · 꽃게살 해초 비빔밥</desc></wpt><wpt lat="34.7956475" lon="126.4306203"><name>커피창고로(평화광장점)</name><desc>14:47 방문 · 드립커피</desc></wpt><wpt lat="34.7953938" lon="126.4301471"><name>어락</name><desc>17:00 방문 · 회굴비 특정식</desc></wpt>
<trk><name>평화광장·밤바다</name><desc>gpx.studio GraphHopper foot profile · OpenStreetMap pedestrian network · 1260m · hours-and-closures-check</desc><trkseg><trkpt lat="34.7945570" lon="126.4301300"><ele>6.4</ele></trkpt><trkpt lat="34.7954480" lon="126.4319910"><ele>4.8</ele></trkpt><trkpt lat="34.7957950" lon="126.4317550"><ele>5.1</ele></trkpt><trkpt lat="34.7959650" lon="126.4317390"><ele>5.0</ele></trkpt><trkpt lat="34.7964860" lon="126.4313710"><ele>7.0</ele></trkpt><trkpt lat="34.7971870" lon="126.4308790"><ele>6.1</ele></trkpt><trkpt lat="34.7973680" lon="126.4312620"><ele>5.0</ele></trkpt><trkpt lat="34.7974190" lon="126.4313310"><ele>5.0</ele></trkpt><trkpt lat="34.7974860" lon="126.4313790"><ele>4.7</ele></trkpt><trkpt lat="34.7975790" lon="126.4314270"><ele>4.1</ele></trkpt><trkpt lat="34.7977730" lon="126.4314340"><ele>4.5</ele></trkpt><trkpt lat="34.7979040" lon="126.4313440"><ele>5.4</ele></trkpt></trkseg></trk><wpt lat="34.7956475" lon="126.4306203"><name>커피창고로(평화광장점)</name><desc>16:20 방문 · 드립커피</desc></wpt><wpt lat="34.7960696" lon="126.4330925"><name>평화광장</name><desc>17:15 방문 · </desc></wpt><wpt lat="34.7946403" lon="126.4300707"><name>해빔</name><desc>18:30 방문 · 꽃게살 해초 비빔밥</desc></wpt><wpt lat="34.7978383" lon="126.4312028"><name>88포장마차(원형로)</name><desc>20:50 방문 · 닭똥집</desc></wpt><wpt lat="34.7954401" lon="126.4335646"><name>춤추는 바다분수 공연</name><desc>20:00 행사 · 도보 경로 미연결</desc></wpt>
<trk><name>삼학도 해양·평화</name><desc>gpx.studio GraphHopper foot profile · OpenStreetMap pedestrian network · 4716m · hours-and-closures-check</desc><trkseg><trkpt lat="34.7913910" lon="126.3859410"><ele>5.0</ele></trkpt><trkpt lat="34.7913170" lon="126.3859170"><ele>4.8</ele></trkpt><trkpt lat="34.7914680" lon="126.3852750"><ele>6.9</ele></trkpt><trkpt lat="34.7915590" lon="126.3846870"><ele>8.4</ele></trkpt><trkpt lat="34.7916500" lon="126.3843330"><ele>8.0</ele></trkpt><trkpt lat="34.7917190" lon="126.3840650"><ele>9.7</ele></trkpt><trkpt lat="34.7923550" lon="126.3843000"><ele>7.3</ele></trkpt><trkpt lat="34.7917190" lon="126.3840650"><ele>9.7</ele></trkpt><trkpt lat="34.7918230" lon="126.3838720"><ele>10.8</ele></trkpt><trkpt lat="34.7912980" lon="126.3840500"><ele>8.5</ele></trkpt><trkpt lat="34.7908460" lon="126.3841880"><ele>7.7</ele></trkpt><trkpt lat="34.7907760" lon="126.3842190"><ele>7.5</ele></trkpt><trkpt lat="34.7907330" lon="126.3844030"><ele>6.1</ele></trkpt><trkpt lat="34.7905890" lon="126.3849890"><ele>7.7</ele></trkpt><trkpt lat="34.7904710" lon="126.3856310"><ele>8.7</ele></trkpt><trkpt lat="34.7906020" lon="126.3856770"><ele>6.6</ele></trkpt><trkpt lat="34.7904210" lon="126.3862930"><ele>4.8</ele></trkpt><trkpt lat="34.7903110" lon="126.3865040"><ele>5.3</ele></trkpt><trkpt lat="34.7901100" lon="126.3873470"><ele>6.6</ele></trkpt><trkpt lat="34.7900020" lon="126.3874570"><ele>7.4</ele></trkpt><trkpt lat="34.7899140" lon="126.3877820"><ele>8.0</ele></trkpt><trkpt lat="34.7898260" lon="126.3881070"><ele>6.2</ele></trkpt><trkpt lat="34.7897540" lon="126.3883430"><ele>6.2</ele></trkpt><trkpt lat="34.7895250" lon="126.3880890"><ele>5.1</ele></trkpt><trkpt lat="34.7892040" lon="126.3885150"><ele>4.5</ele></trkpt><trkpt lat="34.7888070" lon="126.3890420"><ele>9.0</ele></trkpt><trkpt lat="34.7883000" lon="126.3897150"><ele>5.6</ele></trkpt><trkpt lat="34.7879410" lon="126.3901970"><ele>5.6</ele></trkpt><trkpt lat="34.7883000" lon="126.3897150"><ele>5.6</ele></trkpt><trkpt lat="34.7884470" lon="126.3895210"><ele>7.2</ele></trkpt><trkpt lat="34.7873720" lon="126.3883320"><ele>6.0</ele></trkpt><trkpt lat="34.7868800" lon="126.3877870"><ele>7.9</ele></trkpt><trkpt lat="34.7864350" lon="126.3872920"><ele>6.7</ele></trkpt><trkpt lat="34.7858310" lon="126.3865920"><ele>6.7</ele></trkpt><trkpt lat="34.7853740" lon="126.3860980"><ele>9.8</ele></trkpt><trkpt lat="34.7851650" lon="126.3858950"><ele>11.8</ele></trkpt><trkpt lat="34.7847480" lon="126.3854900"><ele>11.5</ele></trkpt><trkpt lat="34.7848780" lon="126.3851820"><ele>16.2</ele></trkpt><trkpt lat="34.7850460" lon="126.3847360"><ele>24.1</ele></trkpt><trkpt lat="34.7850600" lon="126.3846750"><ele>24.4</ele></trkpt><trkpt lat="34.7850590" lon="126.3846010"><ele>24.0</ele></trkpt><trkpt lat="34.7851040" lon="126.3846230"><ele>24.6</ele></trkpt><trkpt lat="34.7852720" lon="126.3847880"><ele>25.3</ele></trkpt><trkpt lat="34.7851040" lon="126.3846230"><ele>24.6</ele></trkpt><trkpt lat="34.7850590" lon="126.3846010"><ele>24.0</ele></trkpt><trkpt lat="34.7850600" lon="126.3846750"><ele>24.4</ele></trkpt><trkpt lat="34.7850460" lon="126.3847360"><ele>24.1</ele></trkpt><trkpt lat="34.7848780" lon="126.3851820"><ele>16.2</ele></trkpt><trkpt lat="34.7847480" lon="126.3854900"><ele>11.5</ele></trkpt><trkpt lat="34.7851650" lon="126.3858950"><ele>11.8</ele></trkpt><trkpt lat="34.7853740" lon="126.3860980"><ele>9.8</ele></trkpt><trkpt lat="34.7856860" lon="126.3864350"><ele>7.7</ele></trkpt><trkpt lat="34.7858310" lon="126.3865920"><ele>6.7</ele></trkpt><trkpt lat="34.7864350" lon="126.3872920"><ele>6.7</ele></trkpt><trkpt lat="34.7860300" lon="126.3877550"><ele>3.4</ele></trkpt><trkpt lat="34.7858830" lon="126.3878690"><ele>2.5</ele></trkpt><trkpt lat="34.7870910" lon="126.3900560"><ele>2.5</ele></trkpt><trkpt lat="34.7871590" lon="126.3901640"><ele>2.7</ele></trkpt><trkpt lat="34.7873680" lon="126.3904430"><ele>2.2</ele></trkpt><trkpt lat="34.7877720" lon="126.3909170"><ele>2.1</ele></trkpt><trkpt lat="34.7883460" lon="126.3916850"><ele>1.9</ele></trkpt><trkpt lat="34.7881830" lon="126.3920090"><ele>0.9</ele></trkpt><trkpt lat="34.7879520" lon="126.3923580"><ele>1.8</ele></trkpt><trkpt lat="34.7876050" lon="126.3928120"><ele>1.2</ele></trkpt><trkpt lat="34.7870840" lon="126.3934930"><ele>3.1</ele></trkpt><trkpt lat="34.7872080" lon="126.3937720"><ele>3.7</ele></trkpt><trkpt lat="34.7871710" lon="126.3938490"><ele>3.7</ele></trkpt><trkpt lat="34.7871480" lon="126.3939630"><ele>4.0</ele></trkpt><trkpt lat="34.7871410" lon="126.3940740"><ele>4.0</ele></trkpt><trkpt lat="34.7868860" lon="126.3941040"><ele>4.0</ele></trkpt><trkpt lat="34.7866440" lon="126.3942750"><ele>4.0</ele></trkpt><trkpt lat="34.7865690" lon="126.3943140"><ele>4.0</ele></trkpt><trkpt lat="34.7863100" lon="126.3945100"><ele>4.0</ele></trkpt><trkpt lat="34.7861300" lon="126.3946050"><ele>4.0</ele></trkpt><trkpt lat="34.7860840" lon="126.3946210"><ele>4.3</ele></trkpt><trkpt lat="34.7859200" lon="126.3946330"><ele>5.0</ele></trkpt><trkpt lat="34.7857090" lon="126.3946200"><ele>5.0</ele></trkpt><trkpt lat="34.7857130" lon="126.3947110"><ele>6.4</ele></trkpt><trkpt lat="34.7856800" lon="126.3947890"><ele>7.8</ele></trkpt><trkpt lat="34.7851600" lon="126.3949530"><ele>9.8</ele></trkpt><trkpt lat="34.7850610" lon="126.3950010"><ele>10.3</ele></trkpt><trkpt lat="34.7848910" lon="126.3951700"><ele>13.3</ele></trkpt><trkpt lat="34.7847960" lon="126.3953390"><ele>16.4</ele></trkpt><trkpt lat="34.7846070" lon="126.3958560"><ele>24.6</ele></trkpt><trkpt lat="34.7845100" lon="126.3960200"><ele>25.7</ele></trkpt><trkpt lat="34.7844350" lon="126.3961760"><ele>27.2</ele></trkpt><trkpt lat="34.7844390" lon="126.3962870"><ele>29.3</ele></trkpt><trkpt lat="34.7845090" lon="126.3963870"><ele>33.0</ele></trkpt><trkpt lat="34.7844710" lon="126.3964910"><ele>33.7</ele></trkpt><trkpt lat="34.7845090" lon="126.3963870"><ele>33.0</ele></trkpt><trkpt lat="34.7844390" lon="126.3962870"><ele>29.3</ele></trkpt><trkpt lat="34.7844350" lon="126.3961760"><ele>27.2</ele></trkpt><trkpt lat="34.7845100" lon="126.3960200"><ele>25.7</ele></trkpt><trkpt lat="34.7846070" lon="126.3958560"><ele>24.6</ele></trkpt><trkpt lat="34.7847960" lon="126.3953390"><ele>16.4</ele></trkpt><trkpt lat="34.7848910" lon="126.3951700"><ele>13.3</ele></trkpt><trkpt lat="34.7850610" lon="126.3950010"><ele>10.3</ele></trkpt><trkpt lat="34.7851600" lon="126.3949530"><ele>9.8</ele></trkpt><trkpt lat="34.7856800" lon="126.3947890"><ele>7.8</ele></trkpt><trkpt lat="34.7857130" lon="126.3947110"><ele>6.4</ele></trkpt><trkpt lat="34.7857090" lon="126.3946200"><ele>5.0</ele></trkpt><trkpt lat="34.7853590" lon="126.3946760"><ele>5.7</ele></trkpt><trkpt lat="34.7848670" lon="126.3946030"><ele>5.0</ele></trkpt><trkpt lat="34.7847810" lon="126.3942980"><ele>4.5</ele></trkpt><trkpt lat="34.7847320" lon="126.3941610"><ele>4.1</ele></trkpt><trkpt lat="34.7846860" lon="126.3941000"><ele>3.9</ele></trkpt><trkpt lat="34.7846200" lon="126.3940700"><ele>3.7</ele></trkpt><trkpt lat="34.7845690" lon="126.3940140"><ele>3.4</ele></trkpt><trkpt lat="34.7844970" lon="126.3938880"><ele>3.3</ele></trkpt><trkpt lat="34.7844130" lon="126.3937030"><ele>2.7</ele></trkpt><trkpt lat="34.7843250" lon="126.3935950"><ele>2.7</ele></trkpt><trkpt lat="34.7836840" lon="126.3931980"><ele>3.2</ele></trkpt><trkpt lat="34.7834810" lon="126.3930560"><ele>4.0</ele></trkpt><trkpt lat="34.7833400" lon="126.3929410"><ele>4.0</ele></trkpt><trkpt lat="34.7832460" lon="126.3928010"><ele>4.0</ele></trkpt><trkpt lat="34.7831950" lon="126.3926670"><ele>4.0</ele></trkpt><trkpt lat="34.7831790" lon="126.3925490"><ele>4.0</ele></trkpt><trkpt lat="34.7831900" lon="126.3922640"><ele>4.1</ele></trkpt><trkpt lat="34.7831950" lon="126.3921870"><ele>4.2</ele></trkpt><trkpt lat="34.7831860" lon="126.3920640"><ele>4.9</ele></trkpt><trkpt lat="34.7831490" lon="126.3918870"><ele>5.0</ele></trkpt><trkpt lat="34.7829880" lon="126.3915330"><ele>5.0</ele></trkpt><trkpt lat="34.7829550" lon="126.3914170"><ele>5.0</ele></trkpt><trkpt lat="34.7829300" lon="126.3911300"><ele>4.8</ele></trkpt><trkpt lat="34.7828950" lon="126.3910200"><ele>4.2</ele></trkpt><trkpt lat="34.7828200" lon="126.3909270"><ele>4.0</ele></trkpt><trkpt lat="34.7825490" lon="126.3907710"><ele>3.7</ele></trkpt><trkpt lat="34.7824940" lon="126.3906990"><ele>3.7</ele></trkpt><trkpt lat="34.7823000" lon="126.3903180"><ele>4.0</ele></trkpt><trkpt lat="34.7821970" lon="126.3902160"><ele>4.0</ele></trkpt><trkpt lat="34.7819940" lon="126.3900870"><ele>4.0</ele></trkpt><trkpt lat="34.7819520" lon="126.3900330"><ele>4.0</ele></trkpt><trkpt lat="34.7819050" lon="126.3897860"><ele>4.2</ele></trkpt><trkpt lat="34.7818140" lon="126.3898180"><ele>4.0</ele></trkpt><trkpt lat="34.7817690" lon="126.3896000"><ele>4.0</ele></trkpt><trkpt lat="34.7817740" lon="126.3894780"><ele>4.0</ele></trkpt><trkpt lat="34.7818020" lon="126.3893730"><ele>4.6</ele></trkpt><trkpt lat="34.7818290" lon="126.3893170"><ele>4.9</ele></trkpt><trkpt lat="34.7818870" lon="126.3892670"><ele>5.2</ele></trkpt><trkpt lat="34.7821040" lon="126.3891730"><ele>5.2</ele></trkpt><trkpt lat="34.7818870" lon="126.3892670"><ele>5.2</ele></trkpt><trkpt lat="34.7818290" lon="126.3893170"><ele>4.9</ele></trkpt><trkpt lat="34.7817770" lon="126.3892440"><ele>5.3</ele></trkpt><trkpt lat="34.7814800" lon="126.3891000"><ele>4.2</ele></trkpt><trkpt lat="34.7815160" lon="126.3889500"><ele>4.8</ele></trkpt><trkpt lat="34.7815230" lon="126.3888290"><ele>5.3</ele></trkpt><trkpt lat="34.7814870" lon="126.3886970"><ele>4.7</ele></trkpt><trkpt lat="34.7814570" lon="126.3886350"><ele>4.1</ele></trkpt><trkpt lat="34.7814360" lon="126.3886110"><ele>4.0</ele></trkpt><trkpt lat="34.7811390" lon="126.3884570"><ele>3.6</ele></trkpt></trkseg></trk><wpt lat="34.7914000" lon="126.3859000"><name>목포역 인근 시내 숙소 대표 출발점</name><desc>시내 숙소 대표 출발 좌표</desc></wpt><wpt lat="34.7923417" lon="126.3843625"><name>유달콩물(호남로 본점)</name><desc>08:33 방문 · 노랑콩국수</desc></wpt><wpt lat="34.7879192" lon="126.3901732"><name>목포종합수산시장</name><desc>09:45 방문 · </desc></wpt><wpt lat="34.7851748" lon="126.3849351"><name>소년 김대중 공부방</name><desc>10:20 방문 · 입장·관람료</desc></wpt><wpt lat="34.7856321" lon="126.3865090"><name>성식당(수강로 본점 후보)</name><desc>11:30 방문 · 떡갈비백반</desc></wpt><wpt lat="34.7845039" lon="126.3965089"><name>삼학도 공원·이난영공원</name><desc>12:48 방문 · </desc></wpt><wpt lat="34.7828489" lon="126.3922302"><name>김대중노벨평화상기념관</name><desc>14:27 방문 · 일반 입장료</desc></wpt><wpt lat="34.7820060" lon="126.3888338"><name>목포어린이바다과학관</name><desc>15:17 방문 · 일반 성인 입장료</desc></wpt><wpt lat="34.7812872" lon="126.3880262"><name>연희네포차(항구포차 9호)</name><desc>17:30 방문 · 연희육꼬비(목포식 육회꼬막비빔밥)</desc></wpt>
<trk><name>원도심 카페 산책</name><desc>gpx.studio GraphHopper foot profile · OpenStreetMap pedestrian network · 3009m · hours-and-closures-check</desc><trkseg><trkpt lat="34.7913910" lon="126.3859410"><ele>5.0</ele></trkpt><trkpt lat="34.7913170" lon="126.3859170"><ele>4.8</ele></trkpt><trkpt lat="34.7914680" lon="126.3852750"><ele>6.9</ele></trkpt><trkpt lat="34.7912770" lon="126.3852140"><ele>7.4</ele></trkpt><trkpt lat="34.7914680" lon="126.3852750"><ele>6.9</ele></trkpt><trkpt lat="34.7915590" lon="126.3846870"><ele>8.4</ele></trkpt><trkpt lat="34.7920300" lon="126.3848470"><ele>9.0</ele></trkpt><trkpt lat="34.7922910" lon="126.3849360"><ele>7.3</ele></trkpt><trkpt lat="34.7920300" lon="126.3848470"><ele>9.0</ele></trkpt><trkpt lat="34.7907330" lon="126.3844030"><ele>6.1</ele></trkpt><trkpt lat="34.7907760" lon="126.3842190"><ele>7.5</ele></trkpt><trkpt lat="34.7905350" lon="126.3843080"><ele>7.0</ele></trkpt><trkpt lat="34.7900530" lon="126.3844860"><ele>10.0</ele></trkpt><trkpt lat="34.7898430" lon="126.3845780"><ele>9.3</ele></trkpt><trkpt lat="34.7896470" lon="126.3847340"><ele>9.0</ele></trkpt><trkpt lat="34.7893060" lon="126.3851390"><ele>9.6</ele></trkpt><trkpt lat="34.7891330" lon="126.3853850"><ele>9.2</ele></trkpt><trkpt lat="34.7887880" lon="126.3858770"><ele>13.2</ele></trkpt><trkpt lat="34.7885900" lon="126.3861310"><ele>12.8</ele></trkpt><trkpt lat="34.7882380" lon="126.3865940"><ele>7.7</ele></trkpt><trkpt lat="34.7883260" lon="126.3867070"><ele>7.2</ele></trkpt><trkpt lat="34.7882380" lon="126.3865940"><ele>7.7</ele></trkpt><trkpt lat="34.7875250" lon="126.3858240"><ele>8.2</ele></trkpt><trkpt lat="34.7873360" lon="126.3855960"><ele>8.6</ele></trkpt><trkpt lat="34.7869580" lon="126.3851390"><ele>6.0</ele></trkpt><trkpt lat="34.7868070" lon="126.3853330"><ele>6.7</ele></trkpt><trkpt lat="34.7869580" lon="126.3851390"><ele>6.0</ele></trkpt><trkpt lat="34.7869120" lon="126.3839610"><ele>6.0</ele></trkpt><trkpt lat="34.7868980" lon="126.3831650"><ele>5.0</ele></trkpt><trkpt lat="34.7867880" lon="126.3811340"><ele>6.4</ele></trkpt><trkpt lat="34.7867950" lon="126.3812820"><ele>6.5</ele></trkpt><trkpt lat="34.7860870" lon="126.3813410"><ele>4.3</ele></trkpt><trkpt lat="34.7860980" lon="126.3815570"><ele>4.4</ele></trkpt><trkpt lat="34.7861290" lon="126.3822200"><ele>4.8</ele></trkpt><trkpt lat="34.7848670" lon="126.3823150"><ele>5.0</ele></trkpt><trkpt lat="34.7842840" lon="126.3823430"><ele>4.6</ele></trkpt><trkpt lat="34.7840420" lon="126.3823690"><ele>4.7</ele></trkpt><trkpt lat="34.7836250" lon="126.3824150"><ele>5.0</ele></trkpt><trkpt lat="34.7832350" lon="126.3825090"><ele>5.2</ele></trkpt><trkpt lat="34.7830800" lon="126.3816560"><ele>5.0</ele></trkpt><trkpt lat="34.7821870" lon="126.3819070"><ele>7.0</ele></trkpt><trkpt lat="34.7821290" lon="126.3816040"><ele>4.5</ele></trkpt><trkpt lat="34.7818960" lon="126.3803720"><ele>3.0</ele></trkpt><trkpt lat="34.7817800" lon="126.3797450"><ele>7.8</ele></trkpt><trkpt lat="34.7816640" lon="126.3791190"><ele>9.6</ele></trkpt><trkpt lat="34.7816010" lon="126.3787190"><ele>11.0</ele></trkpt><trkpt lat="34.7815740" lon="126.3786400"><ele>11.2</ele></trkpt><trkpt lat="34.7811620" lon="126.3778840"><ele>6.9</ele></trkpt><trkpt lat="34.7811360" lon="126.3778020"><ele>6.7</ele></trkpt><trkpt lat="34.7810280" lon="126.3768510"><ele>8.4</ele></trkpt><trkpt lat="34.7806650" lon="126.3763750"><ele>6.4</ele></trkpt><trkpt lat="34.7805400" lon="126.3763660"><ele>5.9</ele></trkpt><trkpt lat="34.7804950" lon="126.3759170"><ele>6.0</ele></trkpt><trkpt lat="34.7802560" lon="126.3740790"><ele>2.7</ele></trkpt><trkpt lat="34.7802330" lon="126.3737870"><ele>3.6</ele></trkpt><trkpt lat="34.7802410" lon="126.3736090"><ele>3.8</ele></trkpt><trkpt lat="34.7803040" lon="126.3731530"><ele>3.8</ele></trkpt><trkpt lat="34.7805070" lon="126.3731660"><ele>4.6</ele></trkpt></trkseg></trk><wpt lat="34.7914000" lon="126.3859000"><name>목포역 인근 시내 숙소 대표 출발점</name><desc>시내 숙소 대표 출발 좌표</desc></wpt><wpt lat="34.7912584" lon="126.3852995"><name>혹호</name><desc>10:01 방문 · 하트&amp;별 당근케이크</desc></wpt><wpt lat="34.7923312" lon="126.3847631"><name>인스파이어링 커피</name><desc>10:43 방문 · 아몬드크림커피</desc></wpt><wpt lat="34.7884179" lon="126.3866014"><name>화신연쇄점</name><desc>11:30 방문 · 바다레몬에이드</desc></wpt><wpt lat="34.7867043" lon="126.3852150"><name>쿠레레</name><desc>12:13 방문 · 옥수수크림커피</desc></wpt><wpt lat="34.7870468" lon="126.3811140"><name>무가보</name><desc>12:58 방문 · 오리지널 치즈케이크</desc></wpt><wpt lat="34.7862431" lon="126.3815469"><name>유달동의로망스</name><desc>13:39 방문 · 생무화과빙수</desc></wpt><wpt lat="34.7840345" lon="126.3822672"><name>송자르트</name><desc>14:23 방문 · 송자라떼(only iced)</desc></wpt><wpt lat="34.7805019" lon="126.3732844"><name>달몬트</name><desc>15:17 방문 · 흑임자라떼</desc></wpt>
</gpx>
