{
  "type": "FeatureCollection",
  "metadata": {
    "generated": "2026-10-07",
    "source": "gpx.studio walking route planner",
    "profile": "foot"
  },
  "features": [
    {
      "type": "Feature",
      "id": "mokpo-oldtown",
      "properties": {
        "id": "mokpo-oldtown",
        "theme": "oldtown",
        "themeName": "근대거리·시장",
        "title": "근대거리·시장",
        "visitCount": 8,
        "distanceMeters": 1631,
        "savedLineDistanceMeters": 1631,
        "walkingMinutes": 23,
        "start": "09:00",
        "end": "13:48",
        "hoursStatus": "hours-and-closures-check",
        "mealPolicy": "snack-half-day",
        "routeOrderPolicy": "테마에 맞는 대표성과 고유한 콘텐츠가 있는 장소를 먼저 고르고, 후보 간 적합성이 비슷하면 실제 보행 거리가 짧고 자연스럽게 이어지는 곳을 우선한다. 최종 방문 순서는 지도 핀 직선이 아니라 실제 보행 동선과 진행 방향을 우선한다. 직선거리만으로 순서를 정하지 않고, 저장 보행망과 방향을 기준으로 가까운 다음 장소로 이어가며 이미 지난 권역으로 불필요하게 되돌아가지 않는다. 시내 대표점에서 시작하고 식사·카페도 동선에 배치한다. 사용자가 지정한 장소 순서가 있으면 우선한다. 지도 UI·출입구를 확인하지 못한 구간은 미확인으로 표시한다.",
        "source": {
          "label": "gpx.studio GraphHopper foot profile · OpenStreetMap pedestrian network",
          "url": "https://gpx.studio/",
          "checkedOn": "2026-10-07",
          "profile": "foot"
        },
        "routeReview": "목포역 인근에서 09:00 출발해 책방과 시장 간식거리에서 남쪽으로 이어가는 반일 코스. 비팡이네 이후 노적봉 방향의 U자형 보행 우회와 전시관 권역의 되짚기를 피하려고 노적봉·노적봉예술공원미술관·근대역사관 1관은 제외하고, 무가보·근대역사관 2관·목포쫀드기·정성김밥·소년 김대중 공부방으로 연결했다. 씨엘비베이커리의 목포 대표 주전부리 3종과 무가보 치즈케이크를 포함해 간식·카페 중심으로 구성하고 식사는 점심 한 곳만 둔다. 아침은 09:00 출발이라 제외하고 저녁 식사 시간 전 마친다. 가격·당일 판매와 재고는 방문 전에 확인.",
        "accessReview": "목포역 인근 대표 출발점에서 시작해 남쪽으로 진행하는 반일 동선. 종점은 소년 김대중 공부방이며 목포역 귀환 경로는 별도 포함하지 않았다. 실제 보행 UI·출입구·방문일 운영은 미확인.",
        "origin": {
          "id": "station",
          "name": "목포역 인근 시내 숙소 대표 출발점",
          "lat": 34.7914,
          "lon": 126.3859
        },
        "originLeg": {
          "fromId": "station",
          "toId": "p115",
          "meters": 271,
          "minutes": 4,
          "straightMeters": 170,
          "detourRatio": 1.59,
          "pinOffsetMeters": 13
        },
        "accessLeg": null,
        "geometryWarnings": [],
        "events": [],
        "stopIds": [
          "p115",
          "p113",
          "p125",
          "p96",
          "p9",
          "p120",
          "p64",
          "p31"
        ],
        "stops": [
          {
            "placeId": "p115",
            "name": "씨엘비베이커리(원도심점)",
            "category": "market",
            "arrival": "09:04",
            "departure": "09:29",
            "mealSlot": null,
            "specialtyMenu": "목화솜빵·비파다쿠아즈·맛김새우칩(목포 대표 주전부리)",
            "specialtyPrice": "가격 확인 필요",
            "specialtySource": "https://tour.mokpo.go.kr/tour/food_100/mokpo_snack"
          },
          {
            "placeId": "p113",
            "name": "고호의 책방",
            "category": "books",
            "arrival": "09:30",
            "departure": "09:55",
            "mealSlot": null,
            "specialtyMenu": null,
            "specialtyPrice": null,
            "specialtySource": null
          },
          {
            "placeId": "p125",
            "name": "비팡이네",
            "category": "books",
            "arrival": "09:59",
            "departure": "10:24",
            "mealSlot": null,
            "specialtyMenu": null,
            "specialtyPrice": null,
            "specialtySource": null
          },
          {
            "placeId": "p96",
            "name": "무가보",
            "category": "cafe",
            "arrival": "10:30",
            "departure": "11:00",
            "mealSlot": null,
            "specialtyMenu": "오리지널 치즈케이크",
            "specialtyPrice": "4,500원",
            "specialtySource": "https://www.diningcode.com/profile.php?rid=6Lmszmg0Xh7q"
          },
          {
            "placeId": "p9",
            "name": "목포근대역사관 2관",
            "category": "culture",
            "arrival": "11:01",
            "departure": "11:46",
            "mealSlot": null,
            "specialtyMenu": "일반 입장료",
            "specialtyPrice": "무료",
            "specialtySource": "https://www.mokpo.go.kr/tour/tourguide/information/admission"
          },
          {
            "placeId": "p120",
            "name": "목포쫀드기 본점",
            "category": "market",
            "arrival": "11:48",
            "departure": "12:13",
            "mealSlot": null,
            "specialtyMenu": null,
            "specialtyPrice": null,
            "specialtySource": null
          },
          {
            "placeId": "p64",
            "name": "정성김밥",
            "category": "food",
            "arrival": "12:15",
            "departure": "13:00",
            "mealSlot": "점심",
            "specialtyMenu": "매콤톳김밥",
            "specialtyPrice": "5,800원",
            "specialtySource": "https://www.diningcode.com/profile.php?rid=WDoaDsdQKSc9"
          },
          {
            "placeId": "p31",
            "name": "소년 김대중 공부방",
            "category": "culture",
            "arrival": "13:03",
            "departure": "13:48",
            "mealSlot": null,
            "specialtyMenu": "입장·관람료",
            "specialtyPrice": "무료",
            "specialtySource": "https://www.koreatriptips.com/cultural-facilities/4068783.html"
          }
        ],
        "legs": [
          {
            "fromId": "p115",
            "toId": "p113",
            "meters": 24,
            "minutes": 1,
            "straightMeters": 24,
            "detourRatio": 1.0,
            "pinOffsetMeters": 13
          },
          {
            "fromId": "p113",
            "toId": "p125",
            "meters": 266,
            "minutes": 4,
            "straightMeters": 207,
            "detourRatio": 1.29,
            "pinOffsetMeters": 11
          },
          {
            "fromId": "p125",
            "toId": "p96",
            "meters": 449,
            "minutes": 6,
            "straightMeters": 321,
            "detourRatio": 1.4,
            "pinOffsetMeters": 29
          },
          {
            "fromId": "p96",
            "toId": "p9",
            "meters": 107,
            "minutes": 1,
            "straightMeters": 125,
            "detourRatio": 0.85,
            "pinOffsetMeters": 29
          },
          {
            "fromId": "p9",
            "toId": "p120",
            "meters": 123,
            "minutes": 2,
            "straightMeters": 80,
            "detourRatio": 1.53,
            "pinOffsetMeters": 13
          },
          {
            "fromId": "p120",
            "toId": "p64",
            "meters": 158,
            "minutes": 2,
            "straightMeters": 70,
            "detourRatio": 2.28,
            "pinOffsetMeters": 12
          },
          {
            "fromId": "p64",
            "toId": "p31",
            "meters": 233,
            "minutes": 3,
            "straightMeters": 181,
            "detourRatio": 1.28,
            "pinOffsetMeters": 17
          }
        ]
      },
      "geometry": {
        "type": "LineString",
        "coordinates": [
          [
            126.385941,
            34.791391
          ],
          [
            126.385677,
            34.790602
          ],
          [
            126.38554,
            34.790206
          ],
          [
            126.38551,
            34.790167
          ],
          [
            126.385169,
            34.790129
          ],
          [
            126.384486,
            34.790053
          ],
          [
            126.384377,
            34.790349
          ],
          [
            126.384452,
            34.790144
          ],
          [
            126.384486,
            34.790053
          ],
          [
            126.383816,
            34.789953
          ],
          [
            126.384188,
            34.788916
          ],
          [
            126.38438,
            34.788382
          ],
          [
            126.384258,
            34.78836
          ],
          [
            126.38438,
            34.788382
          ],
          [
            126.384544,
            34.787946
          ],
          [
            126.38426,
            34.787237
          ],
          [
            126.384132,
            34.78711
          ],
          [
            126.383961,
            34.786912
          ],
          [
            126.383165,
            34.786898
          ],
          [
            126.381134,
            34.786788
          ],
          [
            126.381282,
            34.786795
          ],
          [
            126.381351,
            34.785957
          ],
          [
            126.381341,
            34.786087
          ],
          [
            126.38222,
            34.786129
          ],
          [
            126.382238,
            34.785877
          ],
          [
            126.38222,
            34.786129
          ],
          [
            126.383195,
            34.786211
          ],
          [
            126.383228,
            34.785859
          ],
          [
            126.38323,
            34.785845
          ],
          [
            126.383228,
            34.785859
          ],
          [
            126.383521,
            34.785634
          ],
          [
            126.38355,
            34.785571
          ],
          [
            126.383631,
            34.785582
          ],
          [
            126.383668,
            34.785566
          ],
          [
            126.383737,
            34.785488
          ],
          [
            126.383771,
            34.785479
          ],
          [
            126.383792,
            34.785489
          ],
          [
            126.383816,
            34.785528
          ],
          [
            126.383784,
            34.78559
          ],
          [
            126.383797,
            34.785618
          ],
          [
            126.383813,
            34.785624
          ],
          [
            126.38385,
            34.785607
          ],
          [
            126.38406,
            34.785261
          ],
          [
            126.384163,
            34.785044
          ],
          [
            126.384601,
            34.785059
          ],
          [
            126.384623,
            34.785104
          ],
          [
            126.384788,
            34.785272
          ]
        ]
      }
    },
    {
      "type": "Feature",
      "id": "mokpo-seosandong",
      "properties": {
        "id": "mokpo-seosandong",
        "theme": "seosandong",
        "themeName": "서산동 골목",
        "title": "서산동 골목",
        "visitCount": 7,
        "distanceMeters": 3978,
        "savedLineDistanceMeters": 3979,
        "walkingMinutes": 57,
        "start": "08:30",
        "end": "14:31",
        "hoursStatus": "hours-and-closures-check",
        "routeOrderPolicy": "테마에 맞는 대표성과 고유한 콘텐츠가 있는 장소를 먼저 고르고, 후보 간 적합성이 비슷하면 실제 보행 거리가 짧고 자연스럽게 이어지는 곳을 우선한다. 최종 방문 순서는 지도 핀 직선이 아니라 실제 보행 동선과 진행 방향을 우선한다. 직선거리만으로 순서를 정하지 않고, 저장 보행망과 방향을 기준으로 가까운 다음 장소로 이어가며 이미 지난 권역으로 불필요하게 되돌아가지 않는다. 시내 대표점에서 시작하고 식사·카페도 동선에 배치한다. 사용자가 지정한 장소 순서가 있으면 우선한다. 지도 UI·출입구를 확인하지 못한 구간은 미확인으로 표시한다.",
        "source": {
          "label": "gpx.studio GraphHopper foot profile · OpenStreetMap pedestrian network",
          "url": "https://gpx.studio/",
          "checkedOn": "2026-10-07",
          "profile": "foot"
        },
        "routeReview": "시내 아침에서 출발해 근대역사관과 원도심 책방·점심을 거쳐 시화골목과 보리마당에서 마치는 반일 코스. 저장 경로는 기존 선을 서산동 구간에서 잘라 재사용했으며, 실제 보행 접근·출입구·당일 운영과 지도 UI 대조는 미완료.",
        "accessReview": "목포역 인근 시내 대표점부터 보리마당까지 기존 저장 도보망을 분리해 사용. 실제 숙소 위치·출입구·언덕·계단과 전체 구간의 지도 UI 대조는 미확인.",
        "origin": {
          "id": "station",
          "name": "목포역 인근 시내 숙소 대표 출발점",
          "lat": 34.7914,
          "lon": 126.3859
        },
        "originLeg": {
          "fromId": "station",
          "toId": "p61",
          "meters": 258,
          "minutes": 4,
          "straightMeters": 175,
          "detourRatio": 1.47,
          "pinOffsetMeters": 6
        },
        "accessLeg": null,
        "geometryWarnings": [],
        "events": [],
        "stopIds": [
          "p61",
          "p8",
          "p128",
          "p118",
          "p83",
          "p10",
          "p11"
        ],
        "stops": [
          {
            "placeId": "p61",
            "name": "유달콩물(호남로 본점)",
            "category": "food",
            "arrival": "08:34",
            "departure": "09:34",
            "mealSlot": "아침",
            "specialtyMenu": "노랑콩국수",
            "specialtyPrice": "12,000원"
          },
          {
            "placeId": "p8",
            "name": "목포근대역사관 1관",
            "category": "culture",
            "arrival": "09:48",
            "departure": "10:33",
            "mealSlot": null,
            "specialtyMenu": "일반 성인 입장료",
            "specialtyPrice": "2,000원"
          },
          {
            "placeId": "p128",
            "name": "구보책방",
            "category": "books",
            "arrival": "11:00",
            "departure": "11:25",
            "mealSlot": null,
            "specialtyMenu": null,
            "specialtyPrice": null
          },
          {
            "placeId": "p118",
            "name": "물망초",
            "category": "books",
            "arrival": "11:30",
            "departure": "11:55",
            "mealSlot": null,
            "specialtyMenu": null,
            "specialtyPrice": null
          },
          {
            "placeId": "p83",
            "name": "라멘집아저씨",
            "category": "food",
            "arrival": "12:00",
            "departure": "13:00",
            "mealSlot": "점심",
            "specialtyMenu": "돈코츠라멘",
            "specialtyPrice": "9,000원"
          },
          {
            "placeId": "p10",
            "name": "서산동 시화골목",
            "category": "outdoors",
            "arrival": "13:19",
            "departure": "13:54",
            "mealSlot": null,
            "specialtyMenu": null,
            "specialtyPrice": null
          },
          {
            "placeId": "p11",
            "name": "보리마당",
            "category": "outdoors",
            "arrival": "13:56",
            "departure": "14:31",
            "mealSlot": null,
            "specialtyMenu": null,
            "specialtyPrice": null
          }
        ],
        "legs": [
          {
            "fromId": "p61",
            "toId": "p8",
            "meters": 939,
            "minutes": 14,
            "straightMeters": 568,
            "detourRatio": 1.65,
            "pinOffsetMeters": 32
          },
          {
            "fromId": "p8",
            "toId": "p128",
            "meters": 792,
            "minutes": 11,
            "straightMeters": 441,
            "detourRatio": 1.8,
            "pinOffsetMeters": 32
          },
          {
            "fromId": "p128",
            "toId": "p118",
            "meters": 185,
            "minutes": 3,
            "straightMeters": 168,
            "detourRatio": 1.1,
            "pinOffsetMeters": 20
          },
          {
            "fromId": "p118",
            "toId": "p83",
            "meters": 308,
            "minutes": 4,
            "straightMeters": 229,
            "detourRatio": 1.34,
            "pinOffsetMeters": 20
          },
          {
            "fromId": "p83",
            "toId": "p10",
            "meters": 1330,
            "minutes": 19,
            "straightMeters": 1029,
            "detourRatio": 1.29,
            "pinOffsetMeters": 6,
            "mapCheck": {
              "provider": "Kakao",
              "meters": 1300,
              "minutes": 26,
              "source": "https://map.kakao.com/link/by/walk/%EB%9D%BC%EB%A9%98%EC%A7%91%EC%95%84%EC%A0%80%EC%94%A8,34.7900432,126.3835452/%EC%84%9C%EC%82%B0%EB%8F%99%20%EC%8B%9C%ED%99%94%EA%B3%A8%EB%AA%A9,34.7826234,126.3768046",
              "checkedOn": "2026-10-07",
              "note": "Kakao 도보 UI의 최단거리 1.3km·26분(큰길우선 1.5km·27분). 최단 경로선은 계단·경사 여부를 별도 확인하지 못해 큰길우선 안을 우선 참고."
            }
          },
          {
            "fromId": "p10",
            "toId": "p11",
            "meters": 166,
            "minutes": 2,
            "straightMeters": 220,
            "detourRatio": 0.76,
            "pinOffsetMeters": 70
          }
        ]
      },
      "geometry": {
        "type": "LineString",
        "coordinates": [
          [
            126.385941,
            34.791391
          ],
          [
            126.385917,
            34.791317
          ],
          [
            126.385275,
            34.791468
          ],
          [
            126.384687,
            34.791559
          ],
          [
            126.384333,
            34.79165
          ],
          [
            126.384065,
            34.791719
          ],
          [
            126.3843,
            34.792355
          ],
          [
            126.384065,
            34.791719
          ],
          [
            126.383872,
            34.791823
          ],
          [
            126.38405,
            34.791298
          ],
          [
            126.384188,
            34.790846
          ],
          [
            126.384308,
            34.790535
          ],
          [
            126.384486,
            34.790053
          ],
          [
            126.384578,
            34.789843
          ],
          [
            126.384734,
            34.789647
          ],
          [
            126.385139,
            34.789306
          ],
          [
            126.384544,
            34.787946
          ],
          [
            126.38426,
            34.787237
          ],
          [
            126.384132,
            34.78711
          ],
          [
            126.383961,
            34.786912
          ],
          [
            126.383165,
            34.786898
          ],
          [
            126.383176,
            34.787063
          ],
          [
            126.383147,
            34.787093
          ],
          [
            126.382795,
            34.787262
          ],
          [
            126.382734,
            34.78727
          ],
          [
            126.382606,
            34.787269
          ],
          [
            126.382297,
            34.787284
          ],
          [
            126.381922,
            34.787285
          ],
          [
            126.381825,
            34.787373
          ],
          [
            126.381757,
            34.787476
          ],
          [
            126.381744,
            34.787546
          ],
          [
            126.381757,
            34.787476
          ],
          [
            126.381825,
            34.787373
          ],
          [
            126.381922,
            34.787285
          ],
          [
            126.382297,
            34.787284
          ],
          [
            126.382606,
            34.787269
          ],
          [
            126.382734,
            34.78727
          ],
          [
            126.382795,
            34.787262
          ],
          [
            126.383147,
            34.787093
          ],
          [
            126.383176,
            34.787063
          ],
          [
            126.383165,
            34.786898
          ],
          [
            126.383961,
            34.786912
          ],
          [
            126.385139,
            34.786958
          ],
          [
            126.385596,
            34.787336
          ],
          [
            126.385824,
            34.787525
          ],
          [
            126.386594,
            34.788238
          ],
          [
            126.386912,
            34.788486
          ],
          [
            126.386189,
            34.78906
          ],
          [
            126.386626,
            34.789447
          ],
          [
            126.386207,
            34.789767
          ],
          [
            126.385708,
            34.790149
          ],
          [
            126.38554,
            34.790206
          ],
          [
            126.385677,
            34.790602
          ],
          [
            126.385853,
            34.791127
          ],
          [
            126.385677,
            34.790602
          ],
          [
            126.38554,
            34.790206
          ],
          [
            126.38551,
            34.790167
          ],
          [
            126.385169,
            34.790129
          ],
          [
            126.384486,
            34.790053
          ],
          [
            126.383527,
            34.789912
          ],
          [
            126.383486,
            34.790029
          ],
          [
            126.383527,
            34.789912
          ],
          [
            126.382258,
            34.789776
          ],
          [
            126.381675,
            34.789716
          ],
          [
            126.381369,
            34.789699
          ],
          [
            126.381149,
            34.788995
          ],
          [
            126.381107,
            34.788888
          ],
          [
            126.38105,
            34.78883
          ],
          [
            126.381029,
            34.788671
          ],
          [
            126.381004,
            34.788534
          ],
          [
            126.380959,
            34.788493
          ],
          [
            126.380619,
            34.78836
          ],
          [
            126.380268,
            34.788192
          ],
          [
            126.379936,
            34.787985
          ],
          [
            126.379763,
            34.787889
          ],
          [
            126.379686,
            34.787821
          ],
          [
            126.379636,
            34.787757
          ],
          [
            126.379511,
            34.787558
          ],
          [
            126.379402,
            34.787429
          ],
          [
            126.379292,
            34.787275
          ],
          [
            126.379217,
            34.78716
          ],
          [
            126.37886,
            34.78667
          ],
          [
            126.378775,
            34.786527
          ],
          [
            126.3784,
            34.786099
          ],
          [
            126.378213,
            34.785885
          ],
          [
            126.377884,
            34.785525
          ],
          [
            126.377719,
            34.785345
          ],
          [
            126.376906,
            34.784703
          ],
          [
            126.376397,
            34.784304
          ],
          [
            126.376236,
            34.7842
          ],
          [
            126.376377,
            34.784077
          ],
          [
            126.376638,
            34.783977
          ],
          [
            126.376766,
            34.783941
          ],
          [
            126.3769,
            34.783949
          ],
          [
            126.377023,
            34.783974
          ],
          [
            126.377111,
            34.783976
          ],
          [
            126.377265,
            34.783967
          ],
          [
            126.377386,
            34.783941
          ],
          [
            126.377748,
            34.783834
          ],
          [
            126.3778,
            34.783793
          ],
          [
            126.37758,
            34.783389
          ],
          [
            126.377484,
            34.783201
          ],
          [
            126.377371,
            34.782944
          ],
          [
            126.377308,
            34.782855
          ],
          [
            126.377274,
            34.782831
          ],
          [
            126.377182,
            34.782789
          ],
          [
            126.376793,
            34.782643
          ],
          [
            126.377182,
            34.782789
          ],
          [
            126.377274,
            34.782831
          ],
          [
            126.377308,
            34.782855
          ],
          [
            126.377371,
            34.782944
          ],
          [
            126.377484,
            34.783201
          ],
          [
            126.37758,
            34.783389
          ],
          [
            126.3778,
            34.783793
          ]
        ]
      }
    },
    {
      "type": "Feature",
      "id": "mokpo-gatbawi",
      "properties": {
        "id": "mokpo-gatbawi",
        "theme": "gatbawi",
        "themeName": "갓바위 문화타운",
        "title": "갓바위 문화타운",
        "visitCount": 8,
        "distanceMeters": 6448,
        "savedLineDistanceMeters": 6448,
        "walkingMinutes": 78,
        "start": "08:30",
        "end": "18:00",
        "hoursStatus": "hours-and-closures-check",
        "routeOrderPolicy": "테마에 맞는 대표성과 고유한 콘텐츠가 있는 장소를 먼저 고르고, 후보 간 적합성이 비슷하면 실제 보행 거리가 짧고 자연스럽게 이어지는 곳을 우선한다. 최종 방문 순서는 지도 핀 직선이 아니라 실제 보행 동선과 진행 방향을 우선한다. 직선거리만으로 순서를 정하지 않고, 저장 보행망과 방향을 기준으로 가까운 다음 장소로 이어가며 이미 지난 권역으로 불필요하게 되돌아가지 않는다. 시내 대표점에서 시작하고 식사·카페도 동선에 배치한다. 사용자가 지정한 장소 순서가 있으면 우선한다. 지도 UI·출입구를 확인하지 못한 구간은 미확인으로 표시한다.",
        "source": {
          "label": "gpx.studio GraphHopper foot profile · OpenStreetMap pedestrian network",
          "url": "https://gpx.studio/",
          "checkedOn": "2026-10-07",
          "profile": "foot"
        },
        "routeReview": "시내 콩물 아침 후 남농로 전시시설을 서쪽에서 동쪽으로 걷고, 해초비빔밥 점심·드립커피·회굴비 저녁으로 구성. 갓바위 다리(p7)는 재개방 근거가 불명확해 제외. 통합권 시설을 중복 방문으로 세지 않도록 p20·p21은 제외.",
        "accessReview": "목포역 인근 대표 출발점부터 아침 식사와 전시구역까지 모두 도보 길선에 포함. 숙소 실제 위치와 경사·횡단은 별도 확인 필요.",
        "origin": {
          "id": "station",
          "name": "목포역 인근 시내 숙소 대표 출발점",
          "lat": 34.7914,
          "lon": 126.3859
        },
        "originLeg": {
          "fromId": "station",
          "toId": "p61",
          "meters": 258,
          "minutes": 3,
          "straightMeters": 175,
          "detourRatio": 1.47,
          "pinOffsetMeters": 6
        },
        "accessLeg": null,
        "geometryWarnings": [],
        "events": [],
        "stopIds": [
          "p61",
          "p43",
          "p33",
          "p25",
          "p16",
          "p55",
          "p101",
          "p56"
        ],
        "stops": [
          {
            "placeId": "p61",
            "name": "유달콩물(호남로 본점)",
            "category": "food",
            "arrival": "08:33",
            "departure": "09:33",
            "mealSlot": "아침",
            "specialtyMenu": "노랑콩국수",
            "specialtyPrice": "12,000원"
          },
          {
            "placeId": "p43",
            "name": "옥공예전시관",
            "category": "culture",
            "arrival": "10:21",
            "departure": "11:06",
            "mealSlot": null,
            "specialtyMenu": "일반 입장료",
            "specialtyPrice": "무료"
          },
          {
            "placeId": "p33",
            "name": "목포문학관",
            "category": "culture",
            "arrival": "11:07",
            "departure": "11:52",
            "mealSlot": null,
            "specialtyMenu": "일반 성인 입장료",
            "specialtyPrice": "2,000원"
          },
          {
            "placeId": "p25",
            "name": "수중유산박물관(옛 국립해양유물전시관)",
            "category": "culture",
            "arrival": "11:58",
            "departure": "12:43",
            "mealSlot": null,
            "specialtyMenu": "일반 입장료",
            "specialtyPrice": "무료"
          },
          {
            "placeId": "p16",
            "name": "목포자연사박물관",
            "category": "culture",
            "arrival": "12:44",
            "departure": "13:29",
            "mealSlot": null,
            "specialtyMenu": "일반 성인 입장료",
            "specialtyPrice": "3,000원"
          },
          {
            "placeId": "p55",
            "name": "해빔",
            "category": "food",
            "arrival": "13:45",
            "departure": "14:45",
            "mealSlot": "점심",
            "specialtyMenu": "꽃게살 해초 비빔밥",
            "specialtyPrice": "14,000원"
          },
          {
            "placeId": "p101",
            "name": "커피창고로(평화광장점)",
            "category": "cafe",
            "arrival": "14:47",
            "departure": "15:27",
            "mealSlot": null,
            "specialtyMenu": "드립커피",
            "specialtyPrice": "6,100원"
          },
          {
            "placeId": "p56",
            "name": "어락",
            "category": "food",
            "arrival": "17:00",
            "departure": "18:00",
            "mealSlot": "저녁",
            "specialtyMenu": "회굴비 특정식",
            "specialtyPrice": "30,000원"
          }
        ],
        "legs": [
          {
            "fromId": "p61",
            "toId": "p43",
            "meters": 3910,
            "minutes": 48,
            "straightMeters": 2883,
            "detourRatio": 1.36,
            "pinOffsetMeters": 40
          },
          {
            "fromId": "p43",
            "toId": "p33",
            "meters": 100,
            "minutes": 1,
            "straightMeters": 95,
            "detourRatio": 1.05,
            "pinOffsetMeters": 40
          },
          {
            "fromId": "p33",
            "toId": "p25",
            "meters": 476,
            "minutes": 6,
            "straightMeters": 391,
            "detourRatio": 1.22,
            "pinOffsetMeters": 39
          },
          {
            "fromId": "p25",
            "toId": "p16",
            "meters": 102,
            "minutes": 1,
            "straightMeters": 141,
            "detourRatio": 0.72,
            "pinOffsetMeters": 39
          },
          {
            "fromId": "p16",
            "toId": "p55",
            "meters": 1343,
            "minutes": 16,
            "straightMeters": 828,
            "detourRatio": 1.62,
            "pinOffsetMeters": 27
          },
          {
            "fromId": "p55",
            "toId": "p101",
            "meters": 170,
            "minutes": 2,
            "straightMeters": 123,
            "detourRatio": 1.39,
            "pinOffsetMeters": 11
          },
          {
            "fromId": "p101",
            "toId": "p56",
            "meters": 89,
            "minutes": 1,
            "straightMeters": 52,
            "detourRatio": 1.73,
            "pinOffsetMeters": 11
          }
        ]
      },
      "geometry": {
        "type": "LineString",
        "coordinates": [
          [
            126.385941,
            34.791391
          ],
          [
            126.385917,
            34.791317
          ],
          [
            126.385275,
            34.791468
          ],
          [
            126.384687,
            34.791559
          ],
          [
            126.384333,
            34.79165
          ],
          [
            126.384065,
            34.791719
          ],
          [
            126.3843,
            34.792355
          ],
          [
            126.384514,
            34.79302
          ],
          [
            126.384726,
            34.793643
          ],
          [
            126.385344,
            34.79351
          ],
          [
            126.385574,
            34.794227
          ],
          [
            126.386181,
            34.794128
          ],
          [
            126.38644,
            34.794907
          ],
          [
            126.387,
            34.794781
          ],
          [
            126.387228,
            34.795527
          ],
          [
            126.387269,
            34.79562
          ],
          [
            126.387352,
            34.795585
          ],
          [
            126.387434,
            34.79575
          ],
          [
            126.387614,
            34.796039
          ],
          [
            126.388272,
            34.795864
          ],
          [
            126.388516,
            34.795857
          ],
          [
            126.389959,
            34.795648
          ],
          [
            126.390324,
            34.795619
          ],
          [
            126.390677,
            34.795616
          ],
          [
            126.391341,
            34.795573
          ],
          [
            126.391786,
            34.795579
          ],
          [
            126.395164,
            34.795558
          ],
          [
            126.395165,
            34.796086
          ],
          [
            126.395831,
            34.796082
          ],
          [
            126.397008,
            34.796061
          ],
          [
            126.400432,
            34.795999
          ],
          [
            126.401572,
            34.795174
          ],
          [
            126.402168,
            34.794731
          ],
          [
            126.402175,
            34.795287
          ],
          [
            126.402378,
            34.795099
          ],
          [
            126.403103,
            34.79457
          ],
          [
            126.40407,
            34.793865
          ],
          [
            126.404779,
            34.793862
          ],
          [
            126.405825,
            34.794817
          ],
          [
            126.40598,
            34.794916
          ],
          [
            126.406026,
            34.794936
          ],
          [
            126.407407,
            34.794918
          ],
          [
            126.407648,
            34.79548
          ],
          [
            126.408222,
            34.79544
          ],
          [
            126.408491,
            34.795361
          ],
          [
            126.408886,
            34.795313
          ],
          [
            126.409781,
            34.795204
          ],
          [
            126.409927,
            34.795171
          ],
          [
            126.410072,
            34.795098
          ],
          [
            126.410148,
            34.795022
          ],
          [
            126.410384,
            34.794711
          ],
          [
            126.410863,
            34.794018
          ],
          [
            126.410974,
            34.793913
          ],
          [
            126.411028,
            34.793875
          ],
          [
            126.411153,
            34.793814
          ],
          [
            126.411332,
            34.793755
          ],
          [
            126.411972,
            34.793577
          ],
          [
            126.41218,
            34.793511
          ],
          [
            126.412344,
            34.793432
          ],
          [
            126.41265,
            34.793265
          ],
          [
            126.413864,
            34.792565
          ],
          [
            126.414598,
            34.792183
          ],
          [
            126.415077,
            34.791967
          ],
          [
            126.415282,
            34.791906
          ],
          [
            126.415518,
            34.791852
          ],
          [
            126.415695,
            34.79184
          ],
          [
            126.415856,
            34.791849
          ],
          [
            126.416015,
            34.791893
          ],
          [
            126.416155,
            34.791954
          ],
          [
            126.416095,
            34.792048
          ],
          [
            126.416282,
            34.7922
          ],
          [
            126.416302,
            34.792225
          ],
          [
            126.416303,
            34.792241
          ],
          [
            126.41629,
            34.792249
          ],
          [
            126.41624,
            34.792246
          ],
          [
            126.416099,
            34.792218
          ],
          [
            126.416077,
            34.792226
          ],
          [
            126.416073,
            34.792237
          ],
          [
            126.416078,
            34.79225
          ],
          [
            126.416271,
            34.792346
          ],
          [
            126.416283,
            34.792367
          ],
          [
            126.416278,
            34.792377
          ],
          [
            126.416071,
            34.79234
          ],
          [
            126.415941,
            34.792325
          ],
          [
            126.4158,
            34.792325
          ],
          [
            126.415755,
            34.792334
          ],
          [
            126.415706,
            34.79236
          ],
          [
            126.415896,
            34.792369
          ],
          [
            126.416028,
            34.792393
          ],
          [
            126.416095,
            34.792406
          ],
          [
            126.416403,
            34.792522
          ],
          [
            126.41687,
            34.792601
          ],
          [
            126.417065,
            34.79267
          ],
          [
            126.417115,
            34.792688
          ],
          [
            126.417365,
            34.792811
          ],
          [
            126.417472,
            34.792876
          ],
          [
            126.417521,
            34.792893
          ],
          [
            126.417834,
            34.793347
          ],
          [
            126.418268,
            34.793355
          ],
          [
            126.418271,
            34.793498
          ],
          [
            126.419311,
            34.793507
          ],
          [
            126.419329,
            34.793331
          ],
          [
            126.420247,
            34.793347
          ],
          [
            126.420294,
            34.793329
          ],
          [
            126.420637,
            34.792915
          ],
          [
            126.420808,
            34.792708
          ],
          [
            126.421084,
            34.792792
          ],
          [
            126.421207,
            34.792829
          ],
          [
            126.421344,
            34.792849
          ],
          [
            126.421231,
            34.793167
          ],
          [
            126.421119,
            34.793485
          ],
          [
            126.421161,
            34.793496
          ],
          [
            126.421119,
            34.793485
          ],
          [
            126.421231,
            34.793167
          ],
          [
            126.421344,
            34.792849
          ],
          [
            126.421496,
            34.79287
          ],
          [
            126.422424,
            34.792913
          ],
          [
            126.423455,
            34.792962
          ],
          [
            126.423644,
            34.79299
          ],
          [
            126.423793,
            34.793044
          ],
          [
            126.423965,
            34.793138
          ],
          [
            126.424117,
            34.793249
          ],
          [
            126.424238,
            34.793364
          ],
          [
            126.4244,
            34.793589
          ],
          [
            126.424844,
            34.793527
          ],
          [
            126.424888,
            34.793493
          ],
          [
            126.425015,
            34.793181
          ],
          [
            126.425221,
            34.792678
          ],
          [
            126.425238,
            34.792588
          ],
          [
            126.425201,
            34.792435
          ],
          [
            126.425206,
            34.792245
          ],
          [
            126.425246,
            34.792066
          ],
          [
            126.425271,
            34.792033
          ],
          [
            126.425431,
            34.791881
          ],
          [
            126.425745,
            34.791636
          ],
          [
            126.426057,
            34.791819
          ],
          [
            126.426268,
            34.792337
          ],
          [
            126.426185,
            34.792573
          ],
          [
            126.425983,
            34.792789
          ],
          [
            126.426024,
            34.793028
          ],
          [
            126.42617,
            34.793245
          ],
          [
            126.426214,
            34.793421
          ],
          [
            126.42635,
            34.793631
          ],
          [
            126.426472,
            34.793842
          ],
          [
            126.426574,
            34.793806
          ],
          [
            126.42661,
            34.793805
          ],
          [
            126.426657,
            34.793813
          ],
          [
            126.426896,
            34.793914
          ],
          [
            126.427056,
            34.793968
          ],
          [
            126.427256,
            34.794001
          ],
          [
            126.427525,
            34.794012
          ],
          [
            126.4276,
            34.794007
          ],
          [
            126.42776,
            34.793979
          ],
          [
            126.427829,
            34.793981
          ],
          [
            126.427885,
            34.793996
          ],
          [
            126.428174,
            34.794133
          ],
          [
            126.428459,
            34.794283
          ],
          [
            126.428438,
            34.794229
          ],
          [
            126.428466,
            34.794171
          ],
          [
            126.428646,
            34.793939
          ],
          [
            126.428702,
            34.793883
          ],
          [
            126.429005,
            34.794025
          ],
          [
            126.43013,
            34.794557
          ],
          [
            126.430962,
            34.794955
          ],
          [
            126.430638,
            34.795435
          ],
          [
            126.43052,
            34.795599
          ],
          [
            126.430638,
            34.795435
          ],
          [
            126.430177,
            34.79521
          ],
          [
            126.430071,
            34.795357
          ]
        ]
      }
    },
    {
      "type": "Feature",
      "id": "mokpo-peace",
      "properties": {
        "id": "mokpo-peace",
        "theme": "peace",
        "themeName": "평화광장·밤바다",
        "title": "평화광장·밤바다",
        "visitCount": 5,
        "distanceMeters": 1260,
        "savedLineDistanceMeters": 524,
        "walkingMinutes": 18,
        "start": "15:30",
        "end": "21:30",
        "hoursStatus": "hours-and-closures-check",
        "routeOrderPolicy": "테마에 맞는 대표성과 고유한 콘텐츠가 있는 장소를 먼저 고르고, 후보 간 적합성이 비슷하면 실제 보행 거리가 짧고 자연스럽게 이어지는 곳을 우선한다. 최종 방문 순서는 지도 핀 직선이 아니라 실제 보행 동선과 진행 방향을 우선한다. 직선거리만으로 순서를 정하지 않고, 저장 보행망과 방향을 기준으로 가까운 다음 장소로 이어가며 이미 지난 권역으로 불필요하게 되돌아가지 않는다. 시내 대표점에서 시작하고 식사·카페도 동선에 배치한다. 사용자가 지정한 장소 순서가 있으면 우선한다. 지도 UI·출입구를 확인하지 못한 구간은 미확인으로 표시한다.",
        "source": {
          "label": "gpx.studio GraphHopper foot profile · OpenStreetMap pedestrian network",
          "url": "https://gpx.studio/",
          "checkedOn": "2026-10-07",
          "profile": "foot"
        },
        "routeReview": "평화광장 저녁 코스로 구성. 카페에서 시작해 광장 산책 후 저녁 한 끼를 먹고, 날짜별 운영이 맞으면 20:00 바다분수 공연을 본 뒤 원형로 포장마차 간식으로 마침. 늦은 점심과 저녁을 1시간 간격으로 붙이던 이전 구성은 제거. Kakao 도보 UI는 카페→광장 292m·5분, 광장→해빔 444m·7분을 표시했으나 gpx.studio는 각각 1.20km·1.14km 우회해 그 선형을 제거하고 Kakao 경로 링크만 남김. 공연은 요일·계절·기상에 따라 운영 여부를 다시 확인해야 함.",
        "accessReview": "목포역 대표점에서 평화광장 첫 카페까지 버스 66번 1회 접근. Google 지도 표시 50분에 마지막 도보 14분 포함, 배차 간격 20분. 승하차 정류장·실제 대기·출입구는 미확인. 저녁 전용 테마이므로 점심까지는 시내에서 따로 해결하는 일정.",
        "origin": {
          "id": "station",
          "name": "목포역 인근 시내 숙소 대표 출발점",
          "lat": 34.7914,
          "lon": 126.3859
        },
        "originLeg": null,
        "accessLeg": {
          "fromId": "station",
          "toId": "p101",
          "mode": "bus",
          "route": "66",
          "minutes": 50,
          "lastMileWalkMinutes": 14,
          "headwayMinutes": 20,
          "source": "https://www.google.com/maps/dir/?api=1&origin=34.7914%2C126.3859&destination=34.7956475%2C126.4306203&travelmode=transit",
          "checkedOn": "2026-10-07",
          "note": "Google 지도 결과에 66번 1회, 총 50분, 마지막 도보 14분, 20분 간격이 표시됨. 실제 승하차 정류장·대기시간·카페 출입구 접근은 출발 시각과 현장에서 재확인 필요."
        },
        "geometryWarnings": [],
        "events": [
          {
            "placeId": "p15",
            "name": "춤추는 바다분수 공연",
            "arrival": "20:00",
            "durationMinutes": 30,
            "source": "https://www.mokpo.go.kr/www/mokpo_news/press_release/report_material?idx=543778&mode=view",
            "note": "공연 무대 핀은 바다 위 좌표라 도보 길선에 연결하지 않음. 광장 쪽 관람 진입점·당일 운영은 미확인."
          }
        ],
        "stopIds": [
          "p101",
          "p14",
          "p55",
          "p74"
        ],
        "stops": [
          {
            "placeId": "p101",
            "name": "커피창고로(평화광장점)",
            "category": "cafe",
            "arrival": "16:20",
            "departure": "17:00",
            "mealSlot": null,
            "specialtyMenu": "드립커피",
            "specialtyPrice": "6,100원"
          },
          {
            "placeId": "p14",
            "name": "평화광장",
            "category": "outdoors",
            "arrival": "17:15",
            "departure": "18:15",
            "mealSlot": null,
            "specialtyMenu": null,
            "specialtyPrice": null
          },
          {
            "placeId": "p55",
            "name": "해빔",
            "category": "food",
            "arrival": "18:30",
            "departure": "19:30",
            "mealSlot": "저녁",
            "specialtyMenu": "꽃게살 해초 비빔밥",
            "specialtyPrice": "14,000원"
          },
          {
            "placeId": "p74",
            "name": "88포장마차(원형로)",
            "category": "food",
            "arrival": "20:50",
            "departure": "21:30",
            "mealSlot": "간식",
            "specialtyMenu": "닭똥집",
            "specialtyPrice": "15,000원"
          }
        ],
        "legs": [
          {
            "fromId": "p101",
            "toId": "p14",
            "mode": "walk-ui",
            "minutes": 5,
            "meters": 292,
            "geometrySaved": false,
            "mapVerified": true,
            "source": "https://map.kakao.com/link/by/walk/%EC%BB%A4%ED%94%BC%EC%B0%BD%EA%B3%A0%EB%A1%9C,34.7956475,126.4306203/%ED%8F%89%ED%99%94%EA%B4%91%EC%9E%A5,34.7960696,126.4330925",
            "checkedOn": "2026-10-07",
            "note": "Kakao 도보 UI에서 경로선 292m·5분 확인. gpx.studio 길선 1.20km와 불일치해 잘못된 길선을 제외. Kakao UI에 표시된 경로는 링크에서 재확인."
          },
          {
            "fromId": "p14",
            "toId": "p55",
            "mode": "walk-ui",
            "minutes": 7,
            "meters": 444,
            "geometrySaved": false,
            "mapVerified": true,
            "source": "https://map.kakao.com/link/by/walk/%ED%8F%89%ED%99%94%EA%B4%91%EC%9E%A5,34.7960696,126.4330925/%ED%95%B4%EB%B9%94,34.7946403,126.4300707",
            "checkedOn": "2026-10-07",
            "note": "Kakao 도보 UI에서 경로선 444m·7분 확인. gpx.studio 길선 1.14km와 불일치해 잘못된 길선을 제외. Kakao UI에 표시된 경로는 링크에서 재확인."
          },
          {
            "fromId": "p55",
            "toId": "p74",
            "meters": 524,
            "minutes": 6,
            "straightMeters": 370,
            "detourRatio": 1.41,
            "pinOffsetMeters": 15
          }
        ]
      },
      "geometry": {
        "type": "LineString",
        "coordinates": [
          [
            126.43013,
            34.794557
          ],
          [
            126.431991,
            34.795448
          ],
          [
            126.431755,
            34.795795
          ],
          [
            126.431739,
            34.795965
          ],
          [
            126.431371,
            34.796486
          ],
          [
            126.430879,
            34.797187
          ],
          [
            126.431262,
            34.797368
          ],
          [
            126.431331,
            34.797419
          ],
          [
            126.431379,
            34.797486
          ],
          [
            126.431427,
            34.797579
          ],
          [
            126.431434,
            34.797773
          ],
          [
            126.431344,
            34.797904
          ]
        ]
      }
    },
    {
      "type": "Feature",
      "id": "mokpo-samhakdo",
      "properties": {
        "id": "mokpo-samhakdo",
        "theme": "samhakdo",
        "themeName": "삼학도 해양·평화",
        "title": "삼학도 해양·평화",
        "visitCount": 8,
        "distanceMeters": 4716,
        "savedLineDistanceMeters": 4716,
        "walkingMinutes": 62,
        "start": "08:30",
        "end": "18:30",
        "hoursStatus": "hours-and-closures-check",
        "routeOrderPolicy": "테마에 맞는 대표성과 고유한 콘텐츠가 있는 장소를 먼저 고르고, 후보 간 적합성이 비슷하면 실제 보행 거리가 짧고 자연스럽게 이어지는 곳을 우선한다. 최종 방문 순서는 지도 핀 직선이 아니라 실제 보행 동선과 진행 방향을 우선한다. 직선거리만으로 순서를 정하지 않고, 저장 보행망과 방향을 기준으로 가까운 다음 장소로 이어가며 이미 지난 권역으로 불필요하게 되돌아가지 않는다. 시내 대표점에서 시작하고 식사·카페도 동선에 배치한다. 사용자가 지정한 장소 순서가 있으면 우선한다. 지도 UI·출입구를 확인하지 못한 구간은 미확인으로 표시한다.",
        "source": {
          "label": "gpx.studio GraphHopper foot profile · OpenStreetMap pedestrian network",
          "url": "https://gpx.studio/",
          "checkedOn": "2026-10-07",
          "profile": "foot"
        },
        "routeReview": "시내 아침에서 시작해 수산시장과 원도심의 공부방·점심 식당을 지난 뒤, 지도 번호 순서대로 7 난영공원→5 평화기념관→6 바다과학관→8 항구포차 저녁으로 이동한다. 삼학도 안에서 장소 번호 순서를 고정해 동선을 다시 만들었다. 버스 없이 저장 보행망 한 줄로 연결했으며, 지도 UI에서 대조하지 않은 새 구간과 실제 출입구는 미확인이다. 크루즈는 운항 날짜·회차와 선착장을 확인해야 하므로 제외.",
        "accessReview": "목포역 인근 대표 출발점부터 삼학도 방문지까지 도보 길선을 포함. 시장 대표점과 공원 대표점은 점포·산책로 입구가 아니며 출입구 접근은 미확인.",
        "origin": {
          "id": "station",
          "name": "목포역 인근 시내 숙소 대표 출발점",
          "lat": 34.7914,
          "lon": 126.3859
        },
        "originLeg": {
          "fromId": "station",
          "toId": "p61",
          "meters": 258,
          "minutes": 3,
          "straightMeters": 175,
          "detourRatio": 1.47,
          "pinOffsetMeters": 6
        },
        "accessLeg": null,
        "geometryWarnings": [],
        "events": [],
        "stopIds": [
          "p61",
          "p114",
          "p31",
          "p51",
          "p26",
          "p30",
          "p32",
          "p53"
        ],
        "stops": [
          {
            "placeId": "p61",
            "name": "유달콩물(호남로 본점)",
            "category": "food",
            "arrival": "08:33",
            "departure": "09:33",
            "mealSlot": "아침",
            "specialtyMenu": "노랑콩국수",
            "specialtyPrice": "12,000원"
          },
          {
            "placeId": "p114",
            "name": "목포종합수산시장",
            "category": "market",
            "arrival": "09:45",
            "departure": "10:10",
            "mealSlot": null,
            "specialtyMenu": null,
            "specialtyPrice": null
          },
          {
            "placeId": "p31",
            "name": "소년 김대중 공부방",
            "category": "culture",
            "arrival": "10:20",
            "departure": "11:05",
            "mealSlot": null,
            "specialtyMenu": "입장·관람료",
            "specialtyPrice": "무료"
          },
          {
            "placeId": "p51",
            "name": "성식당(수강로 본점 후보)",
            "category": "food",
            "arrival": "11:30",
            "departure": "12:30",
            "mealSlot": "점심",
            "specialtyMenu": "떡갈비백반",
            "specialtyPrice": "가격 변동·매장 확인"
          },
          {
            "placeId": "p26",
            "name": "삼학도 공원·이난영공원",
            "category": "outdoors",
            "arrival": "12:48",
            "departure": "14:18",
            "mealSlot": null,
            "specialtyMenu": null,
            "specialtyPrice": null
          },
          {
            "placeId": "p30",
            "name": "김대중노벨평화상기념관",
            "category": "culture",
            "arrival": "14:27",
            "departure": "15:12",
            "mealSlot": null,
            "specialtyMenu": "일반 입장료",
            "specialtyPrice": "무료"
          },
          {
            "placeId": "p32",
            "name": "목포어린이바다과학관",
            "category": "culture",
            "arrival": "15:17",
            "departure": "16:47",
            "mealSlot": null,
            "specialtyMenu": "일반 성인 입장료",
            "specialtyPrice": "3,000원"
          },
          {
            "placeId": "p53",
            "name": "연희네포차(항구포차 9호)",
            "category": "food",
            "arrival": "17:30",
            "departure": "18:30",
            "mealSlot": "저녁",
            "specialtyMenu": "연희육꼬비(목포식 육회꼬막비빔밥)",
            "specialtyPrice": "39,000원"
          }
        ],
        "legs": [
          {
            "fromId": "p61",
            "toId": "p114",
            "meters": 924,
            "minutes": 12,
            "straightMeters": 723,
            "detourRatio": 1.28,
            "pinOffsetMeters": 6
          },
          {
            "fromId": "p114",
            "toId": "p31",
            "meters": 754,
            "minutes": 10,
            "straightMeters": 567,
            "detourRatio": 1.33,
            "pinOffsetMeters": 17
          },
          {
            "fromId": "p31",
            "toId": "p51",
            "meters": 254,
            "minutes": 3,
            "straightMeters": 152,
            "detourRatio": 1.66,
            "pinOffsetMeters": 17
          },
          {
            "fromId": "p51",
            "toId": "p26",
            "meters": 1337,
            "minutes": 18,
            "straightMeters": 922,
            "detourRatio": 1.45,
            "pinOffsetMeters": 9
          },
          {
            "fromId": "p26",
            "toId": "p30",
            "meters": 650,
            "minutes": 9,
            "straightMeters": 432,
            "detourRatio": 1.5,
            "pinOffsetMeters": 38
          },
          {
            "fromId": "p30",
            "toId": "p32",
            "meters": 377,
            "minutes": 5,
            "straightMeters": 324,
            "detourRatio": 1.16,
            "pinOffsetMeters": 38,
            "mapCheck": {
              "provider": "Naver",
              "meters": 398,
              "minutes": 6,
              "source": "https://map.naver.com/p/directions/3yT5DQ,2yTfv4,%EA%B9%80%EB%8C%80%EC%A4%91%20%EB%85%B8%EB%B2%A8%ED%8F%89%ED%99%94%EC%83%81%20%EA%B8%B0%EB%85%90%EA%B4%80,32465867,PLACE_POI/3ySWGa,2yTda8,%EB%AA%A9%ED%8F%AC%EC%96%B4%EB%A6%B0%EC%9D%B4%EB%B0%94%EB%8B%A4%EA%B3%BC%ED%95%99%EA%B4%80,31554191,PLACE_POI/-/walk?c=12.00,0,0,0,dh",
              "checkedOn": "2026-10-07",
              "note": "네이버 지도 도보 경로에서 398m·6분, 횡단보도 1회를 확인."
            }
          },
          {
            "fromId": "p32",
            "toId": "p53",
            "meters": 162,
            "minutes": 2,
            "straightMeters": 109,
            "detourRatio": 1.49,
            "pinOffsetMeters": 43
          }
        ]
      },
      "geometry": {
        "type": "LineString",
        "coordinates": [
          [
            126.385941,
            34.791391
          ],
          [
            126.385917,
            34.791317
          ],
          [
            126.385275,
            34.791468
          ],
          [
            126.384687,
            34.791559
          ],
          [
            126.384333,
            34.79165
          ],
          [
            126.384065,
            34.791719
          ],
          [
            126.3843,
            34.792355
          ],
          [
            126.384065,
            34.791719
          ],
          [
            126.383872,
            34.791823
          ],
          [
            126.38405,
            34.791298
          ],
          [
            126.384188,
            34.790846
          ],
          [
            126.384219,
            34.790776
          ],
          [
            126.384403,
            34.790733
          ],
          [
            126.384989,
            34.790589
          ],
          [
            126.385631,
            34.790471
          ],
          [
            126.385677,
            34.790602
          ],
          [
            126.386293,
            34.790421
          ],
          [
            126.386504,
            34.790311
          ],
          [
            126.387347,
            34.79011
          ],
          [
            126.387457,
            34.790002
          ],
          [
            126.387782,
            34.789914
          ],
          [
            126.388107,
            34.789826
          ],
          [
            126.388343,
            34.789754
          ],
          [
            126.388089,
            34.789525
          ],
          [
            126.388515,
            34.789204
          ],
          [
            126.389042,
            34.788807
          ],
          [
            126.389715,
            34.7883
          ],
          [
            126.390197,
            34.787941
          ],
          [
            126.389715,
            34.7883
          ],
          [
            126.389521,
            34.788447
          ],
          [
            126.388332,
            34.787372
          ],
          [
            126.387787,
            34.78688
          ],
          [
            126.387292,
            34.786435
          ],
          [
            126.386592,
            34.785831
          ],
          [
            126.386098,
            34.785374
          ],
          [
            126.385895,
            34.785165
          ],
          [
            126.38549,
            34.784748
          ],
          [
            126.385182,
            34.784878
          ],
          [
            126.384736,
            34.785046
          ],
          [
            126.384675,
            34.78506
          ],
          [
            126.384601,
            34.785059
          ],
          [
            126.384623,
            34.785104
          ],
          [
            126.384788,
            34.785272
          ],
          [
            126.384623,
            34.785104
          ],
          [
            126.384601,
            34.785059
          ],
          [
            126.384675,
            34.78506
          ],
          [
            126.384736,
            34.785046
          ],
          [
            126.385182,
            34.784878
          ],
          [
            126.38549,
            34.784748
          ],
          [
            126.385895,
            34.785165
          ],
          [
            126.386098,
            34.785374
          ],
          [
            126.386435,
            34.785686
          ],
          [
            126.386592,
            34.785831
          ],
          [
            126.387292,
            34.786435
          ],
          [
            126.387755,
            34.78603
          ],
          [
            126.387869,
            34.785883
          ],
          [
            126.390056,
            34.787091
          ],
          [
            126.390164,
            34.787159
          ],
          [
            126.390443,
            34.787368
          ],
          [
            126.390917,
            34.787772
          ],
          [
            126.391685,
            34.788346
          ],
          [
            126.392009,
            34.788183
          ],
          [
            126.392358,
            34.787952
          ],
          [
            126.392812,
            34.787605
          ],
          [
            126.393493,
            34.787084
          ],
          [
            126.393772,
            34.787208
          ],
          [
            126.393849,
            34.787171
          ],
          [
            126.393963,
            34.787148
          ],
          [
            126.394074,
            34.787141
          ],
          [
            126.394104,
            34.786886
          ],
          [
            126.394275,
            34.786644
          ],
          [
            126.394314,
            34.786569
          ],
          [
            126.39451,
            34.78631
          ],
          [
            126.394605,
            34.78613
          ],
          [
            126.394621,
            34.786084
          ],
          [
            126.394633,
            34.78592
          ],
          [
            126.39462,
            34.785709
          ],
          [
            126.394711,
            34.785713
          ],
          [
            126.394789,
            34.78568
          ],
          [
            126.394953,
            34.78516
          ],
          [
            126.395001,
            34.785061
          ],
          [
            126.39517,
            34.784891
          ],
          [
            126.395339,
            34.784796
          ],
          [
            126.395856,
            34.784607
          ],
          [
            126.39602,
            34.78451
          ],
          [
            126.396176,
            34.784435
          ],
          [
            126.396287,
            34.784439
          ],
          [
            126.396387,
            34.784509
          ],
          [
            126.396491,
            34.784471
          ],
          [
            126.396387,
            34.784509
          ],
          [
            126.396287,
            34.784439
          ],
          [
            126.396176,
            34.784435
          ],
          [
            126.39602,
            34.78451
          ],
          [
            126.395856,
            34.784607
          ],
          [
            126.395339,
            34.784796
          ],
          [
            126.39517,
            34.784891
          ],
          [
            126.395001,
            34.785061
          ],
          [
            126.394953,
            34.78516
          ],
          [
            126.394789,
            34.78568
          ],
          [
            126.394711,
            34.785713
          ],
          [
            126.39462,
            34.785709
          ],
          [
            126.394676,
            34.785359
          ],
          [
            126.394603,
            34.784867
          ],
          [
            126.394298,
            34.784781
          ],
          [
            126.394161,
            34.784732
          ],
          [
            126.3941,
            34.784686
          ],
          [
            126.39407,
            34.78462
          ],
          [
            126.394014,
            34.784569
          ],
          [
            126.393888,
            34.784497
          ],
          [
            126.393703,
            34.784413
          ],
          [
            126.393595,
            34.784325
          ],
          [
            126.393198,
            34.783684
          ],
          [
            126.393056,
            34.783481
          ],
          [
            126.392941,
            34.78334
          ],
          [
            126.392801,
            34.783246
          ],
          [
            126.392667,
            34.783195
          ],
          [
            126.392549,
            34.783179
          ],
          [
            126.392264,
            34.78319
          ],
          [
            126.392187,
            34.783195
          ],
          [
            126.392064,
            34.783186
          ],
          [
            126.391887,
            34.783149
          ],
          [
            126.391533,
            34.782988
          ],
          [
            126.391417,
            34.782955
          ],
          [
            126.39113,
            34.78293
          ],
          [
            126.39102,
            34.782895
          ],
          [
            126.390927,
            34.78282
          ],
          [
            126.390771,
            34.782549
          ],
          [
            126.390699,
            34.782494
          ],
          [
            126.390318,
            34.7823
          ],
          [
            126.390216,
            34.782197
          ],
          [
            126.390087,
            34.781994
          ],
          [
            126.390033,
            34.781952
          ],
          [
            126.389786,
            34.781905
          ],
          [
            126.389818,
            34.781814
          ],
          [
            126.3896,
            34.781769
          ],
          [
            126.389478,
            34.781774
          ],
          [
            126.389373,
            34.781802
          ],
          [
            126.389317,
            34.781829
          ],
          [
            126.389267,
            34.781887
          ],
          [
            126.389173,
            34.782104
          ],
          [
            126.389267,
            34.781887
          ],
          [
            126.389317,
            34.781829
          ],
          [
            126.389244,
            34.781777
          ],
          [
            126.3891,
            34.78148
          ],
          [
            126.38895,
            34.781516
          ],
          [
            126.388829,
            34.781523
          ],
          [
            126.388697,
            34.781487
          ],
          [
            126.388635,
            34.781457
          ],
          [
            126.388611,
            34.781436
          ],
          [
            126.388457,
            34.781139
          ]
        ]
      }
    },
    {
      "type": "Feature",
      "id": "mokpo-cafeWalk",
      "properties": {
        "id": "mokpo-cafeWalk",
        "theme": "cafeWalk",
        "themeName": "원도심 카페 산책",
        "title": "원도심 카페 산책",
        "visitCount": 8,
        "distanceMeters": 3009,
        "savedLineDistanceMeters": 3009,
        "walkingMinutes": 37,
        "start": "10:00",
        "end": "15:57",
        "hoursStatus": "hours-and-closures-check",
        "routeOrderPolicy": "테마에 맞는 대표성과 고유한 콘텐츠가 있는 장소를 먼저 고르고, 후보 간 적합성이 비슷하면 실제 보행 거리가 짧고 자연스럽게 이어지는 곳을 우선한다. 최종 방문 순서는 지도 핀 직선이 아니라 실제 보행 동선과 진행 방향을 우선한다. 직선거리만으로 순서를 정하지 않고, 저장 보행망과 방향을 기준으로 가까운 다음 장소로 이어가며 이미 지난 권역으로 불필요하게 되돌아가지 않는다. 시내 대표점에서 시작하고 식사·카페도 동선에 배치한다. 사용자가 지정한 장소 순서가 있으면 우선한다. 지도 UI·출입구를 확인하지 못한 구간은 미확인으로 표시한다.",
        "source": {
          "label": "gpx.studio GraphHopper foot profile · OpenStreetMap pedestrian network",
          "url": "https://gpx.studio/",
          "checkedOn": "2026-10-07",
          "profile": "foot"
        },
        "routeReview": "식당은 제외하고 원도심 카페의 당근케이크·아몬드크림커피·바다레몬에이드·옥수수크림커피·치즈케이크·무화과빙수·송자라떼·흑임자라떼를 중심으로 구성. p103은 평일만 운영 안내가 있어 평일 코스이며 방문 전 확인 필요. 메뉴 이름만으로 당일 판매·품절 여부는 보장하지 않음.",
        "accessReview": "목포역 인근 대표 출발점에서 첫 카페까지의 보행 길선은 포함. 마지막 카페 이후 역 귀환 시간과 실제 숙소 접근은 별도 확인 필요.",
        "origin": {
          "id": "station",
          "name": "목포역 인근 시내 숙소 대표 출발점",
          "lat": 34.7914,
          "lon": 126.3859
        },
        "originLeg": {
          "fromId": "station",
          "toId": "p102",
          "meters": 91,
          "minutes": 1,
          "straightMeters": 57,
          "detourRatio": 1.6,
          "pinOffsetMeters": 8
        },
        "accessLeg": null,
        "geometryWarnings": [],
        "events": [],
        "stopIds": [
          "p102",
          "p103",
          "p93",
          "p98",
          "p96",
          "p95",
          "p94",
          "p97"
        ],
        "stops": [
          {
            "placeId": "p102",
            "name": "혹호",
            "category": "cafe",
            "arrival": "10:01",
            "departure": "10:41",
            "mealSlot": null,
            "specialtyMenu": "하트&별 당근케이크",
            "specialtyPrice": "8,000원"
          },
          {
            "placeId": "p103",
            "name": "인스파이어링 커피",
            "category": "cafe",
            "arrival": "10:43",
            "departure": "11:23",
            "mealSlot": null,
            "specialtyMenu": "아몬드크림커피",
            "specialtyPrice": "가격 변동·매장 확인"
          },
          {
            "placeId": "p93",
            "name": "화신연쇄점",
            "category": "cafe",
            "arrival": "11:30",
            "departure": "12:10",
            "mealSlot": null,
            "specialtyMenu": "바다레몬에이드",
            "specialtyPrice": "7,800원"
          },
          {
            "placeId": "p98",
            "name": "쿠레레",
            "category": "cafe",
            "arrival": "12:13",
            "departure": "12:53",
            "mealSlot": null,
            "specialtyMenu": "옥수수크림커피",
            "specialtyPrice": "6,000원"
          },
          {
            "placeId": "p96",
            "name": "무가보",
            "category": "cafe",
            "arrival": "12:58",
            "departure": "13:38",
            "mealSlot": null,
            "specialtyMenu": "오리지널 치즈케이크",
            "specialtyPrice": "4,500원"
          },
          {
            "placeId": "p95",
            "name": "유달동의로망스",
            "category": "cafe",
            "arrival": "13:39",
            "departure": "14:19",
            "mealSlot": null,
            "specialtyMenu": "생무화과빙수",
            "specialtyPrice": "15,000원"
          },
          {
            "placeId": "p94",
            "name": "송자르트",
            "category": "cafe",
            "arrival": "14:23",
            "departure": "15:03",
            "mealSlot": null,
            "specialtyMenu": "송자라떼(only iced)",
            "specialtyPrice": "7,000원"
          },
          {
            "placeId": "p97",
            "name": "달몬트",
            "category": "cafe",
            "arrival": "15:17",
            "departure": "15:57",
            "mealSlot": null,
            "specialtyMenu": "흑임자라떼",
            "specialtyPrice": "6,500원"
          }
        ],
        "legs": [
          {
            "fromId": "p102",
            "toId": "p103",
            "meters": 161,
            "minutes": 2,
            "straightMeters": 129,
            "detourRatio": 1.25,
            "pinOffsetMeters": 16
          },
          {
            "fromId": "p103",
            "toId": "p93",
            "meters": 578,
            "minutes": 7,
            "straightMeters": 466,
            "detourRatio": 1.24,
            "pinOffsetMeters": 16
          },
          {
            "fromId": "p93",
            "toId": "p98",
            "meters": 233,
            "minutes": 3,
            "straightMeters": 229,
            "detourRatio": 1.02,
            "pinOffsetMeters": 16
          },
          {
            "fromId": "p98",
            "toId": "p96",
            "meters": 391,
            "minutes": 5,
            "straightMeters": 376,
            "detourRatio": 1.04,
            "pinOffsetMeters": 29
          },
          {
            "fromId": "p96",
            "toId": "p95",
            "meters": 112,
            "minutes": 1,
            "straightMeters": 98,
            "detourRatio": 1.15,
            "pinOffsetMeters": 29
          },
          {
            "fromId": "p95",
            "toId": "p94",
            "meters": 293,
            "minutes": 4,
            "straightMeters": 254,
            "detourRatio": 1.15,
            "pinOffsetMeters": 16
          },
          {
            "fromId": "p94",
            "toId": "p97",
            "meters": 1150,
            "minutes": 14,
            "straightMeters": 910,
            "detourRatio": 1.26,
            "pinOffsetMeters": 11
          }
        ]
      },
      "geometry": {
        "type": "LineString",
        "coordinates": [
          [
            126.385941,
            34.791391
          ],
          [
            126.385917,
            34.791317
          ],
          [
            126.385275,
            34.791468
          ],
          [
            126.385214,
            34.791277
          ],
          [
            126.385275,
            34.791468
          ],
          [
            126.384687,
            34.791559
          ],
          [
            126.384847,
            34.79203
          ],
          [
            126.384936,
            34.792291
          ],
          [
            126.384847,
            34.79203
          ],
          [
            126.384403,
            34.790733
          ],
          [
            126.384219,
            34.790776
          ],
          [
            126.384308,
            34.790535
          ],
          [
            126.384486,
            34.790053
          ],
          [
            126.384578,
            34.789843
          ],
          [
            126.384734,
            34.789647
          ],
          [
            126.385139,
            34.789306
          ],
          [
            126.385385,
            34.789133
          ],
          [
            126.385877,
            34.788788
          ],
          [
            126.386131,
            34.78859
          ],
          [
            126.386594,
            34.788238
          ],
          [
            126.386707,
            34.788326
          ],
          [
            126.386594,
            34.788238
          ],
          [
            126.385824,
            34.787525
          ],
          [
            126.385596,
            34.787336
          ],
          [
            126.385139,
            34.786958
          ],
          [
            126.385333,
            34.786807
          ],
          [
            126.385139,
            34.786958
          ],
          [
            126.383961,
            34.786912
          ],
          [
            126.383165,
            34.786898
          ],
          [
            126.381134,
            34.786788
          ],
          [
            126.381282,
            34.786795
          ],
          [
            126.381341,
            34.786087
          ],
          [
            126.381557,
            34.786098
          ],
          [
            126.38222,
            34.786129
          ],
          [
            126.382315,
            34.784867
          ],
          [
            126.382343,
            34.784284
          ],
          [
            126.382369,
            34.784042
          ],
          [
            126.382415,
            34.783625
          ],
          [
            126.382509,
            34.783235
          ],
          [
            126.381656,
            34.78308
          ],
          [
            126.381907,
            34.782187
          ],
          [
            126.381604,
            34.782129
          ],
          [
            126.380372,
            34.781896
          ],
          [
            126.379745,
            34.78178
          ],
          [
            126.379119,
            34.781664
          ],
          [
            126.378719,
            34.781601
          ],
          [
            126.37864,
            34.781574
          ],
          [
            126.377884,
            34.781162
          ],
          [
            126.377802,
            34.781136
          ],
          [
            126.376851,
            34.781028
          ],
          [
            126.376375,
            34.780665
          ],
          [
            126.376366,
            34.78054
          ],
          [
            126.375917,
            34.780495
          ],
          [
            126.374079,
            34.780256
          ],
          [
            126.373787,
            34.780233
          ],
          [
            126.373609,
            34.780241
          ],
          [
            126.373153,
            34.780304
          ],
          [
            126.373166,
            34.780507
          ]
        ]
      }
    }
  ]
}
