<?xml version="1.0" encoding="UTF-8"?>
<gpx version="1.1" creator="Hangeoreum · OpenStreetMap/Valhalla pedestrian geometry" xmlns="http://www.topografix.com/GPX/1/1">
<metadata><name>시장·먹거리 · 확정 방문 순서</name><desc>Walk-mode legs only; transit legs are intentionally not connected. 9 walking legs, 0 omitted for pin snap over 80m. Source: OpenStreetMap/Valhalla; checked 2026-10-07.</desc><link href="https://www.openstreetmap.org/copyright"><text>© OpenStreetMap contributors</text></link></metadata>
<wpt lat="37.7559700411569" lon="128.895826398452"><name>01 선채향</name><desc>Representative place pin; entrance not verified</desc></wpt><wpt lat="37.7559098" lon="128.8974965"><name>02 월화거리</name><desc>Representative place pin; entrance not verified</desc></wpt><wpt lat="37.75310689521508" lon="128.89707430758034"><name>03 감자바우 옹심이장칼국수</name><desc>Representative place pin; entrance not verified</desc></wpt><wpt lat="37.7540251" lon="128.8986238"><name>04 강릉중앙시장</name><desc>Representative place pin; entrance not verified</desc></wpt><wpt lat="37.75373722" lon="128.89904757"><name>05 성남시장</name><desc>Representative place pin; entrance not verified</desc></wpt><wpt lat="37.75363136" lon="128.89890872"><name>06 광덕식당 중앙시장점</name><desc>Representative place pin; entrance not verified</desc></wpt><wpt lat="37.75315860186623" lon="128.8994003845463"><name>07 만복래닭강정</name><desc>Representative place pin; entrance not verified</desc></wpt><wpt lat="37.750877121475035" lon="128.89316557371353"><name>08 강릉 명주동 거리</name><desc>Representative place pin; entrance not verified</desc></wpt><wpt lat="37.7510368" lon="128.8924254"><name>09 봉봉방앗간</name><desc>Representative place pin; entrance not verified</desc></wpt><wpt lat="37.7525948" lon="128.8919443"><name>10 강릉 대도호부 관아·임영관삼문</name><desc>Representative place pin; entrance not verified</desc></wpt><trk><name>시장·먹거리 · 확정 방문 순서 · 도보 구간</name><type>walking route segments</type><trkseg><trkpt lat="37.75603" lon="128.895931"></trkpt><trkpt lat="37.755913" lon="128.896037"></trkpt><trkpt lat="37.755765" lon="128.896264"></trkpt><trkpt lat="37.7551" lon="128.896843"></trkpt><trkpt lat="37.755186" lon="128.89697"></trkpt><trkpt lat="37.755338" lon="128.897221"></trkpt><trkpt lat="37.755606" lon="128.897727"></trkpt><trkpt lat="37.755871" lon="128.897439"></trkpt></trkseg><trkseg><trkpt lat="37.755871" lon="128.897439"></trkpt><trkpt lat="37.755606" lon="128.897727"></trkpt><trkpt lat="37.755328" lon="128.89804"></trkpt><trkpt lat="37.754515" lon="128.898907"></trkpt><trkpt lat="37.75445" lon="128.898793"></trkpt><trkpt lat="37.754012" lon="128.898028"></trkpt><trkpt lat="37.753537" lon="128.897262"></trkpt><trkpt lat="37.753344" lon="128.896996"></trkpt><trkpt lat="37.753153" lon="128.897161"></trkpt></trkseg><trkseg><trkpt lat="37.753153" lon="128.897161"></trkpt><trkpt lat="37.752933" lon="128.897351"></trkpt><trkpt lat="37.753119" lon="128.897647"></trkpt><trkpt lat="37.753582" lon="128.89843"></trkpt><trkpt lat="37.753768" lon="128.898736"></trkpt><trkpt lat="37.753816" lon="128.898818"></trkpt></trkseg><trkseg><trkpt lat="37.753816" lon="128.898818"></trkpt><trkpt lat="37.753906" lon="128.898974"></trkpt><trkpt lat="37.753763" lon="128.899096"></trkpt></trkseg><trkseg><trkpt lat="37.753763" lon="128.899096"></trkpt><trkpt lat="37.753906" lon="128.898974"></trkpt><trkpt lat="37.753768" lon="128.898736"></trkpt><trkpt lat="37.753613" lon="128.898877"></trkpt></trkseg><trkseg><trkpt lat="37.753613" lon="128.898877"></trkpt><trkpt lat="37.753454" lon="128.899022"></trkpt><trkpt lat="37.753286" lon="128.898653"></trkpt><trkpt lat="37.753012" lon="128.898888"></trkpt><trkpt lat="37.753182" lon="128.899387"></trkpt></trkseg><trkseg><trkpt lat="37.753182" lon="128.899387"></trkpt><trkpt lat="37.753012" lon="128.898888"></trkpt><trkpt lat="37.752722" lon="128.898018"></trkpt><trkpt lat="37.752594" lon="128.897665"></trkpt><trkpt lat="37.75239" lon="128.897057"></trkpt><trkpt lat="37.752167" lon="128.896488"></trkpt><trkpt lat="37.751974" lon="128.895998"></trkpt><trkpt lat="37.751853" lon="128.895691"></trkpt><trkpt lat="37.751557" lon="128.894945"></trkpt><trkpt lat="37.751535" lon="128.89474"></trkpt><trkpt lat="37.751338" lon="128.894389"></trkpt><trkpt lat="37.751428" lon="128.894293"></trkpt><trkpt lat="37.751566" lon="128.894142"></trkpt><trkpt lat="37.750901" lon="128.89314"></trkpt></trkseg><trkseg><trkpt lat="37.750901" lon="128.89314"></trkpt><trkpt lat="37.750846" lon="128.893058"></trkpt><trkpt lat="37.751083" lon="128.892783"></trkpt><trkpt lat="37.750923" lon="128.892549"></trkpt></trkseg><trkseg><trkpt lat="37.750923" lon="128.892549"></trkpt><trkpt lat="37.751083" lon="128.892783"></trkpt><trkpt lat="37.751303" lon="128.892528"></trkpt><trkpt lat="37.751615" lon="128.89218"></trkpt><trkpt lat="37.752061" lon="128.892513"></trkpt><trkpt lat="37.752561" lon="128.892901"></trkpt><trkpt lat="37.752682" lon="128.893007"></trkpt><trkpt lat="37.753052" lon="128.892632"></trkpt><trkpt lat="37.752761" lon="128.891846"></trkpt></trkseg></trk>
</gpx>
