<?xml version="1.0" encoding="UTF-8"?>
<gpx version="1.1" creator="Hangeoreum · OpenStreetMap/Valhalla pedestrian geometry" xmlns="http://www.topografix.com/GPX/1/1">
<metadata><name>시내→초당→안목 카페 투어 · 10곳</name><desc>Walk-mode legs only; transit legs are intentionally not connected. 7 walking legs, 0 omitted for pin snap over 80m. Source: OpenStreetMap/Valhalla; checked 2026-10-07.</desc><link href="https://www.openstreetmap.org/copyright"><text>© OpenStreetMap contributors</text></link></metadata>
<wpt lat="37.7510368" lon="128.8924254"><name>01 봉봉방앗간</name><desc>Representative place pin; entrance not verified</desc></wpt><wpt lat="37.7497493" lon="128.890473"><name>02 새바람이 오는 그늘</name><desc>Representative place pin; entrance not verified</desc></wpt><wpt lat="37.755880812412244" lon="128.8932522703908"><name>03 베리베리딸기</name><desc>Representative place pin; entrance not verified</desc></wpt><wpt lat="37.78575400683453" lon="128.915235806526"><name>04 말차로</name><desc>Representative place pin; entrance not verified</desc></wpt><wpt lat="37.78777042884899" lon="128.91288597760834"><name>05 쵸딩 초당옥수수 푸딩 카페</name><desc>Representative place pin; entrance not verified</desc></wpt><wpt lat="37.78818396918906" lon="128.91449034217882"><name>06 카페콥스</name><desc>Representative place pin; entrance not verified</desc></wpt><wpt lat="37.792853268313756" lon="128.914529131473"><name>07 카페 툇마루</name><desc>Representative place pin; entrance not verified</desc></wpt><wpt lat="37.77263198939384" lon="128.947241042645"><name>08 커피커퍼 안목1호점</name><desc>Representative place pin; entrance not verified</desc></wpt><wpt lat="37.77220533189159" lon="128.9477655048886"><name>09 레오파드</name><desc>Representative place pin; entrance not verified</desc></wpt><wpt lat="37.7720457" lon="128.9478294"><name>10 보사노바 커피로스터스 강릉점</name><desc>Representative place pin; entrance not verified</desc></wpt><trk><name>시내→초당→안목 카페 투어 · 10곳 · 도보 구간</name><type>walking route segments</type><trkseg><trkpt lat="37.750923" lon="128.892549"></trkpt><trkpt lat="37.750384" lon="128.891758"></trkpt><trkpt lat="37.750051" lon="128.891269"></trkpt><trkpt lat="37.749907" lon="128.890878"></trkpt><trkpt lat="37.749644" lon="128.890677"></trkpt><trkpt lat="37.749793" lon="128.890569"></trkpt></trkseg><trkseg><trkpt lat="37.749793" lon="128.890569"></trkpt><trkpt lat="37.749644" lon="128.890677"></trkpt><trkpt lat="37.749907" lon="128.890878"></trkpt><trkpt lat="37.750679" lon="128.891463"></trkpt><trkpt lat="37.751482" lon="128.892072"></trkpt><trkpt lat="37.751615" lon="128.89218"></trkpt><trkpt lat="37.752061" lon="128.892513"></trkpt><trkpt lat="37.752561" lon="128.892901"></trkpt><trkpt lat="37.752682" lon="128.893007"></trkpt><trkpt lat="37.753052" lon="128.892632"></trkpt><trkpt lat="37.75324" lon="128.892492"></trkpt><trkpt lat="37.753663" lon="128.892246"></trkpt><trkpt lat="37.754004" lon="128.892039"></trkpt><trkpt lat="37.754486" lon="128.891892"></trkpt><trkpt lat="37.754601" lon="128.892209"></trkpt><trkpt lat="37.754725" lon="128.89244"></trkpt><trkpt lat="37.754868" lon="128.892643"></trkpt><trkpt lat="37.755242" lon="128.893247"></trkpt><trkpt lat="37.755397" lon="128.893494"></trkpt><trkpt lat="37.755887" lon="128.893275"></trkpt></trkseg><trkseg><trkpt lat="37.785655" lon="128.915083"></trkpt><trkpt lat="37.786136" lon="128.914586"></trkpt><trkpt lat="37.78618" lon="128.91454"></trkpt><trkpt lat="37.786284" lon="128.914433"></trkpt><trkpt lat="37.786832" lon="128.914067"></trkpt><trkpt lat="37.787024" lon="128.913955"></trkpt><trkpt lat="37.787114" lon="128.913903"></trkpt><trkpt lat="37.787575" lon="128.913591"></trkpt><trkpt lat="37.787881" lon="128.913444"></trkpt><trkpt lat="37.787857" lon="128.913313"></trkpt><trkpt lat="37.787876" lon="128.912908"></trkpt><trkpt lat="37.787877" lon="128.912898"></trkpt></trkseg><trkseg><trkpt lat="37.787877" lon="128.912898"></trkpt><trkpt lat="37.787876" lon="128.912908"></trkpt><trkpt lat="37.787857" lon="128.913313"></trkpt><trkpt lat="37.787881" lon="128.913444"></trkpt><trkpt lat="37.787969" lon="128.913644"></trkpt><trkpt lat="37.788043" lon="128.91382"></trkpt><trkpt lat="37.788078" lon="128.913904"></trkpt><trkpt lat="37.788177" lon="128.91418"></trkpt><trkpt lat="37.788248" lon="128.914307"></trkpt><trkpt lat="37.788295" lon="128.914392"></trkpt></trkseg><trkseg><trkpt lat="37.788295" lon="128.914392"></trkpt><trkpt lat="37.788304" lon="128.914408"></trkpt><trkpt lat="37.788501" lon="128.914683"></trkpt><trkpt lat="37.788924" lon="128.915153"></trkpt><trkpt lat="37.788991" lon="128.915086"></trkpt><trkpt lat="37.790837" lon="128.914325"></trkpt><trkpt lat="37.791379" lon="128.91415"></trkpt><trkpt lat="37.792791" lon="128.913893"></trkpt><trkpt lat="37.793068" lon="128.914135"></trkpt></trkseg><trkseg><trkpt lat="37.772687" lon="128.947324"></trkpt><trkpt lat="37.772233" lon="128.947807"></trkpt></trkseg><trkseg><trkpt lat="37.772233" lon="128.947807"></trkpt><trkpt lat="37.772115" lon="128.947933"></trkpt></trkseg></trk>
</gpx>
