<?xml version="1.0" encoding="UTF-8"?>
<gpx version="1.1" creator="Hangeoreum · OpenStreetMap/Valhalla pedestrian geometry" xmlns="http://www.topografix.com/GPX/1/1">
<metadata><name>경포·오죽헌 역사·문화 · 확정 방문 순서</name><desc>Walk-mode legs only; transit legs are intentionally not connected. 8 walking legs, 0 omitted for pin snap over 80m. Source: OpenStreetMap/Valhalla; checked 2026-10-07.</desc><link href="https://www.openstreetmap.org/copyright"><text>© OpenStreetMap contributors</text></link></metadata>
<wpt lat="37.7791902" lon="128.8798026"><name>01 오죽헌·시립박물관</name><desc>Representative place pin; entrance not verified</desc></wpt><wpt lat="37.7854492" lon="128.8847671"><name>02 강릉 선교장</name><desc>Representative place pin; entrance not verified</desc></wpt><wpt lat="37.7950742" lon="128.8966363"><name>03 경포대</name><desc>Representative place pin; entrance not verified</desc></wpt><wpt lat="37.79773349230733" lon="128.8973037786799"><name>04 참소리축음기·에디슨과학박물관</name><desc>Representative place pin; entrance not verified</desc></wpt><wpt lat="37.80445270394466" lon="128.90428791808318"><name>05 경포별난해물찜</name><desc>Representative place pin; entrance not verified</desc></wpt><wpt lat="37.7977913781" lon="128.9095224784"><name>06 경포호</name><desc>Representative place pin; entrance not verified</desc></wpt><wpt lat="37.79508044" lon="128.91761085"><name>07 강문떡갈비</name><desc>Representative place pin; entrance not verified</desc></wpt><wpt lat="37.7917949" lon="128.9097365"><name>08 허균·허난설헌 기념공원</name><desc>Representative place pin; entrance not verified</desc></wpt><wpt lat="37.7878498" lon="128.9074894"><name>09 테라로사 경포호수점</name><desc>Representative place pin; entrance not verified</desc></wpt><trk><name>경포·오죽헌 역사·문화 · 확정 방문 순서 · 도보 구간</name><type>walking route segments</type><trkseg><trkpt lat="37.779203" lon="128.879833"></trkpt><trkpt lat="37.779161" lon="128.879862"></trkpt><trkpt lat="37.77905" lon="128.879931"></trkpt><trkpt lat="37.779133" lon="128.88"></trkpt><trkpt lat="37.779175" lon="128.880131"></trkpt><trkpt lat="37.779263" lon="128.880404"></trkpt><trkpt lat="37.779749" lon="128.881731"></trkpt><trkpt lat="37.780299" lon="128.882407"></trkpt><trkpt lat="37.782278" lon="128.879956"></trkpt><trkpt lat="37.782447" lon="128.879952"></trkpt><trkpt lat="37.782589" lon="128.879948"></trkpt><trkpt lat="37.78274" lon="128.879932"></trkpt><trkpt lat="37.782798" lon="128.879961"></trkpt><trkpt lat="37.782852" lon="128.879982"></trkpt><trkpt lat="37.783279" lon="128.880159"></trkpt><trkpt lat="37.78361" lon="128.880299"></trkpt><trkpt lat="37.783653" lon="128.880313"></trkpt><trkpt lat="37.783973" lon="128.880452"></trkpt><trkpt lat="37.784064" lon="128.8805"></trkpt><trkpt lat="37.784149" lon="128.880564"></trkpt><trkpt lat="37.784212" lon="128.880648"></trkpt><trkpt lat="37.784245" lon="128.880744"></trkpt><trkpt lat="37.784257" lon="128.880856"></trkpt><trkpt lat="37.78425" lon="128.880984"></trkpt><trkpt lat="37.784226" lon="128.881104"></trkpt><trkpt lat="37.784189" lon="128.881262"></trkpt><trkpt lat="37.784086" lon="128.881537"></trkpt><trkpt lat="37.784059" lon="128.881614"></trkpt><trkpt lat="37.784018" lon="128.881807"></trkpt><trkpt lat="37.784013" lon="128.882008"></trkpt><trkpt lat="37.784046" lon="128.882158"></trkpt><trkpt lat="37.784326" lon="128.882982"></trkpt><trkpt lat="37.784372" lon="128.883064"></trkpt><trkpt lat="37.784532" lon="128.883367"></trkpt><trkpt lat="37.784837" lon="128.88389"></trkpt><trkpt lat="37.784896" lon="128.884018"></trkpt><trkpt lat="37.785174" lon="128.884726"></trkpt><trkpt lat="37.785373" lon="128.884946"></trkpt><trkpt lat="37.78549" lon="128.884878"></trkpt></trkseg><trkseg><trkpt lat="37.78549" lon="128.884878"></trkpt><trkpt lat="37.785373" lon="128.884946"></trkpt><trkpt lat="37.78594" lon="128.886074"></trkpt><trkpt lat="37.786049" lon="128.886615"></trkpt><trkpt lat="37.786064" lon="128.886962"></trkpt><trkpt lat="37.786064" lon="128.887003"></trkpt><trkpt lat="37.786073" lon="128.88842"></trkpt><trkpt lat="37.786029" lon="128.888944"></trkpt><trkpt lat="37.785879" lon="128.889358"></trkpt><trkpt lat="37.785732" lon="128.889581"></trkpt><trkpt lat="37.785704" lon="128.889624"></trkpt><trkpt lat="37.785604" lon="128.889867"></trkpt><trkpt lat="37.785493" lon="128.890711"></trkpt><trkpt lat="37.785692" lon="128.891523"></trkpt><trkpt lat="37.785902" lon="128.891757"></trkpt><trkpt lat="37.7861" lon="128.891935"></trkpt><trkpt lat="37.786124" lon="128.891965"></trkpt><trkpt lat="37.786373" lon="128.892276"></trkpt><trkpt lat="37.786551" lon="128.8929"></trkpt><trkpt lat="37.786698" lon="128.893379"></trkpt><trkpt lat="37.78665" lon="128.893529"></trkpt><trkpt lat="37.787618" lon="128.893937"></trkpt><trkpt lat="37.788239" lon="128.89419"></trkpt><trkpt lat="37.788289" lon="128.89421"></trkpt><trkpt lat="37.788857" lon="128.894443"></trkpt><trkpt lat="37.789716" lon="128.894868"></trkpt><trkpt lat="37.791428" lon="128.895645"></trkpt><trkpt lat="37.791604" lon="128.895727"></trkpt><trkpt lat="37.791815" lon="128.895822"></trkpt><trkpt lat="37.791866" lon="128.895845"></trkpt><trkpt lat="37.792334" lon="128.896065"></trkpt><trkpt lat="37.792857" lon="128.896304"></trkpt><trkpt lat="37.792976" lon="128.896349"></trkpt><trkpt lat="37.79345" lon="128.896526"></trkpt><trkpt lat="37.793693" lon="128.896597"></trkpt><trkpt lat="37.793576" lon="128.896442"></trkpt><trkpt lat="37.794103" lon="128.896598"></trkpt><trkpt lat="37.79431" lon="128.89663"></trkpt><trkpt lat="37.794622" lon="128.896659"></trkpt><trkpt lat="37.794793" lon="128.896655"></trkpt><trkpt lat="37.794818" lon="128.896655"></trkpt><trkpt lat="37.794862" lon="128.89665"></trkpt><trkpt lat="37.794899" lon="128.896647"></trkpt><trkpt lat="37.794918" lon="128.896645"></trkpt><trkpt lat="37.794929" lon="128.896729"></trkpt><trkpt lat="37.795068" lon="128.896696"></trkpt><trkpt lat="37.795059" lon="128.89664"></trkpt></trkseg><trkseg><trkpt lat="37.795059" lon="128.89664"></trkpt><trkpt lat="37.795068" lon="128.896696"></trkpt><trkpt lat="37.794929" lon="128.896729"></trkpt><trkpt lat="37.794918" lon="128.896645"></trkpt><trkpt lat="37.794899" lon="128.896647"></trkpt><trkpt lat="37.794892" lon="128.896566"></trkpt><trkpt lat="37.79485" lon="128.896526"></trkpt><trkpt lat="37.794798" lon="128.896264"></trkpt><trkpt lat="37.794953" lon="128.896247"></trkpt><trkpt lat="37.795169" lon="128.896334"></trkpt><trkpt lat="37.795371" lon="128.896476"></trkpt><trkpt lat="37.795516" lon="128.896756"></trkpt><trkpt lat="37.795555" lon="128.896697"></trkpt><trkpt lat="37.795699" lon="128.896632"></trkpt><trkpt lat="37.796314" lon="128.896635"></trkpt><trkpt lat="37.796409" lon="128.896652"></trkpt><trkpt lat="37.797079" lon="128.89687"></trkpt><trkpt lat="37.797329" lon="128.896944"></trkpt><trkpt lat="37.797618" lon="128.897061"></trkpt><trkpt lat="37.797788" lon="128.897191"></trkpt></trkseg><trkseg><trkpt lat="37.797788" lon="128.897191"></trkpt><trkpt lat="37.797913" lon="128.897287"></trkpt><trkpt lat="37.798208" lon="128.897533"></trkpt><trkpt lat="37.798319" lon="128.897643"></trkpt><trkpt lat="37.798747" lon="128.898271"></trkpt><trkpt lat="37.798949" lon="128.898607"></trkpt><trkpt lat="37.799496" lon="128.899635"></trkpt><trkpt lat="37.799513" lon="128.899688"></trkpt><trkpt lat="37.799533" lon="128.899749"></trkpt><trkpt lat="37.799747" lon="128.900398"></trkpt><trkpt lat="37.799792" lon="128.9006"></trkpt><trkpt lat="37.799798" lon="128.900723"></trkpt><trkpt lat="37.79978" lon="128.900793"></trkpt><trkpt lat="37.800428" lon="128.901799"></trkpt><trkpt lat="37.801154" lon="128.902981"></trkpt><trkpt lat="37.801517" lon="128.903374"></trkpt><trkpt lat="37.802053" lon="128.90384"></trkpt><trkpt lat="37.802341" lon="128.90409"></trkpt><trkpt lat="37.802546" lon="128.904266"></trkpt><trkpt lat="37.80289" lon="128.904434"></trkpt><trkpt lat="37.803553" lon="128.904814"></trkpt><trkpt lat="37.803733" lon="128.904427"></trkpt><trkpt lat="37.804057" lon="128.904612"></trkpt><trkpt lat="37.804342" lon="128.904173"></trkpt></trkseg><trkseg><trkpt lat="37.804342" lon="128.904173"></trkpt><trkpt lat="37.804057" lon="128.904612"></trkpt><trkpt lat="37.804802" lon="128.905035"></trkpt><trkpt lat="37.804764" lon="128.905192"></trkpt><trkpt lat="37.804749" lon="128.905256"></trkpt><trkpt lat="37.804691" lon="128.905481"></trkpt><trkpt lat="37.804631" lon="128.905664"></trkpt><trkpt lat="37.804576" lon="128.905828"></trkpt><trkpt lat="37.804521" lon="128.905993"></trkpt><trkpt lat="37.80439" lon="128.906391"></trkpt><trkpt lat="37.80432" lon="128.906592"></trkpt><trkpt lat="37.804294" lon="128.906672"></trkpt><trkpt lat="37.804272" lon="128.906726"></trkpt><trkpt lat="37.804168" lon="128.906653"></trkpt><trkpt lat="37.804071" lon="128.906902"></trkpt><trkpt lat="37.803874" lon="128.907321"></trkpt><trkpt lat="37.803616" lon="128.907736"></trkpt><trkpt lat="37.803335" lon="128.908222"></trkpt><trkpt lat="37.803312" lon="128.90826"></trkpt><trkpt lat="37.802843" lon="128.90891"></trkpt><trkpt lat="37.802691" lon="128.909091"></trkpt><trkpt lat="37.80263" lon="128.909164"></trkpt><trkpt lat="37.802308" lon="128.90955"></trkpt><trkpt lat="37.801895" lon="128.909998"></trkpt><trkpt lat="37.801636" lon="128.910278"></trkpt><trkpt lat="37.801504" lon="128.910401"></trkpt><trkpt lat="37.801363" lon="128.910517"></trkpt><trkpt lat="37.801245" lon="128.910596"></trkpt><trkpt lat="37.801013" lon="128.910753"></trkpt><trkpt lat="37.800652" lon="128.910982"></trkpt><trkpt lat="37.800305" lon="128.911128"></trkpt><trkpt lat="37.799927" lon="128.911247"></trkpt><trkpt lat="37.799725" lon="128.911272"></trkpt><trkpt lat="37.799543" lon="128.911277"></trkpt><trkpt lat="37.799373" lon="128.911266"></trkpt><trkpt lat="37.799178" lon="128.911185"></trkpt><trkpt lat="37.798893" lon="128.910964"></trkpt><trkpt lat="37.798818" lon="128.910857"></trkpt><trkpt lat="37.798754" lon="128.910729"></trkpt><trkpt lat="37.798684" lon="128.910495"></trkpt><trkpt lat="37.798587" lon="128.910107"></trkpt><trkpt lat="37.798535" lon="128.909815"></trkpt><trkpt lat="37.798523" lon="128.909728"></trkpt><trkpt lat="37.798504" lon="128.909519"></trkpt><trkpt lat="37.798405" lon="128.909612"></trkpt><trkpt lat="37.79828" lon="128.909606"></trkpt><trkpt lat="37.798165" lon="128.909576"></trkpt><trkpt lat="37.798134" lon="128.909521"></trkpt><trkpt lat="37.798103" lon="128.909466"></trkpt><trkpt lat="37.797853" lon="128.909454"></trkpt><trkpt lat="37.797813" lon="128.909438"></trkpt></trkseg><trkseg><trkpt lat="37.797813" lon="128.909438"></trkpt><trkpt lat="37.797853" lon="128.909454"></trkpt><trkpt lat="37.797896" lon="128.9096"></trkpt><trkpt lat="37.798035" lon="128.909758"></trkpt><trkpt lat="37.798018" lon="128.909817"></trkpt><trkpt lat="37.798523" lon="128.909728"></trkpt><trkpt lat="37.798535" lon="128.909815"></trkpt><trkpt lat="37.798587" lon="128.910107"></trkpt><trkpt lat="37.798684" lon="128.910495"></trkpt><trkpt lat="37.798754" lon="128.910729"></trkpt><trkpt lat="37.798818" lon="128.910857"></trkpt><trkpt lat="37.798893" lon="128.910964"></trkpt><trkpt lat="37.799178" lon="128.911185"></trkpt><trkpt lat="37.799373" lon="128.911266"></trkpt><trkpt lat="37.799477" lon="128.911446"></trkpt><trkpt lat="37.798984" lon="128.911573"></trkpt><trkpt lat="37.798418" lon="128.911705"></trkpt><trkpt lat="37.797921" lon="128.91181"></trkpt><trkpt lat="37.797876" lon="128.912208"></trkpt><trkpt lat="37.797761" lon="128.912491"></trkpt><trkpt lat="37.797671" lon="128.912689"></trkpt><trkpt lat="37.797568" lon="128.91292"></trkpt><trkpt lat="37.797469" lon="128.91329"></trkpt><trkpt lat="37.797406" lon="128.913503"></trkpt><trkpt lat="37.797165" lon="128.914014"></trkpt><trkpt lat="37.797049" lon="128.914214"></trkpt><trkpt lat="37.796887" lon="128.914463"></trkpt><trkpt lat="37.796854" lon="128.914753"></trkpt><trkpt lat="37.796846" lon="128.915001"></trkpt><trkpt lat="37.796856" lon="128.915174"></trkpt><trkpt lat="37.796911" lon="128.915391"></trkpt><trkpt lat="37.796971" lon="128.915568"></trkpt><trkpt lat="37.797098" lon="128.915873"></trkpt><trkpt lat="37.797208" lon="128.916201"></trkpt><trkpt lat="37.796998" lon="128.916123"></trkpt><trkpt lat="37.796878" lon="128.916101"></trkpt><trkpt lat="37.796754" lon="128.916093"></trkpt><trkpt lat="37.796529" lon="128.916117"></trkpt><trkpt lat="37.796435" lon="128.916139"></trkpt><trkpt lat="37.796214" lon="128.916208"></trkpt><trkpt lat="37.796173" lon="128.916227"></trkpt><trkpt lat="37.796134" lon="128.916245"></trkpt><trkpt lat="37.795951" lon="128.916367"></trkpt><trkpt lat="37.795642" lon="128.91659"></trkpt><trkpt lat="37.795511" lon="128.916701"></trkpt><trkpt lat="37.795354" lon="128.916828"></trkpt><trkpt lat="37.795232" lon="128.916936"></trkpt><trkpt lat="37.795148" lon="128.917029"></trkpt><trkpt lat="37.79502" lon="128.917205"></trkpt><trkpt lat="37.794907" lon="128.917406"></trkpt><trkpt lat="37.794879" lon="128.917471"></trkpt></trkseg><trkseg><trkpt lat="37.794879" lon="128.917471"></trkpt><trkpt lat="37.794907" lon="128.917406"></trkpt><trkpt lat="37.79502" lon="128.917205"></trkpt><trkpt lat="37.795148" lon="128.917029"></trkpt><trkpt lat="37.795232" lon="128.916936"></trkpt><trkpt lat="37.795354" lon="128.916828"></trkpt><trkpt lat="37.795511" lon="128.916701"></trkpt><trkpt lat="37.795642" lon="128.91659"></trkpt><trkpt lat="37.794529" lon="128.915454"></trkpt><trkpt lat="37.793743" lon="128.91474"></trkpt><trkpt lat="37.793708" lon="128.914712"></trkpt><trkpt lat="37.79316" lon="128.914218"></trkpt><trkpt lat="37.793086" lon="128.914151"></trkpt><trkpt lat="37.793123" lon="128.914082"></trkpt><trkpt lat="37.793128" lon="128.914001"></trkpt><trkpt lat="37.793125" lon="128.913794"></trkpt><trkpt lat="37.793112" lon="128.913582"></trkpt><trkpt lat="37.793081" lon="128.913435"></trkpt><trkpt lat="37.793017" lon="128.913353"></trkpt><trkpt lat="37.792949" lon="128.912862"></trkpt><trkpt lat="37.792931" lon="128.912564"></trkpt><trkpt lat="37.792836" lon="128.912158"></trkpt><trkpt lat="37.79287" lon="128.91208"></trkpt><trkpt lat="37.792955" lon="128.911949"></trkpt><trkpt lat="37.793088" lon="128.911843"></trkpt><trkpt lat="37.793165" lon="128.911796"></trkpt><trkpt lat="37.793461" lon="128.911616"></trkpt><trkpt lat="37.793494" lon="128.911577"></trkpt><trkpt lat="37.793498" lon="128.91154"></trkpt><trkpt lat="37.793491" lon="128.911478"></trkpt><trkpt lat="37.793366" lon="128.910769"></trkpt><trkpt lat="37.79355" lon="128.910235"></trkpt><trkpt lat="37.793635" lon="128.910055"></trkpt><trkpt lat="37.793709" lon="128.909969"></trkpt><trkpt lat="37.793832" lon="128.909878"></trkpt><trkpt lat="37.794022" lon="128.909787"></trkpt><trkpt lat="37.79411" lon="128.909758"></trkpt><trkpt lat="37.794405" lon="128.909543"></trkpt><trkpt lat="37.79449" lon="128.909466"></trkpt><trkpt lat="37.794823" lon="128.909284"></trkpt><trkpt lat="37.795206" lon="128.909049"></trkpt><trkpt lat="37.794996" lon="128.908781"></trkpt><trkpt lat="37.793859" lon="128.907679"></trkpt><trkpt lat="37.793725" lon="128.907689"></trkpt><trkpt lat="37.793301" lon="128.907846"></trkpt><trkpt lat="37.793187" lon="128.908067"></trkpt><trkpt lat="37.793034" lon="128.908236"></trkpt><trkpt lat="37.792888" lon="128.908557"></trkpt><trkpt lat="37.792658" lon="128.908758"></trkpt><trkpt lat="37.792387" lon="128.90897"></trkpt><trkpt lat="37.79198" lon="128.909127"></trkpt><trkpt lat="37.791875" lon="128.909185"></trkpt><trkpt lat="37.791775" lon="128.909219"></trkpt><trkpt lat="37.791743" lon="128.909274"></trkpt><trkpt lat="37.791665" lon="128.90941"></trkpt><trkpt lat="37.791587" lon="128.909517"></trkpt><trkpt lat="37.791597" lon="128.909604"></trkpt><trkpt lat="37.79159" lon="128.909694"></trkpt><trkpt lat="37.79159" lon="128.909694"></trkpt></trkseg><trkseg><trkpt lat="37.79159" lon="128.909694"></trkpt><trkpt lat="37.791597" lon="128.909604"></trkpt><trkpt lat="37.791587" lon="128.909517"></trkpt><trkpt lat="37.791665" lon="128.90941"></trkpt><trkpt lat="37.791743" lon="128.909274"></trkpt><trkpt lat="37.791775" lon="128.909219"></trkpt><trkpt lat="37.791875" lon="128.909185"></trkpt><trkpt lat="37.79198" lon="128.909127"></trkpt><trkpt lat="37.792387" lon="128.90897"></trkpt><trkpt lat="37.792658" lon="128.908758"></trkpt><trkpt lat="37.792888" lon="128.908557"></trkpt><trkpt lat="37.793034" lon="128.908236"></trkpt><trkpt lat="37.793187" lon="128.908067"></trkpt><trkpt lat="37.793301" lon="128.907846"></trkpt><trkpt lat="37.793059" lon="128.907901"></trkpt><trkpt lat="37.789565" lon="128.909259"></trkpt><trkpt lat="37.789496" lon="128.909317"></trkpt><trkpt lat="37.789197" lon="128.909197"></trkpt><trkpt lat="37.788488" lon="128.908789"></trkpt><trkpt lat="37.788417" lon="128.908744"></trkpt><trkpt lat="37.787924" lon="128.908284"></trkpt><trkpt lat="37.787577" lon="128.907968"></trkpt></trkseg></trk>
</gpx>
