{
  "type": "FeatureCollection",
  "name": "Gangneung history pedestrian legs",
  "metadata": {
    "checkedOn": "2026-10-07",
    "source": "OpenStreetMap/Valhalla public pedestrian router",
    "attribution": "© OpenStreetMap contributors",
    "note": "Only walk-mode legs are routed. Transit-mode gaps remain separate. Place pins may not be entrances."
  },
  "features": [
    {
      "type": "Feature",
      "properties": {
        "themeId": "history",
        "legIndex": 1,
        "from": "g9",
        "to": "g10",
        "fromName": "오죽헌·시립박물관",
        "toName": "강릉 선교장",
        "meters": 1261,
        "minutes": 15,
        "startSnapMeters": 3,
        "endSnapMeters": 11,
        "accepted": true,
        "pinType": {
          "from": "route-pin",
          "to": "route-pin"
        }
      },
      "geometry": {
        "type": "LineString",
        "coordinates": [
          [
            128.879833,
            37.779203
          ],
          [
            128.879862,
            37.779161
          ],
          [
            128.879931,
            37.77905
          ],
          [
            128.88,
            37.779133
          ],
          [
            128.880131,
            37.779175
          ],
          [
            128.880404,
            37.779263
          ],
          [
            128.881731,
            37.779749
          ],
          [
            128.882407,
            37.780299
          ],
          [
            128.879956,
            37.782278
          ],
          [
            128.879952,
            37.782447
          ],
          [
            128.879948,
            37.782589
          ],
          [
            128.879932,
            37.78274
          ],
          [
            128.879961,
            37.782798
          ],
          [
            128.879982,
            37.782852
          ],
          [
            128.880159,
            37.783279
          ],
          [
            128.880299,
            37.78361
          ],
          [
            128.880313,
            37.783653
          ],
          [
            128.880452,
            37.783973
          ],
          [
            128.8805,
            37.784064
          ],
          [
            128.880564,
            37.784149
          ],
          [
            128.880648,
            37.784212
          ],
          [
            128.880744,
            37.784245
          ],
          [
            128.880856,
            37.784257
          ],
          [
            128.880984,
            37.78425
          ],
          [
            128.881104,
            37.784226
          ],
          [
            128.881262,
            37.784189
          ],
          [
            128.881537,
            37.784086
          ],
          [
            128.881614,
            37.784059
          ],
          [
            128.881807,
            37.784018
          ],
          [
            128.882008,
            37.784013
          ],
          [
            128.882158,
            37.784046
          ],
          [
            128.882982,
            37.784326
          ],
          [
            128.883064,
            37.784372
          ],
          [
            128.883367,
            37.784532
          ],
          [
            128.88389,
            37.784837
          ],
          [
            128.884018,
            37.784896
          ],
          [
            128.884726,
            37.785174
          ],
          [
            128.884946,
            37.785373
          ],
          [
            128.884878,
            37.78549
          ]
        ]
      }
    },
    {
      "type": "Feature",
      "properties": {
        "themeId": "history",
        "legIndex": 2,
        "from": "g10",
        "to": "g11",
        "fromName": "강릉 선교장",
        "toName": "경포대",
        "meters": 1875,
        "minutes": 24,
        "startSnapMeters": 11,
        "endSnapMeters": 2,
        "accepted": true,
        "pinType": {
          "from": "route-pin",
          "to": "route-pin"
        }
      },
      "geometry": {
        "type": "LineString",
        "coordinates": [
          [
            128.884878,
            37.78549
          ],
          [
            128.884946,
            37.785373
          ],
          [
            128.886074,
            37.78594
          ],
          [
            128.886615,
            37.786049
          ],
          [
            128.886962,
            37.786064
          ],
          [
            128.887003,
            37.786064
          ],
          [
            128.88842,
            37.786073
          ],
          [
            128.888944,
            37.786029
          ],
          [
            128.889358,
            37.785879
          ],
          [
            128.889581,
            37.785732
          ],
          [
            128.889624,
            37.785704
          ],
          [
            128.889867,
            37.785604
          ],
          [
            128.890711,
            37.785493
          ],
          [
            128.891523,
            37.785692
          ],
          [
            128.891757,
            37.785902
          ],
          [
            128.891935,
            37.7861
          ],
          [
            128.891965,
            37.786124
          ],
          [
            128.892276,
            37.786373
          ],
          [
            128.8929,
            37.786551
          ],
          [
            128.893379,
            37.786698
          ],
          [
            128.893529,
            37.78665
          ],
          [
            128.893937,
            37.787618
          ],
          [
            128.89419,
            37.788239
          ],
          [
            128.89421,
            37.788289
          ],
          [
            128.894443,
            37.788857
          ],
          [
            128.894868,
            37.789716
          ],
          [
            128.895645,
            37.791428
          ],
          [
            128.895727,
            37.791604
          ],
          [
            128.895822,
            37.791815
          ],
          [
            128.895845,
            37.791866
          ],
          [
            128.896065,
            37.792334
          ],
          [
            128.896304,
            37.792857
          ],
          [
            128.896349,
            37.792976
          ],
          [
            128.896526,
            37.79345
          ],
          [
            128.896597,
            37.793693
          ],
          [
            128.896442,
            37.793576
          ],
          [
            128.896598,
            37.794103
          ],
          [
            128.89663,
            37.79431
          ],
          [
            128.896659,
            37.794622
          ],
          [
            128.896655,
            37.794793
          ],
          [
            128.896655,
            37.794818
          ],
          [
            128.89665,
            37.794862
          ],
          [
            128.896647,
            37.794899
          ],
          [
            128.896645,
            37.794918
          ],
          [
            128.896729,
            37.794929
          ],
          [
            128.896696,
            37.795068
          ],
          [
            128.89664,
            37.795059
          ]
        ]
      }
    },
    {
      "type": "Feature",
      "properties": {
        "themeId": "history",
        "legIndex": 3,
        "from": "g11",
        "to": "g121",
        "fromName": "경포대",
        "toName": "참소리축음기·에디슨과학박물관",
        "meters": 428,
        "minutes": 6,
        "startSnapMeters": 2,
        "endSnapMeters": 12,
        "accepted": true,
        "pinType": {
          "from": "route-pin",
          "to": "representative-map-pin"
        }
      },
      "geometry": {
        "type": "LineString",
        "coordinates": [
          [
            128.89664,
            37.795059
          ],
          [
            128.896696,
            37.795068
          ],
          [
            128.896729,
            37.794929
          ],
          [
            128.896645,
            37.794918
          ],
          [
            128.896647,
            37.794899
          ],
          [
            128.896566,
            37.794892
          ],
          [
            128.896526,
            37.79485
          ],
          [
            128.896264,
            37.794798
          ],
          [
            128.896247,
            37.794953
          ],
          [
            128.896334,
            37.795169
          ],
          [
            128.896476,
            37.795371
          ],
          [
            128.896756,
            37.795516
          ],
          [
            128.896697,
            37.795555
          ],
          [
            128.896632,
            37.795699
          ],
          [
            128.896635,
            37.796314
          ],
          [
            128.896652,
            37.796409
          ],
          [
            128.89687,
            37.797079
          ],
          [
            128.896944,
            37.797329
          ],
          [
            128.897061,
            37.797618
          ],
          [
            128.897191,
            37.797788
          ]
        ]
      }
    },
    {
      "type": "Feature",
      "properties": {
        "themeId": "history",
        "legIndex": 4,
        "from": "g121",
        "to": "g236",
        "fromName": "참소리축음기·에디슨과학박물관",
        "toName": "경포별난해물찜",
        "meters": 1088,
        "minutes": 14,
        "startSnapMeters": 12,
        "endSnapMeters": 16,
        "accepted": true,
        "pinType": {
          "from": "representative-map-pin",
          "to": "representative-map-pin"
        }
      },
      "geometry": {
        "type": "LineString",
        "coordinates": [
          [
            128.897191,
            37.797788
          ],
          [
            128.897287,
            37.797913
          ],
          [
            128.897533,
            37.798208
          ],
          [
            128.897643,
            37.798319
          ],
          [
            128.898271,
            37.798747
          ],
          [
            128.898607,
            37.798949
          ],
          [
            128.899635,
            37.799496
          ],
          [
            128.899688,
            37.799513
          ],
          [
            128.899749,
            37.799533
          ],
          [
            128.900398,
            37.799747
          ],
          [
            128.9006,
            37.799792
          ],
          [
            128.900723,
            37.799798
          ],
          [
            128.900793,
            37.79978
          ],
          [
            128.901799,
            37.800428
          ],
          [
            128.902981,
            37.801154
          ],
          [
            128.903374,
            37.801517
          ],
          [
            128.90384,
            37.802053
          ],
          [
            128.90409,
            37.802341
          ],
          [
            128.904266,
            37.802546
          ],
          [
            128.904434,
            37.80289
          ],
          [
            128.904814,
            37.803553
          ],
          [
            128.904427,
            37.803733
          ],
          [
            128.904612,
            37.804057
          ],
          [
            128.904173,
            37.804342
          ]
        ]
      }
    },
    {
      "type": "Feature",
      "properties": {
        "themeId": "history",
        "legIndex": 5,
        "from": "g236",
        "to": "g12",
        "fromName": "경포별난해물찜",
        "toName": "경포호",
        "meters": 1297,
        "minutes": 16,
        "startSnapMeters": 16,
        "endSnapMeters": 8,
        "accepted": true,
        "pinType": {
          "from": "representative-map-pin",
          "to": "representative-map-pin"
        }
      },
      "geometry": {
        "type": "LineString",
        "coordinates": [
          [
            128.904173,
            37.804342
          ],
          [
            128.904612,
            37.804057
          ],
          [
            128.905035,
            37.804802
          ],
          [
            128.905192,
            37.804764
          ],
          [
            128.905256,
            37.804749
          ],
          [
            128.905481,
            37.804691
          ],
          [
            128.905664,
            37.804631
          ],
          [
            128.905828,
            37.804576
          ],
          [
            128.905993,
            37.804521
          ],
          [
            128.906391,
            37.80439
          ],
          [
            128.906592,
            37.80432
          ],
          [
            128.906672,
            37.804294
          ],
          [
            128.906726,
            37.804272
          ],
          [
            128.906653,
            37.804168
          ],
          [
            128.906902,
            37.804071
          ],
          [
            128.907321,
            37.803874
          ],
          [
            128.907736,
            37.803616
          ],
          [
            128.908222,
            37.803335
          ],
          [
            128.90826,
            37.803312
          ],
          [
            128.90891,
            37.802843
          ],
          [
            128.909091,
            37.802691
          ],
          [
            128.909164,
            37.80263
          ],
          [
            128.90955,
            37.802308
          ],
          [
            128.909998,
            37.801895
          ],
          [
            128.910278,
            37.801636
          ],
          [
            128.910401,
            37.801504
          ],
          [
            128.910517,
            37.801363
          ],
          [
            128.910596,
            37.801245
          ],
          [
            128.910753,
            37.801013
          ],
          [
            128.910982,
            37.800652
          ],
          [
            128.911128,
            37.800305
          ],
          [
            128.911247,
            37.799927
          ],
          [
            128.911272,
            37.799725
          ],
          [
            128.911277,
            37.799543
          ],
          [
            128.911266,
            37.799373
          ],
          [
            128.911185,
            37.799178
          ],
          [
            128.910964,
            37.798893
          ],
          [
            128.910857,
            37.798818
          ],
          [
            128.910729,
            37.798754
          ],
          [
            128.910495,
            37.798684
          ],
          [
            128.910107,
            37.798587
          ],
          [
            128.909815,
            37.798535
          ],
          [
            128.909728,
            37.798523
          ],
          [
            128.909519,
            37.798504
          ],
          [
            128.909612,
            37.798405
          ],
          [
            128.909606,
            37.79828
          ],
          [
            128.909576,
            37.798165
          ],
          [
            128.909521,
            37.798134
          ],
          [
            128.909466,
            37.798103
          ],
          [
            128.909454,
            37.797853
          ],
          [
            128.909438,
            37.797813
          ]
        ]
      }
    },
    {
      "type": "Feature",
      "properties": {
        "themeId": "history",
        "legIndex": 6,
        "from": "g12",
        "to": "g181",
        "fromName": "경포호",
        "toName": "강문떡갈비",
        "meters": 1202,
        "minutes": 15,
        "startSnapMeters": 8,
        "endSnapMeters": 26,
        "accepted": true,
        "pinType": {
          "from": "representative-map-pin",
          "to": "representative-map-pin"
        }
      },
      "geometry": {
        "type": "LineString",
        "coordinates": [
          [
            128.909438,
            37.797813
          ],
          [
            128.909454,
            37.797853
          ],
          [
            128.9096,
            37.797896
          ],
          [
            128.909758,
            37.798035
          ],
          [
            128.909817,
            37.798018
          ],
          [
            128.909728,
            37.798523
          ],
          [
            128.909815,
            37.798535
          ],
          [
            128.910107,
            37.798587
          ],
          [
            128.910495,
            37.798684
          ],
          [
            128.910729,
            37.798754
          ],
          [
            128.910857,
            37.798818
          ],
          [
            128.910964,
            37.798893
          ],
          [
            128.911185,
            37.799178
          ],
          [
            128.911266,
            37.799373
          ],
          [
            128.911446,
            37.799477
          ],
          [
            128.911573,
            37.798984
          ],
          [
            128.911705,
            37.798418
          ],
          [
            128.91181,
            37.797921
          ],
          [
            128.912208,
            37.797876
          ],
          [
            128.912491,
            37.797761
          ],
          [
            128.912689,
            37.797671
          ],
          [
            128.91292,
            37.797568
          ],
          [
            128.91329,
            37.797469
          ],
          [
            128.913503,
            37.797406
          ],
          [
            128.914014,
            37.797165
          ],
          [
            128.914214,
            37.797049
          ],
          [
            128.914463,
            37.796887
          ],
          [
            128.914753,
            37.796854
          ],
          [
            128.915001,
            37.796846
          ],
          [
            128.915174,
            37.796856
          ],
          [
            128.915391,
            37.796911
          ],
          [
            128.915568,
            37.796971
          ],
          [
            128.915873,
            37.797098
          ],
          [
            128.916201,
            37.797208
          ],
          [
            128.916123,
            37.796998
          ],
          [
            128.916101,
            37.796878
          ],
          [
            128.916093,
            37.796754
          ],
          [
            128.916117,
            37.796529
          ],
          [
            128.916139,
            37.796435
          ],
          [
            128.916208,
            37.796214
          ],
          [
            128.916227,
            37.796173
          ],
          [
            128.916245,
            37.796134
          ],
          [
            128.916367,
            37.795951
          ],
          [
            128.91659,
            37.795642
          ],
          [
            128.916701,
            37.795511
          ],
          [
            128.916828,
            37.795354
          ],
          [
            128.916936,
            37.795232
          ],
          [
            128.917029,
            37.795148
          ],
          [
            128.917205,
            37.79502
          ],
          [
            128.917406,
            37.794907
          ],
          [
            128.917471,
            37.794879
          ]
        ]
      }
    },
    {
      "type": "Feature",
      "properties": {
        "themeId": "history",
        "legIndex": 7,
        "from": "g181",
        "to": "g22",
        "fromName": "강문떡갈비",
        "toName": "허균·허난설헌 기념공원",
        "meters": 1608,
        "minutes": 20,
        "startSnapMeters": 26,
        "endSnapMeters": 23,
        "accepted": true,
        "pinType": {
          "from": "representative-map-pin",
          "to": "route-pin"
        }
      },
      "geometry": {
        "type": "LineString",
        "coordinates": [
          [
            128.917471,
            37.794879
          ],
          [
            128.917406,
            37.794907
          ],
          [
            128.917205,
            37.79502
          ],
          [
            128.917029,
            37.795148
          ],
          [
            128.916936,
            37.795232
          ],
          [
            128.916828,
            37.795354
          ],
          [
            128.916701,
            37.795511
          ],
          [
            128.91659,
            37.795642
          ],
          [
            128.915454,
            37.794529
          ],
          [
            128.91474,
            37.793743
          ],
          [
            128.914712,
            37.793708
          ],
          [
            128.914218,
            37.79316
          ],
          [
            128.914151,
            37.793086
          ],
          [
            128.914082,
            37.793123
          ],
          [
            128.914001,
            37.793128
          ],
          [
            128.913794,
            37.793125
          ],
          [
            128.913582,
            37.793112
          ],
          [
            128.913435,
            37.793081
          ],
          [
            128.913353,
            37.793017
          ],
          [
            128.912862,
            37.792949
          ],
          [
            128.912564,
            37.792931
          ],
          [
            128.912158,
            37.792836
          ],
          [
            128.91208,
            37.79287
          ],
          [
            128.911949,
            37.792955
          ],
          [
            128.911843,
            37.793088
          ],
          [
            128.911796,
            37.793165
          ],
          [
            128.911616,
            37.793461
          ],
          [
            128.911577,
            37.793494
          ],
          [
            128.91154,
            37.793498
          ],
          [
            128.911478,
            37.793491
          ],
          [
            128.910769,
            37.793366
          ],
          [
            128.910235,
            37.79355
          ],
          [
            128.910055,
            37.793635
          ],
          [
            128.909969,
            37.793709
          ],
          [
            128.909878,
            37.793832
          ],
          [
            128.909787,
            37.794022
          ],
          [
            128.909758,
            37.79411
          ],
          [
            128.909543,
            37.794405
          ],
          [
            128.909466,
            37.79449
          ],
          [
            128.909284,
            37.794823
          ],
          [
            128.909049,
            37.795206
          ],
          [
            128.908781,
            37.794996
          ],
          [
            128.907679,
            37.793859
          ],
          [
            128.907689,
            37.793725
          ],
          [
            128.907846,
            37.793301
          ],
          [
            128.908067,
            37.793187
          ],
          [
            128.908236,
            37.793034
          ],
          [
            128.908557,
            37.792888
          ],
          [
            128.908758,
            37.792658
          ],
          [
            128.90897,
            37.792387
          ],
          [
            128.909127,
            37.79198
          ],
          [
            128.909185,
            37.791875
          ],
          [
            128.909219,
            37.791775
          ],
          [
            128.909274,
            37.791743
          ],
          [
            128.90941,
            37.791665
          ],
          [
            128.909517,
            37.791587
          ],
          [
            128.909604,
            37.791597
          ],
          [
            128.909694,
            37.79159
          ],
          [
            128.909694,
            37.79159
          ]
        ]
      }
    },
    {
      "type": "Feature",
      "properties": {
        "themeId": "history",
        "legIndex": 8,
        "from": "g22",
        "to": "g21",
        "fromName": "허균·허난설헌 기념공원",
        "toName": "테라로사 경포호수점",
        "meters": 954,
        "minutes": 13,
        "startSnapMeters": 23,
        "endSnapMeters": 52,
        "accepted": true,
        "pinType": {
          "from": "route-pin",
          "to": "route-pin"
        }
      },
      "geometry": {
        "type": "LineString",
        "coordinates": [
          [
            128.909694,
            37.79159
          ],
          [
            128.909604,
            37.791597
          ],
          [
            128.909517,
            37.791587
          ],
          [
            128.90941,
            37.791665
          ],
          [
            128.909274,
            37.791743
          ],
          [
            128.909219,
            37.791775
          ],
          [
            128.909185,
            37.791875
          ],
          [
            128.909127,
            37.79198
          ],
          [
            128.90897,
            37.792387
          ],
          [
            128.908758,
            37.792658
          ],
          [
            128.908557,
            37.792888
          ],
          [
            128.908236,
            37.793034
          ],
          [
            128.908067,
            37.793187
          ],
          [
            128.907846,
            37.793301
          ],
          [
            128.907901,
            37.793059
          ],
          [
            128.909259,
            37.789565
          ],
          [
            128.909317,
            37.789496
          ],
          [
            128.909197,
            37.789197
          ],
          [
            128.908789,
            37.788488
          ],
          [
            128.908744,
            37.788417
          ],
          [
            128.908284,
            37.787924
          ],
          [
            128.907968,
            37.787577
          ]
        ]
      }
    }
  ]
}
