{
  "type": "Feature",
  "properties": {
    "id": "gangneung-market-exterior-2026-10-07",
    "name": "강릉 시장 외곽 보행 코스",
    "source": "OpenStreetMap/Valhalla 공개 보행 라우팅, 2026-10-07 조회",
    "sourceUrl": "https://valhalla1.openstreetmap.de/route?json=%7B%22locations%22%3A%5B%7B%22lat%22%3A37.7525948%2C%22lon%22%3A128.8919443%7D%2C%7B%22lat%22%3A37.7546925%2C%22lon%22%3A128.8949965%7D%2C%7B%22lat%22%3A37.7542002%2C%22lon%22%3A128.8979872%7D%2C%7B%22lat%22%3A37.753816%2C%22lon%22%3A128.898818%7D%2C%7B%22lat%22%3A37.7522636%2C%22lon%22%3A128.901498%7D%5D%2C%22costing%22%3A%22pedestrian%22%2C%22units%22%3A%22kilometers%22%2C%22shape_format%22%3A%22polyline6%22%7D",
    "status": "시장 외곽 보행망 확인 · 실내 통로와 실제 건물 문 미확인",
    "meters": 1377,
    "stopIds": [
      "g27",
      "g8",
      "g26",
      "g1",
      "g7"
    ],
    "stopPointIndices": [
      0,
      9,
      13,
      17,
      37
    ],
    "limitations": [
      "중앙시장 정차점은 건물 밖 도로의 접근점이며 실제 출입구가 아니다.",
      "시장 내부 이동은 경로선에 포함하지 않았다.",
      "다른 장소의 건물 출입문과 도로 연결은 현장 확인 전이다."
    ]
  },
  "geometry": {
    "type": "LineString",
    "coordinates": [
      [
        128.891846,
        37.752761
      ],
      [
        128.892632,
        37.753052
      ],
      [
        128.893007,
        37.752682
      ],
      [
        128.893538,
        37.753037
      ],
      [
        128.893853,
        37.753248
      ],
      [
        128.893922,
        37.753293
      ],
      [
        128.89427,
        37.753498
      ],
      [
        128.895324,
        37.754154
      ],
      [
        128.895683,
        37.754374
      ],
      [
        128.895075,
        37.754768
      ],
      [
        128.895683,
        37.754374
      ],
      [
        128.896506,
        37.753851
      ],
      [
        128.897555,
        37.754535
      ],
      [
        128.897902,
        37.754152
      ],
      [
        128.898028,
        37.754012
      ],
      [
        128.89843,
        37.753582
      ],
      [
        128.898736,
        37.753768
      ],
      [
        128.898818,
        37.753816
      ],
      [
        128.898974,
        37.753906
      ],
      [
        128.899219,
        37.754057
      ],
      [
        128.899593,
        37.753713
      ],
      [
        128.899939,
        37.753395
      ],
      [
        128.900018,
        37.753427
      ],
      [
        128.900097,
        37.75346
      ],
      [
        128.900207,
        37.753363
      ],
      [
        128.900308,
        37.753398
      ],
      [
        128.900252,
        37.753342
      ],
      [
        128.900369,
        37.75338
      ],
      [
        128.900301,
        37.7533
      ],
      [
        128.900423,
        37.753336
      ],
      [
        128.900362,
        37.753238
      ],
      [
        128.900492,
        37.753272
      ],
      [
        128.900426,
        37.753172
      ],
      [
        128.900554,
        37.75321
      ],
      [
        128.900489,
        37.753107
      ],
      [
        128.900602,
        37.753137
      ],
      [
        128.900604,
        37.753077
      ],
      [
        128.901477,
        37.75225
      ]
    ]
  }
}
