<?xml version="1.0" encoding="UTF-8"?>
<gpx version="1.1" creator="한걸음 · 경주 6개 테마 루트" xmlns="http://www.topografix.com/1/1"><metadata><name>경주 6개 후보 테마 보행 루트</name><desc>실제 보행망 구간만 저장. 불국사 왕복 버스는 GPX 선에서 제외. 확인 2026-10-07.</desc></metadata><trk><name>황리단길·대릉원 골목</name><type>walking</type><desc>9곳 · 5707m 보행 · 약 76분 · 카페 1곳</desc><trkseg><trkpt lat="35.837412" lon="129.21"></trkpt><trkpt lat="35.837311" lon="129.210013"></trkpt><trkpt lat="35.837433" lon="129.209701"></trkpt><trkpt lat="35.837349" lon="129.209694"></trkpt><trkpt lat="35.836671" lon="129.209641"></trkpt><trkpt lat="35.836422" lon="129.209622"></trkpt><trkpt lat="35.835515" lon="129.209519"></trkpt><trkpt lat="35.835276" lon="129.209502"></trkpt><trkpt lat="35.834711" lon="129.209462"></trkpt><trkpt lat="35.834362" lon="129.209466"></trkpt><trkpt lat="35.834285" lon="129.209467"></trkpt></trkseg><trkseg><trkpt lat="35.834285" lon="129.209467"></trkpt><trkpt lat="35.834362" lon="129.209466"></trkpt><trkpt lat="35.834711" lon="129.209462"></trkpt><trkpt lat="35.835276" lon="129.209502"></trkpt><trkpt lat="35.835515" lon="129.209519"></trkpt><trkpt lat="35.836422" lon="129.209622"></trkpt><trkpt lat="35.836671" lon="129.209641"></trkpt><trkpt lat="35.837349" lon="129.209694"></trkpt><trkpt lat="35.837433" lon="129.209701"></trkpt><trkpt lat="35.837311" lon="129.210013"></trkpt><trkpt lat="35.837502" lon="129.209989"></trkpt><trkpt lat="35.83751" lon="129.210188"></trkpt></trkseg><trkseg><trkpt lat="35.83751" lon="129.210188"></trkpt><trkpt lat="35.837502" lon="129.209989"></trkpt><trkpt lat="35.837311" lon="129.210013"></trkpt><trkpt lat="35.837433" lon="129.209701"></trkpt><trkpt lat="35.837349" lon="129.209694"></trkpt><trkpt lat="35.836671" lon="129.209641"></trkpt><trkpt lat="35.836422" lon="129.209622"></trkpt><trkpt lat="35.835515" lon="129.209519"></trkpt><trkpt lat="35.835462" lon="129.210015"></trkpt></trkseg><trkseg><trkpt lat="35.835462" lon="129.210015"></trkpt><trkpt lat="35.835515" lon="129.209519"></trkpt><trkpt lat="35.836422" lon="129.209622"></trkpt><trkpt lat="35.836473" lon="129.209336"></trkpt><trkpt lat="35.836912" lon="129.209332"></trkpt><trkpt lat="35.837205" lon="129.20933"></trkpt><trkpt lat="35.837471" lon="129.209313"></trkpt><trkpt lat="35.837588" lon="129.209312"></trkpt><trkpt lat="35.837848" lon="129.209309"></trkpt></trkseg><trkseg><trkpt lat="35.837848" lon="129.209309"></trkpt><trkpt lat="35.837922" lon="129.209308"></trkpt><trkpt lat="35.838129" lon="129.209305"></trkpt><trkpt lat="35.838241" lon="129.209304"></trkpt><trkpt lat="35.838366" lon="129.209243"></trkpt><trkpt lat="35.83865" lon="129.209105"></trkpt><trkpt lat="35.838724" lon="129.209282"></trkpt><trkpt lat="35.838763" lon="129.209373"></trkpt><trkpt lat="35.83897" lon="129.209866"></trkpt><trkpt lat="35.839525" lon="129.209918"></trkpt><trkpt lat="35.83975" lon="129.2108"></trkpt><trkpt lat="35.839573" lon="129.210867"></trkpt><trkpt lat="35.839117" lon="129.211031"></trkpt><trkpt lat="35.839272" lon="129.211374"></trkpt><trkpt lat="35.839418" lon="129.211599"></trkpt><trkpt lat="35.83949" lon="129.211805"></trkpt><trkpt lat="35.839486" lon="129.212016"></trkpt><trkpt lat="35.839408" lon="129.212245"></trkpt><trkpt lat="35.839276" lon="129.212566"></trkpt><trkpt lat="35.839201" lon="129.212707"></trkpt><trkpt lat="35.839073" lon="129.212672"></trkpt><trkpt lat="35.838961" lon="129.212715"></trkpt><trkpt lat="35.838913" lon="129.212733"></trkpt><trkpt lat="35.838861" lon="129.212727"></trkpt><trkpt lat="35.838814" lon="129.212693"></trkpt><trkpt lat="35.838755" lon="129.212625"></trkpt><trkpt lat="35.838691" lon="129.212602"></trkpt><trkpt lat="35.838638" lon="129.212575"></trkpt><trkpt lat="35.83861" lon="129.212529"></trkpt><trkpt lat="35.838566" lon="129.212447"></trkpt><trkpt lat="35.838526" lon="129.212396"></trkpt><trkpt lat="35.83848" lon="129.212374"></trkpt><trkpt lat="35.83843" lon="129.212376"></trkpt><trkpt lat="35.838385" lon="129.212402"></trkpt><trkpt lat="35.838353" lon="129.212449"></trkpt><trkpt lat="35.838337" lon="129.212507"></trkpt><trkpt lat="35.838342" lon="129.212568"></trkpt><trkpt lat="35.838366" lon="129.212622"></trkpt><trkpt lat="35.838382" lon="129.21269"></trkpt><trkpt lat="35.838381" lon="129.212769"></trkpt><trkpt lat="35.838374" lon="129.212835"></trkpt><trkpt lat="35.838352" lon="129.212896"></trkpt><trkpt lat="35.838315" lon="129.212946"></trkpt><trkpt lat="35.838268" lon="129.21298"></trkpt><trkpt lat="35.838296" lon="129.213224"></trkpt><trkpt lat="35.838307" lon="129.213311"></trkpt></trkseg><trkseg><trkpt lat="35.838307" lon="129.213311"></trkpt><trkpt lat="35.838329" lon="129.213474"></trkpt><trkpt lat="35.838294" lon="129.213465"></trkpt><trkpt lat="35.838167" lon="129.213502"></trkpt><trkpt lat="35.837918" lon="129.213628"></trkpt><trkpt lat="35.837835" lon="129.213628"></trkpt><trkpt lat="35.837658" lon="129.2137"></trkpt><trkpt lat="35.837566" lon="129.213722"></trkpt><trkpt lat="35.837414" lon="129.213872"></trkpt><trkpt lat="35.837147" lon="129.213969"></trkpt><trkpt lat="35.836791" lon="129.213921"></trkpt><trkpt lat="35.836669" lon="129.214004"></trkpt><trkpt lat="35.836565" lon="129.214194"></trkpt><trkpt lat="35.835947" lon="129.214721"></trkpt><trkpt lat="35.83576" lon="129.214783"></trkpt><trkpt lat="35.835673" lon="129.214828"></trkpt><trkpt lat="35.835684" lon="129.214936"></trkpt><trkpt lat="35.835552" lon="129.215167"></trkpt><trkpt lat="35.835467" lon="129.215243"></trkpt><trkpt lat="35.835665" lon="129.215578"></trkpt><trkpt lat="35.835763" lon="129.215646"></trkpt><trkpt lat="35.835741" lon="129.215696"></trkpt><trkpt lat="35.835708" lon="129.215768"></trkpt><trkpt lat="35.835561" lon="129.21591"></trkpt><trkpt lat="35.835475" lon="129.216007"></trkpt><trkpt lat="35.835125" lon="129.216318"></trkpt><trkpt lat="35.834873" lon="129.216592"></trkpt><trkpt lat="35.834778" lon="129.216692"></trkpt><trkpt lat="35.83467" lon="129.216801"></trkpt><trkpt lat="35.83454" lon="129.216925"></trkpt><trkpt lat="35.83444" lon="129.217034"></trkpt><trkpt lat="35.834355" lon="129.217152"></trkpt><trkpt lat="35.834297" lon="129.217302"></trkpt><trkpt lat="35.834265" lon="129.217467"></trkpt><trkpt lat="35.834248" lon="129.217691"></trkpt><trkpt lat="35.834244" lon="129.217957"></trkpt><trkpt lat="35.834273" lon="129.218362"></trkpt><trkpt lat="35.834291" lon="129.218538"></trkpt><trkpt lat="35.834305" lon="129.218589"></trkpt><trkpt lat="35.834397" lon="129.218637"></trkpt><trkpt lat="35.834474" lon="129.218749"></trkpt><trkpt lat="35.834564" lon="129.218744"></trkpt><trkpt lat="35.83464" lon="129.218708"></trkpt><trkpt lat="35.834743" lon="129.218734"></trkpt><trkpt lat="35.834842" lon="129.218783"></trkpt><trkpt lat="35.834896" lon="129.21891"></trkpt><trkpt lat="35.834897" lon="129.218995"></trkpt></trkseg><trkseg><trkpt lat="35.834897" lon="129.218995"></trkpt><trkpt lat="35.834896" lon="129.21891"></trkpt><trkpt lat="35.834842" lon="129.218783"></trkpt><trkpt lat="35.834743" lon="129.218734"></trkpt><trkpt lat="35.83464" lon="129.218708"></trkpt><trkpt lat="35.834564" lon="129.218744"></trkpt><trkpt lat="35.834474" lon="129.218749"></trkpt><trkpt lat="35.834397" lon="129.218637"></trkpt><trkpt lat="35.834305" lon="129.218589"></trkpt><trkpt lat="35.834336" lon="129.218889"></trkpt><trkpt lat="35.834383" lon="129.219551"></trkpt><trkpt lat="35.834421" lon="129.219921"></trkpt><trkpt lat="35.834015" lon="129.220342"></trkpt><trkpt lat="35.833914" lon="129.220569"></trkpt><trkpt lat="35.833853" lon="129.220772"></trkpt><trkpt lat="35.833788" lon="129.22082"></trkpt><trkpt lat="35.833595" lon="129.220955"></trkpt><trkpt lat="35.833369" lon="129.221072"></trkpt><trkpt lat="35.833208" lon="129.221164"></trkpt><trkpt lat="35.833334" lon="129.221546"></trkpt><trkpt lat="35.833374" lon="129.221706"></trkpt><trkpt lat="35.833417" lon="129.221899"></trkpt><trkpt lat="35.833427" lon="129.221977"></trkpt><trkpt lat="35.833426" lon="129.222043"></trkpt><trkpt lat="35.83341" lon="129.222082"></trkpt><trkpt lat="35.833357" lon="129.222094"></trkpt><trkpt lat="35.833431" lon="129.222385"></trkpt><trkpt lat="35.833497" lon="129.222675"></trkpt><trkpt lat="35.833537" lon="129.222791"></trkpt><trkpt lat="35.833652" lon="129.223081"></trkpt><trkpt lat="35.833675" lon="129.22323"></trkpt><trkpt lat="35.833706" lon="129.223459"></trkpt><trkpt lat="35.83377" lon="129.223677"></trkpt><trkpt lat="35.833779" lon="129.22377"></trkpt><trkpt lat="35.833768" lon="129.223982"></trkpt><trkpt lat="35.833809" lon="129.224136"></trkpt><trkpt lat="35.833849" lon="129.224205"></trkpt><trkpt lat="35.83391" lon="129.224263"></trkpt><trkpt lat="35.833874" lon="129.224746"></trkpt><trkpt lat="35.833864" lon="129.224936"></trkpt><trkpt lat="35.833926" lon="129.225047"></trkpt><trkpt lat="35.833804" lon="129.225248"></trkpt><trkpt lat="35.83374" lon="129.225359"></trkpt><trkpt lat="35.83376" lon="129.225377"></trkpt><trkpt lat="35.833795" lon="129.225406"></trkpt><trkpt lat="35.833857" lon="129.225458"></trkpt><trkpt lat="35.833702" lon="129.225735"></trkpt><trkpt lat="35.833328" lon="129.226397"></trkpt><trkpt lat="35.833273" lon="129.226501"></trkpt><trkpt lat="35.833295" lon="129.226651"></trkpt><trkpt lat="35.833305" lon="129.226761"></trkpt><trkpt lat="35.833382" lon="129.226765"></trkpt><trkpt lat="35.833478" lon="129.226753"></trkpt><trkpt lat="35.833515" lon="129.226718"></trkpt><trkpt lat="35.833742" lon="129.226696"></trkpt><trkpt lat="35.833842" lon="129.226668"></trkpt><trkpt lat="35.834039" lon="129.226589"></trkpt><trkpt lat="35.83443" lon="129.22653"></trkpt><trkpt lat="35.834431" lon="129.226494"></trkpt><trkpt lat="35.834696" lon="129.226467"></trkpt></trkseg><trkseg><trkpt lat="35.834696" lon="129.226467"></trkpt><trkpt lat="35.834431" lon="129.226494"></trkpt><trkpt lat="35.83443" lon="129.22653"></trkpt><trkpt lat="35.834039" lon="129.226589"></trkpt><trkpt lat="35.833842" lon="129.226668"></trkpt><trkpt lat="35.833742" lon="129.226696"></trkpt><trkpt lat="35.833515" lon="129.226718"></trkpt><trkpt lat="35.833478" lon="129.226753"></trkpt><trkpt lat="35.833382" lon="129.226765"></trkpt><trkpt lat="35.833305" lon="129.226761"></trkpt><trkpt lat="35.833295" lon="129.226651"></trkpt><trkpt lat="35.833273" lon="129.226501"></trkpt><trkpt lat="35.833328" lon="129.226397"></trkpt><trkpt lat="35.833702" lon="129.225735"></trkpt><trkpt lat="35.833857" lon="129.225458"></trkpt><trkpt lat="35.833795" lon="129.225406"></trkpt><trkpt lat="35.83376" lon="129.225377"></trkpt><trkpt lat="35.83374" lon="129.225359"></trkpt><trkpt lat="35.833804" lon="129.225248"></trkpt><trkpt lat="35.833926" lon="129.225047"></trkpt><trkpt lat="35.834204" lon="129.224562"></trkpt><trkpt lat="35.834804" lon="129.223436"></trkpt><trkpt lat="35.835478" lon="129.222296"></trkpt><trkpt lat="35.835654" lon="129.22196"></trkpt><trkpt lat="35.835663" lon="129.22192"></trkpt><trkpt lat="35.835734" lon="129.221619"></trkpt><trkpt lat="35.835775" lon="129.221397"></trkpt><trkpt lat="35.835665" lon="129.21846"></trkpt><trkpt lat="35.835724" lon="129.218465"></trkpt><trkpt lat="35.835675" lon="129.217837"></trkpt><trkpt lat="35.835582" lon="129.217392"></trkpt><trkpt lat="35.835522" lon="129.217175"></trkpt><trkpt lat="35.835368" lon="129.216761"></trkpt><trkpt lat="35.835125" lon="129.216318"></trkpt><trkpt lat="35.834931" lon="129.216029"></trkpt><trkpt lat="35.834831" lon="129.215903"></trkpt><trkpt lat="35.834794" lon="129.215856"></trkpt><trkpt lat="35.834687" lon="129.215747"></trkpt><trkpt lat="35.834669" lon="129.215738"></trkpt><trkpt lat="35.834171" lon="129.215482"></trkpt><trkpt lat="35.834186" lon="129.215177"></trkpt><trkpt lat="35.834197" lon="129.214985"></trkpt><trkpt lat="35.834205" lon="129.214834"></trkpt><trkpt lat="35.833814" lon="129.21473"></trkpt><trkpt lat="35.833633" lon="129.214683"></trkpt><trkpt lat="35.833479" lon="129.214626"></trkpt></trkseg></trk><trk><name>첨성대·교촌·월정교</name><type>walking</type><desc>7곳 · 4284m 보행 · 약 57분 · 카페 1곳</desc><trkseg><trkpt lat="35.834696" lon="129.226467"></trkpt><trkpt lat="35.834431" lon="129.226494"></trkpt><trkpt lat="35.83443" lon="129.22653"></trkpt><trkpt lat="35.834039" lon="129.226589"></trkpt><trkpt lat="35.833842" lon="129.226668"></trkpt><trkpt lat="35.833742" lon="129.226696"></trkpt><trkpt lat="35.833515" lon="129.226718"></trkpt><trkpt lat="35.833478" lon="129.226753"></trkpt><trkpt lat="35.833382" lon="129.226765"></trkpt><trkpt lat="35.833305" lon="129.226761"></trkpt><trkpt lat="35.833295" lon="129.226651"></trkpt><trkpt lat="35.833273" lon="129.226501"></trkpt><trkpt lat="35.833328" lon="129.226397"></trkpt><trkpt lat="35.833702" lon="129.225735"></trkpt><trkpt lat="35.833857" lon="129.225458"></trkpt><trkpt lat="35.834745" lon="129.223868"></trkpt><trkpt lat="35.834858" lon="129.223666"></trkpt><trkpt lat="35.835196" lon="129.223062"></trkpt><trkpt lat="35.835493" lon="129.22253"></trkpt><trkpt lat="35.835547" lon="129.222434"></trkpt><trkpt lat="35.835784" lon="129.222017"></trkpt><trkpt lat="35.835869" lon="129.221878"></trkpt><trkpt lat="35.836004" lon="129.221644"></trkpt><trkpt lat="35.836095" lon="129.221487"></trkpt><trkpt lat="35.836208" lon="129.221279"></trkpt><trkpt lat="35.836851" lon="129.220151"></trkpt><trkpt lat="35.836878" lon="129.220113"></trkpt></trkseg><trkseg><trkpt lat="35.836878" lon="129.220113"></trkpt><trkpt lat="35.837278" lon="129.219535"></trkpt><trkpt lat="35.83723" lon="129.219441"></trkpt><trkpt lat="35.837187" lon="129.21935"></trkpt><trkpt lat="35.837002" lon="129.219581"></trkpt><trkpt lat="35.836414" lon="129.219398"></trkpt><trkpt lat="35.836394" lon="129.219241"></trkpt><trkpt lat="35.836371" lon="129.218953"></trkpt><trkpt lat="35.835755" lon="129.218997"></trkpt><trkpt lat="35.835724" lon="129.218465"></trkpt><trkpt lat="35.835665" lon="129.21846"></trkpt><trkpt lat="35.835341" lon="129.218436"></trkpt><trkpt lat="35.834933" lon="129.218332"></trkpt><trkpt lat="35.834273" lon="129.218362"></trkpt><trkpt lat="35.834291" lon="129.218538"></trkpt><trkpt lat="35.834305" lon="129.218589"></trkpt><trkpt lat="35.834397" lon="129.218637"></trkpt><trkpt lat="35.834474" lon="129.218749"></trkpt><trkpt lat="35.834564" lon="129.218744"></trkpt><trkpt lat="35.83464" lon="129.218708"></trkpt><trkpt lat="35.834743" lon="129.218734"></trkpt><trkpt lat="35.834842" lon="129.218783"></trkpt><trkpt lat="35.834896" lon="129.21891"></trkpt><trkpt lat="35.834897" lon="129.218995"></trkpt></trkseg><trkseg><trkpt lat="35.834897" lon="129.218995"></trkpt><trkpt lat="35.834896" lon="129.21891"></trkpt><trkpt lat="35.834842" lon="129.218783"></trkpt><trkpt lat="35.834743" lon="129.218734"></trkpt><trkpt lat="35.83464" lon="129.218708"></trkpt><trkpt lat="35.834564" lon="129.218744"></trkpt><trkpt lat="35.834474" lon="129.218749"></trkpt><trkpt lat="35.834397" lon="129.218637"></trkpt><trkpt lat="35.834305" lon="129.218589"></trkpt><trkpt lat="35.834291" lon="129.218538"></trkpt><trkpt lat="35.834273" lon="129.218362"></trkpt><trkpt lat="35.834244" lon="129.217957"></trkpt><trkpt lat="35.834248" lon="129.217691"></trkpt><trkpt lat="35.834265" lon="129.217467"></trkpt><trkpt lat="35.834297" lon="129.217302"></trkpt><trkpt lat="35.834355" lon="129.217152"></trkpt><trkpt lat="35.83444" lon="129.217034"></trkpt><trkpt lat="35.83454" lon="129.216925"></trkpt><trkpt lat="35.83467" lon="129.216801"></trkpt><trkpt lat="35.834778" lon="129.216692"></trkpt><trkpt lat="35.834873" lon="129.216592"></trkpt><trkpt lat="35.835125" lon="129.216318"></trkpt><trkpt lat="35.834931" lon="129.216029"></trkpt><trkpt lat="35.834831" lon="129.215903"></trkpt><trkpt lat="35.834794" lon="129.215856"></trkpt><trkpt lat="35.834687" lon="129.215747"></trkpt><trkpt lat="35.834669" lon="129.215738"></trkpt><trkpt lat="35.834171" lon="129.215482"></trkpt><trkpt lat="35.834186" lon="129.215177"></trkpt><trkpt lat="35.834197" lon="129.214985"></trkpt><trkpt lat="35.834205" lon="129.214834"></trkpt><trkpt lat="35.833814" lon="129.21473"></trkpt><trkpt lat="35.833633" lon="129.214683"></trkpt><trkpt lat="35.833479" lon="129.214626"></trkpt></trkseg><trkseg><trkpt lat="35.833479" lon="129.214626"></trkpt><trkpt lat="35.833437" lon="129.21461"></trkpt><trkpt lat="35.833205" lon="129.214525"></trkpt><trkpt lat="35.833199" lon="129.214415"></trkpt><trkpt lat="35.832989" lon="129.214183"></trkpt><trkpt lat="35.832852" lon="129.214166"></trkpt><trkpt lat="35.832815" lon="129.214161"></trkpt><trkpt lat="35.832336" lon="129.214097"></trkpt><trkpt lat="35.832256" lon="129.214086"></trkpt><trkpt lat="35.832222" lon="129.214082"></trkpt><trkpt lat="35.831837" lon="129.21406"></trkpt><trkpt lat="35.831626" lon="129.214072"></trkpt><trkpt lat="35.831256" lon="129.214148"></trkpt><trkpt lat="35.831047" lon="129.214197"></trkpt><trkpt lat="35.830408" lon="129.214346"></trkpt><trkpt lat="35.830482" lon="129.214743"></trkpt><trkpt lat="35.830172" lon="129.214834"></trkpt><trkpt lat="35.830184" lon="129.214918"></trkpt><trkpt lat="35.830265" lon="129.215412"></trkpt><trkpt lat="35.830261" lon="129.21548"></trkpt><trkpt lat="35.830221" lon="129.215515"></trkpt><trkpt lat="35.830048" lon="129.215552"></trkpt><trkpt lat="35.830158" lon="129.215871"></trkpt><trkpt lat="35.830208" lon="129.216023"></trkpt><trkpt lat="35.830103" lon="129.216088"></trkpt><trkpt lat="35.829754" lon="129.216248"></trkpt><trkpt lat="35.829785" lon="129.216401"></trkpt><trkpt lat="35.829586" lon="129.216394"></trkpt><trkpt lat="35.829091" lon="129.216386"></trkpt><trkpt lat="35.829041" lon="129.216386"></trkpt><trkpt lat="35.828961" lon="129.21639"></trkpt><trkpt lat="35.828973" lon="129.216778"></trkpt><trkpt lat="35.828956" lon="129.217038"></trkpt><trkpt lat="35.82894" lon="129.217204"></trkpt><trkpt lat="35.82891" lon="129.217395"></trkpt><trkpt lat="35.828884" lon="129.217561"></trkpt><trkpt lat="35.828856" lon="129.217698"></trkpt><trkpt lat="35.828821" lon="129.217792"></trkpt><trkpt lat="35.82878" lon="129.217859"></trkpt><trkpt lat="35.828758" lon="129.217891"></trkpt><trkpt lat="35.828738" lon="129.21792"></trkpt><trkpt lat="35.828714" lon="129.217985"></trkpt><trkpt lat="35.828708" lon="129.218068"></trkpt><trkpt lat="35.82871" lon="129.21813"></trkpt><trkpt lat="35.828789" lon="129.218131"></trkpt><trkpt lat="35.82893" lon="129.218132"></trkpt><trkpt lat="35.828944" lon="129.218132"></trkpt><trkpt lat="35.82895" lon="129.218132"></trkpt><trkpt lat="35.8293" lon="129.218138"></trkpt></trkseg><trkseg><trkpt lat="35.8293" lon="129.218138"></trkpt><trkpt lat="35.82895" lon="129.218132"></trkpt><trkpt lat="35.828944" lon="129.218132"></trkpt><trkpt lat="35.82893" lon="129.218132"></trkpt><trkpt lat="35.828789" lon="129.218131"></trkpt><trkpt lat="35.82871" lon="129.21813"></trkpt><trkpt lat="35.828708" lon="129.218068"></trkpt><trkpt lat="35.828714" lon="129.217985"></trkpt><trkpt lat="35.828738" lon="129.21792"></trkpt><trkpt lat="35.828758" lon="129.217891"></trkpt><trkpt lat="35.82878" lon="129.217859"></trkpt><trkpt lat="35.828821" lon="129.217792"></trkpt><trkpt lat="35.828856" lon="129.217698"></trkpt><trkpt lat="35.828884" lon="129.217561"></trkpt><trkpt lat="35.82891" lon="129.217395"></trkpt><trkpt lat="35.82894" lon="129.217204"></trkpt><trkpt lat="35.828956" lon="129.217038"></trkpt><trkpt lat="35.828973" lon="129.216778"></trkpt><trkpt lat="35.828961" lon="129.21639"></trkpt><trkpt lat="35.829041" lon="129.216386"></trkpt><trkpt lat="35.829091" lon="129.216386"></trkpt><trkpt lat="35.829586" lon="129.216394"></trkpt><trkpt lat="35.829785" lon="129.216401"></trkpt><trkpt lat="35.829754" lon="129.216248"></trkpt><trkpt lat="35.830103" lon="129.216088"></trkpt><trkpt lat="35.830208" lon="129.216023"></trkpt><trkpt lat="35.830158" lon="129.215871"></trkpt><trkpt lat="35.830048" lon="129.215552"></trkpt><trkpt lat="35.82989" lon="129.215072"></trkpt><trkpt lat="35.829839" lon="129.215019"></trkpt><trkpt lat="35.829808" lon="129.214933"></trkpt><trkpt lat="35.82976" lon="129.214661"></trkpt></trkseg><trkseg><trkpt lat="35.82976" lon="129.214661"></trkpt><trkpt lat="35.829732" lon="129.214503"></trkpt><trkpt lat="35.829946" lon="129.214453"></trkpt><trkpt lat="35.830408" lon="129.214346"></trkpt><trkpt lat="35.831047" lon="129.214197"></trkpt><trkpt lat="35.831062" lon="129.214073"></trkpt><trkpt lat="35.831126" lon="129.213894"></trkpt><trkpt lat="35.831207" lon="129.213735"></trkpt><trkpt lat="35.831283" lon="129.213759"></trkpt><trkpt lat="35.831381" lon="129.213748"></trkpt><trkpt lat="35.831472" lon="129.213708"></trkpt><trkpt lat="35.831589" lon="129.213633"></trkpt><trkpt lat="35.831759" lon="129.213587"></trkpt><trkpt lat="35.832072" lon="129.21351"></trkpt><trkpt lat="35.832277" lon="129.213454"></trkpt><trkpt lat="35.832209" lon="129.213185"></trkpt><trkpt lat="35.83222" lon="129.213008"></trkpt><trkpt lat="35.832237" lon="129.21285"></trkpt><trkpt lat="35.832268" lon="129.212662"></trkpt><trkpt lat="35.832329" lon="129.212426"></trkpt><trkpt lat="35.832398" lon="129.212211"></trkpt><trkpt lat="35.832481" lon="129.211959"></trkpt><trkpt lat="35.83257" lon="129.211782"></trkpt><trkpt lat="35.832613" lon="129.21164"></trkpt><trkpt lat="35.832679" lon="129.211281"></trkpt><trkpt lat="35.832709" lon="129.21116"></trkpt><trkpt lat="35.832764" lon="129.211122"></trkpt><trkpt lat="35.832864" lon="129.211144"></trkpt><trkpt lat="35.833077" lon="129.211187"></trkpt><trkpt lat="35.833049" lon="129.210411"></trkpt><trkpt lat="35.833033" lon="129.209996"></trkpt></trkseg></trk><trk><name>동궁과 월지·동쪽 유적</name><type>walking</type><desc>7곳 · 6478m 보행 · 약 86분 · 카페 1곳</desc><trkseg><trkpt lat="35.833479" lon="129.214626"></trkpt><trkpt lat="35.833633" lon="129.214683"></trkpt><trkpt lat="35.833814" lon="129.21473"></trkpt><trkpt lat="35.834205" lon="129.214834"></trkpt><trkpt lat="35.834197" lon="129.214985"></trkpt><trkpt lat="35.834186" lon="129.215177"></trkpt><trkpt lat="35.834171" lon="129.215482"></trkpt><trkpt lat="35.834669" lon="129.215738"></trkpt><trkpt lat="35.834687" lon="129.215747"></trkpt><trkpt lat="35.834794" lon="129.215856"></trkpt><trkpt lat="35.834831" lon="129.215903"></trkpt><trkpt lat="35.834931" lon="129.216029"></trkpt><trkpt lat="35.835125" lon="129.216318"></trkpt><trkpt lat="35.834873" lon="129.216592"></trkpt><trkpt lat="35.834778" lon="129.216692"></trkpt><trkpt lat="35.83467" lon="129.216801"></trkpt><trkpt lat="35.83454" lon="129.216925"></trkpt><trkpt lat="35.83444" lon="129.217034"></trkpt><trkpt lat="35.834355" lon="129.217152"></trkpt><trkpt lat="35.834297" lon="129.217302"></trkpt><trkpt lat="35.834265" lon="129.217467"></trkpt><trkpt lat="35.834248" lon="129.217691"></trkpt><trkpt lat="35.834244" lon="129.217957"></trkpt><trkpt lat="35.834273" lon="129.218362"></trkpt><trkpt lat="35.834291" lon="129.218538"></trkpt><trkpt lat="35.834305" lon="129.218589"></trkpt><trkpt lat="35.834336" lon="129.218889"></trkpt><trkpt lat="35.833689" lon="129.219049"></trkpt><trkpt lat="35.833419" lon="129.219117"></trkpt><trkpt lat="35.833194" lon="129.219278"></trkpt><trkpt lat="35.832647" lon="129.219636"></trkpt><trkpt lat="35.832564" lon="129.21965"></trkpt><trkpt lat="35.832442" lon="129.219757"></trkpt><trkpt lat="35.832048" lon="129.2201"></trkpt><trkpt lat="35.831779" lon="129.220373"></trkpt><trkpt lat="35.831672" lon="129.220478"></trkpt><trkpt lat="35.831599" lon="129.220572"></trkpt><trkpt lat="35.831426" lon="129.220863"></trkpt><trkpt lat="35.831334" lon="129.221098"></trkpt><trkpt lat="35.831296" lon="129.221378"></trkpt><trkpt lat="35.831304" lon="129.221697"></trkpt><trkpt lat="35.831374" lon="129.22222"></trkpt><trkpt lat="35.831568" lon="129.223372"></trkpt><trkpt lat="35.831637" lon="129.224225"></trkpt><trkpt lat="35.83175" lon="129.224855"></trkpt><trkpt lat="35.831907" lon="129.225152"></trkpt><trkpt lat="35.831632" lon="129.225703"></trkpt><trkpt lat="35.831485" lon="129.225794"></trkpt><trkpt lat="35.831293" lon="129.226109"></trkpt><trkpt lat="35.830945" lon="129.226224"></trkpt><trkpt lat="35.830763" lon="129.226169"></trkpt><trkpt lat="35.830503" lon="129.226424"></trkpt><trkpt lat="35.83022" lon="129.22644"></trkpt><trkpt lat="35.830179" lon="129.226442"></trkpt><trkpt lat="35.830263" lon="129.227034"></trkpt><trkpt lat="35.830327" lon="129.227452"></trkpt><trkpt lat="35.830438" lon="129.227844"></trkpt><trkpt lat="35.830659" lon="129.228361"></trkpt><trkpt lat="35.830634" lon="129.228388"></trkpt><trkpt lat="35.830543" lon="129.228417"></trkpt><trkpt lat="35.830444" lon="129.228372"></trkpt><trkpt lat="35.830379" lon="129.228376"></trkpt><trkpt lat="35.830272" lon="129.228173"></trkpt><trkpt lat="35.830115" lon="129.227877"></trkpt><trkpt lat="35.829782" lon="129.22789"></trkpt><trkpt lat="35.829795" lon="129.228283"></trkpt><trkpt lat="35.82907" lon="129.228329"></trkpt><trkpt lat="35.829052" lon="129.227964"></trkpt></trkseg><trkseg><trkpt lat="35.829052" lon="129.227964"></trkpt><trkpt lat="35.82907" lon="129.228329"></trkpt><trkpt lat="35.829795" lon="129.228283"></trkpt><trkpt lat="35.829782" lon="129.22789"></trkpt><trkpt lat="35.830115" lon="129.227877"></trkpt><trkpt lat="35.830272" lon="129.228173"></trkpt><trkpt lat="35.830379" lon="129.228376"></trkpt><trkpt lat="35.830444" lon="129.228372"></trkpt><trkpt lat="35.830543" lon="129.228417"></trkpt><trkpt lat="35.830634" lon="129.228388"></trkpt><trkpt lat="35.830706" lon="129.228469"></trkpt><trkpt lat="35.830969" lon="129.228689"></trkpt><trkpt lat="35.83131" lon="129.228946"></trkpt><trkpt lat="35.831332" lon="129.228906"></trkpt><trkpt lat="35.831357" lon="129.228869"></trkpt><trkpt lat="35.831441" lon="129.228936"></trkpt><trkpt lat="35.831491" lon="129.228943"></trkpt><trkpt lat="35.831542" lon="129.228924"></trkpt><trkpt lat="35.831683" lon="129.228712"></trkpt><trkpt lat="35.831744" lon="129.228758"></trkpt><trkpt lat="35.831782" lon="129.228788"></trkpt><trkpt lat="35.831818" lon="129.228815"></trkpt><trkpt lat="35.832962" lon="129.227002"></trkpt><trkpt lat="35.833062" lon="129.22684"></trkpt><trkpt lat="35.833236" lon="129.226571"></trkpt><trkpt lat="35.833273" lon="129.226501"></trkpt><trkpt lat="35.833295" lon="129.226651"></trkpt><trkpt lat="35.833305" lon="129.226761"></trkpt><trkpt lat="35.833382" lon="129.226765"></trkpt><trkpt lat="35.833478" lon="129.226753"></trkpt><trkpt lat="35.833515" lon="129.226718"></trkpt><trkpt lat="35.833742" lon="129.226696"></trkpt><trkpt lat="35.833842" lon="129.226668"></trkpt><trkpt lat="35.834039" lon="129.226589"></trkpt><trkpt lat="35.83443" lon="129.22653"></trkpt><trkpt lat="35.834431" lon="129.226494"></trkpt><trkpt lat="35.834696" lon="129.226467"></trkpt></trkseg><trkseg><trkpt lat="35.834696" lon="129.226467"></trkpt><trkpt lat="35.834431" lon="129.226494"></trkpt><trkpt lat="35.83443" lon="129.22653"></trkpt><trkpt lat="35.834039" lon="129.226589"></trkpt><trkpt lat="35.833842" lon="129.226668"></trkpt><trkpt lat="35.833742" lon="129.226696"></trkpt><trkpt lat="35.833515" lon="129.226718"></trkpt><trkpt lat="35.833478" lon="129.226753"></trkpt><trkpt lat="35.833382" lon="129.226765"></trkpt><trkpt lat="35.833305" lon="129.226761"></trkpt><trkpt lat="35.833336" lon="129.227268"></trkpt><trkpt lat="35.833339" lon="129.227493"></trkpt><trkpt lat="35.833343" lon="129.227877"></trkpt><trkpt lat="35.833325" lon="129.229009"></trkpt><trkpt lat="35.833321" lon="129.229239"></trkpt><trkpt lat="35.834312" lon="129.229224"></trkpt><trkpt lat="35.835139" lon="129.229211"></trkpt><trkpt lat="35.836082" lon="129.229196"></trkpt><trkpt lat="35.837204" lon="129.229179"></trkpt><trkpt lat="35.838861" lon="129.229155"></trkpt><trkpt lat="35.838914" lon="129.229154"></trkpt><trkpt lat="35.840113" lon="129.22913"></trkpt><trkpt lat="35.840231" lon="129.22913"></trkpt><trkpt lat="35.840616" lon="129.229131"></trkpt><trkpt lat="35.840585" lon="129.229513"></trkpt><trkpt lat="35.840691" lon="129.229659"></trkpt><trkpt lat="35.840693" lon="129.229852"></trkpt><trkpt lat="35.840675" lon="129.230468"></trkpt><trkpt lat="35.840669" lon="129.23068"></trkpt><trkpt lat="35.841192" lon="129.230698"></trkpt><trkpt lat="35.841241" lon="129.230545"></trkpt><trkpt lat="35.841251" lon="129.230515"></trkpt></trkseg><trkseg><trkpt lat="35.841251" lon="129.230515"></trkpt><trkpt lat="35.841241" lon="129.230545"></trkpt><trkpt lat="35.841192" lon="129.230698"></trkpt><trkpt lat="35.840864" lon="129.231706"></trkpt><trkpt lat="35.840657" lon="129.23244"></trkpt><trkpt lat="35.840394" lon="129.232944"></trkpt><trkpt lat="35.84029" lon="129.233291"></trkpt><trkpt lat="35.840267" lon="129.233609"></trkpt><trkpt lat="35.840313" lon="129.233609"></trkpt><trkpt lat="35.840399" lon="129.233609"></trkpt><trkpt lat="35.840478" lon="129.233608"></trkpt><trkpt lat="35.840477" lon="129.233545"></trkpt><trkpt lat="35.840567" lon="129.233545"></trkpt></trkseg><trkseg><trkpt lat="35.840567" lon="129.233545"></trkpt><trkpt lat="35.840477" lon="129.233545"></trkpt><trkpt lat="35.840478" lon="129.233608"></trkpt><trkpt lat="35.840399" lon="129.233609"></trkpt><trkpt lat="35.840313" lon="129.233609"></trkpt><trkpt lat="35.840267" lon="129.233609"></trkpt><trkpt lat="35.840099" lon="129.234875"></trkpt><trkpt lat="35.839931" lon="129.235763"></trkpt><trkpt lat="35.839787" lon="129.236472"></trkpt><trkpt lat="35.839768" lon="129.236569"></trkpt><trkpt lat="35.839519" lon="129.237875"></trkpt><trkpt lat="35.839485" lon="129.238088"></trkpt><trkpt lat="35.839638" lon="129.238193"></trkpt><trkpt lat="35.83977" lon="129.2384"></trkpt><trkpt lat="35.839818" lon="129.238622"></trkpt><trkpt lat="35.839774" lon="129.238749"></trkpt></trkseg><trkseg><trkpt lat="35.839774" lon="129.238749"></trkpt><trkpt lat="35.839707" lon="129.238942"></trkpt><trkpt lat="35.839732" lon="129.239361"></trkpt><trkpt lat="35.839698" lon="129.23953"></trkpt><trkpt lat="35.83967" lon="129.239593"></trkpt><trkpt lat="35.839561" lon="129.239741"></trkpt><trkpt lat="35.839404" lon="129.239882"></trkpt><trkpt lat="35.8394" lon="129.240146"></trkpt><trkpt lat="35.839388" lon="129.240924"></trkpt><trkpt lat="35.839375" lon="129.241632"></trkpt><trkpt lat="35.839388" lon="129.24237"></trkpt><trkpt lat="35.839425" lon="129.24289"></trkpt><trkpt lat="35.839437" lon="129.243043"></trkpt><trkpt lat="35.839477" lon="129.243548"></trkpt><trkpt lat="35.83955" lon="129.244092"></trkpt><trkpt lat="35.839612" lon="129.2445"></trkpt><trkpt lat="35.839747" lon="129.245406"></trkpt><trkpt lat="35.83986" lon="129.246066"></trkpt><trkpt lat="35.839982" lon="129.246565"></trkpt><trkpt lat="35.840042" lon="129.246778"></trkpt><trkpt lat="35.840195" lon="129.247321"></trkpt><trkpt lat="35.840257" lon="129.247496"></trkpt><trkpt lat="35.84033" lon="129.247675"></trkpt><trkpt lat="35.840834" lon="129.248748"></trkpt><trkpt lat="35.841034" lon="129.249186"></trkpt><trkpt lat="35.841086" lon="129.249301"></trkpt><trkpt lat="35.841232" lon="129.249631"></trkpt><trkpt lat="35.841364" lon="129.249932"></trkpt><trkpt lat="35.841516" lon="129.250275"></trkpt><trkpt lat="35.841614" lon="129.250498"></trkpt><trkpt lat="35.841939" lon="129.251274"></trkpt><trkpt lat="35.842242" lon="129.25199"></trkpt></trkseg></trk><trk><name>분황사·황룡사·왕경숲</name><type>walking</type><desc>5곳 · 6052m 보행 · 약 81분 · 카페 1곳</desc><trkseg><trkpt lat="35.833479" lon="129.214626"></trkpt><trkpt lat="35.833633" lon="129.214683"></trkpt><trkpt lat="35.833814" lon="129.21473"></trkpt><trkpt lat="35.834205" lon="129.214834"></trkpt><trkpt lat="35.834197" lon="129.214985"></trkpt><trkpt lat="35.834186" lon="129.215177"></trkpt><trkpt lat="35.834171" lon="129.215482"></trkpt><trkpt lat="35.834669" lon="129.215738"></trkpt><trkpt lat="35.834687" lon="129.215747"></trkpt><trkpt lat="35.834794" lon="129.215856"></trkpt><trkpt lat="35.834831" lon="129.215903"></trkpt><trkpt lat="35.834931" lon="129.216029"></trkpt><trkpt lat="35.835125" lon="129.216318"></trkpt><trkpt lat="35.835368" lon="129.216761"></trkpt><trkpt lat="35.835522" lon="129.217175"></trkpt><trkpt lat="35.835582" lon="129.217392"></trkpt><trkpt lat="35.835675" lon="129.217837"></trkpt><trkpt lat="35.835724" lon="129.218465"></trkpt><trkpt lat="35.835665" lon="129.21846"></trkpt><trkpt lat="35.835775" lon="129.221397"></trkpt><trkpt lat="35.835734" lon="129.221619"></trkpt><trkpt lat="35.835663" lon="129.22192"></trkpt><trkpt lat="35.835654" lon="129.22196"></trkpt><trkpt lat="35.835478" lon="129.222296"></trkpt><trkpt lat="35.834804" lon="129.223436"></trkpt><trkpt lat="35.834204" lon="129.224562"></trkpt><trkpt lat="35.833926" lon="129.225047"></trkpt><trkpt lat="35.833804" lon="129.225248"></trkpt><trkpt lat="35.83374" lon="129.225359"></trkpt><trkpt lat="35.83376" lon="129.225377"></trkpt><trkpt lat="35.833795" lon="129.225406"></trkpt><trkpt lat="35.833857" lon="129.225458"></trkpt><trkpt lat="35.833702" lon="129.225735"></trkpt><trkpt lat="35.833328" lon="129.226397"></trkpt><trkpt lat="35.833273" lon="129.226501"></trkpt><trkpt lat="35.833295" lon="129.226651"></trkpt><trkpt lat="35.833305" lon="129.226761"></trkpt><trkpt lat="35.833336" lon="129.227268"></trkpt><trkpt lat="35.833339" lon="129.227493"></trkpt><trkpt lat="35.833343" lon="129.227877"></trkpt><trkpt lat="35.833325" lon="129.229009"></trkpt><trkpt lat="35.833321" lon="129.229239"></trkpt><trkpt lat="35.834312" lon="129.229224"></trkpt><trkpt lat="35.835139" lon="129.229211"></trkpt><trkpt lat="35.836082" lon="129.229196"></trkpt><trkpt lat="35.836034" lon="129.23044"></trkpt><trkpt lat="35.836026" lon="129.230649"></trkpt><trkpt lat="35.836018" lon="129.230854"></trkpt><trkpt lat="35.836013" lon="129.23099"></trkpt><trkpt lat="35.836013" lon="129.231038"></trkpt><trkpt lat="35.836013" lon="129.231119"></trkpt><trkpt lat="35.836022" lon="129.231183"></trkpt><trkpt lat="35.836052" lon="129.231221"></trkpt><trkpt lat="35.836126" lon="129.231291"></trkpt><trkpt lat="35.836204" lon="129.231291"></trkpt><trkpt lat="35.837252" lon="129.231282"></trkpt><trkpt lat="35.837287" lon="129.233351"></trkpt><trkpt lat="35.837317" lon="129.233404"></trkpt><trkpt lat="35.837383" lon="129.233431"></trkpt><trkpt lat="35.837615" lon="129.233436"></trkpt><trkpt lat="35.83783" lon="129.233436"></trkpt><trkpt lat="35.838926" lon="129.233546"></trkpt><trkpt lat="35.840125" lon="129.233592"></trkpt><trkpt lat="35.840267" lon="129.233609"></trkpt><trkpt lat="35.840313" lon="129.233609"></trkpt><trkpt lat="35.840399" lon="129.233609"></trkpt><trkpt lat="35.840478" lon="129.233608"></trkpt><trkpt lat="35.840477" lon="129.233545"></trkpt><trkpt lat="35.840567" lon="129.233545"></trkpt></trkseg><trkseg><trkpt lat="35.840567" lon="129.233545"></trkpt><trkpt lat="35.840477" lon="129.233545"></trkpt><trkpt lat="35.840478" lon="129.233608"></trkpt><trkpt lat="35.840399" lon="129.233609"></trkpt><trkpt lat="35.840313" lon="129.233609"></trkpt><trkpt lat="35.840267" lon="129.233609"></trkpt><trkpt lat="35.840099" lon="129.234875"></trkpt><trkpt lat="35.839931" lon="129.235763"></trkpt><trkpt lat="35.839787" lon="129.236472"></trkpt><trkpt lat="35.839768" lon="129.236569"></trkpt><trkpt lat="35.839519" lon="129.237875"></trkpt><trkpt lat="35.839485" lon="129.238088"></trkpt><trkpt lat="35.839638" lon="129.238193"></trkpt><trkpt lat="35.83977" lon="129.2384"></trkpt><trkpt lat="35.839818" lon="129.238622"></trkpt><trkpt lat="35.839774" lon="129.238749"></trkpt></trkseg><trkseg><trkpt lat="35.839774" lon="129.238749"></trkpt><trkpt lat="35.839818" lon="129.238622"></trkpt><trkpt lat="35.83977" lon="129.2384"></trkpt><trkpt lat="35.839638" lon="129.238193"></trkpt><trkpt lat="35.839485" lon="129.238088"></trkpt><trkpt lat="35.839519" lon="129.237875"></trkpt><trkpt lat="35.839768" lon="129.236569"></trkpt><trkpt lat="35.840658" lon="129.236548"></trkpt><trkpt lat="35.841377" lon="129.236532"></trkpt><trkpt lat="35.841542" lon="129.236529"></trkpt><trkpt lat="35.84168" lon="129.236527"></trkpt><trkpt lat="35.841764" lon="129.236526"></trkpt><trkpt lat="35.842347" lon="129.236518"></trkpt><trkpt lat="35.843359" lon="129.236504"></trkpt><trkpt lat="35.84339" lon="129.236504"></trkpt><trkpt lat="35.843426" lon="129.236558"></trkpt><trkpt lat="35.843442" lon="129.236602"></trkpt><trkpt lat="35.843441" lon="129.236649"></trkpt><trkpt lat="35.843429" lon="129.236845"></trkpt><trkpt lat="35.84337" lon="129.236957"></trkpt><trkpt lat="35.843336" lon="129.237053"></trkpt><trkpt lat="35.843254" lon="129.237313"></trkpt><trkpt lat="35.843221" lon="129.237414"></trkpt><trkpt lat="35.843176" lon="129.237536"></trkpt><trkpt lat="35.843083" lon="129.237789"></trkpt><trkpt lat="35.843201" lon="129.237869"></trkpt><trkpt lat="35.843507" lon="129.238079"></trkpt></trkseg><trkseg><trkpt lat="35.843507" lon="129.238079"></trkpt><trkpt lat="35.843201" lon="129.237869"></trkpt><trkpt lat="35.843083" lon="129.237789"></trkpt><trkpt lat="35.843176" lon="129.237536"></trkpt><trkpt lat="35.843221" lon="129.237414"></trkpt><trkpt lat="35.843254" lon="129.237313"></trkpt><trkpt lat="35.843336" lon="129.237053"></trkpt><trkpt lat="35.84337" lon="129.236957"></trkpt><trkpt lat="35.843429" lon="129.236845"></trkpt><trkpt lat="35.843441" lon="129.236649"></trkpt><trkpt lat="35.843442" lon="129.236602"></trkpt><trkpt lat="35.843426" lon="129.236558"></trkpt><trkpt lat="35.84339" lon="129.236504"></trkpt><trkpt lat="35.843359" lon="129.236504"></trkpt><trkpt lat="35.842347" lon="129.236518"></trkpt><trkpt lat="35.841764" lon="129.236526"></trkpt><trkpt lat="35.84168" lon="129.236527"></trkpt><trkpt lat="35.841542" lon="129.236529"></trkpt><trkpt lat="35.841377" lon="129.236532"></trkpt><trkpt lat="35.841115" lon="129.237256"></trkpt><trkpt lat="35.840982" lon="129.237622"></trkpt><trkpt lat="35.840743" lon="129.238262"></trkpt><trkpt lat="35.840783" lon="129.238271"></trkpt><trkpt lat="35.840376" lon="129.239463"></trkpt><trkpt lat="35.839975" lon="129.240525"></trkpt><trkpt lat="35.839872" lon="129.240892"></trkpt><trkpt lat="35.839698" lon="129.241634"></trkpt><trkpt lat="35.839639" lon="129.242167"></trkpt><trkpt lat="35.83963" lon="129.242807"></trkpt><trkpt lat="35.839662" lon="129.243251"></trkpt><trkpt lat="35.839721" lon="129.243771"></trkpt><trkpt lat="35.839761" lon="129.24399"></trkpt><trkpt lat="35.839759" lon="129.244074"></trkpt><trkpt lat="35.839751" lon="129.244414"></trkpt><trkpt lat="35.839921" lon="129.244913"></trkpt><trkpt lat="35.840121" lon="129.245406"></trkpt><trkpt lat="35.840596" lon="129.246374"></trkpt><trkpt lat="35.840571" lon="129.246573"></trkpt><trkpt lat="35.840489" lon="129.246712"></trkpt><trkpt lat="35.840042" lon="129.246778"></trkpt><trkpt lat="35.840195" lon="129.247321"></trkpt><trkpt lat="35.840257" lon="129.247496"></trkpt><trkpt lat="35.84033" lon="129.247675"></trkpt><trkpt lat="35.840834" lon="129.248748"></trkpt><trkpt lat="35.841034" lon="129.249186"></trkpt><trkpt lat="35.841086" lon="129.249301"></trkpt><trkpt lat="35.841232" lon="129.249631"></trkpt><trkpt lat="35.841364" lon="129.249932"></trkpt><trkpt lat="35.841516" lon="129.250275"></trkpt><trkpt lat="35.841614" lon="129.250498"></trkpt><trkpt lat="35.841939" lon="129.251274"></trkpt><trkpt lat="35.842242" lon="129.25199"></trkpt></trkseg></trk><trk><name>읍성·성동시장·중앙시장</name><type>walking</type><desc>8곳 · 3446m 보행 · 약 46분 · 카페 1곳</desc><trkseg><trkpt lat="35.843962" lon="129.206785"></trkpt><trkpt lat="35.844025" lon="129.206785"></trkpt><trkpt lat="35.844019" lon="129.206973"></trkpt><trkpt lat="35.843498" lon="129.206957"></trkpt><trkpt lat="35.842273" lon="129.207004"></trkpt><trkpt lat="35.842207" lon="129.207006"></trkpt><trkpt lat="35.842206" lon="129.207064"></trkpt><trkpt lat="35.842182" lon="129.207778"></trkpt><trkpt lat="35.842147" lon="129.208654"></trkpt><trkpt lat="35.842139" lon="129.208875"></trkpt><trkpt lat="35.842129" lon="129.209117"></trkpt><trkpt lat="35.842092" lon="129.210056"></trkpt><trkpt lat="35.841738" lon="129.210054"></trkpt><trkpt lat="35.841725" lon="129.210475"></trkpt><trkpt lat="35.841718" lon="129.210746"></trkpt><trkpt lat="35.841685" lon="129.210916"></trkpt><trkpt lat="35.841678" lon="129.210953"></trkpt><trkpt lat="35.841664" lon="129.211678"></trkpt><trkpt lat="35.841435" lon="129.21168"></trkpt></trkseg><trkseg><trkpt lat="35.841435" lon="129.21168"></trkpt><trkpt lat="35.841664" lon="129.211678"></trkpt><trkpt lat="35.842037" lon="129.21168"></trkpt><trkpt lat="35.842585" lon="129.211668"></trkpt><trkpt lat="35.842848" lon="129.211662"></trkpt><trkpt lat="35.842827" lon="129.212564"></trkpt><trkpt lat="35.843262" lon="129.212592"></trkpt><trkpt lat="35.843644" lon="129.212599"></trkpt><trkpt lat="35.843809" lon="129.212604"></trkpt><trkpt lat="35.844211" lon="129.212615"></trkpt><trkpt lat="35.844191" lon="129.213547"></trkpt><trkpt lat="35.844481" lon="129.213548"></trkpt><trkpt lat="35.844477" lon="129.213878"></trkpt><trkpt lat="35.844532" lon="129.21388"></trkpt><trkpt lat="35.844531" lon="129.213914"></trkpt><trkpt lat="35.844529" lon="129.214003"></trkpt><trkpt lat="35.844507" lon="129.214774"></trkpt><trkpt lat="35.844491" lon="129.215349"></trkpt><trkpt lat="35.845157" lon="129.215366"></trkpt><trkpt lat="35.845142" lon="129.215868"></trkpt></trkseg><trkseg><trkpt lat="35.845142" lon="129.215868"></trkpt><trkpt lat="35.845157" lon="129.215366"></trkpt><trkpt lat="35.845809" lon="129.215396"></trkpt><trkpt lat="35.84587" lon="129.21539"></trkpt><trkpt lat="35.845888" lon="129.214475"></trkpt><trkpt lat="35.845877" lon="129.213935"></trkpt><trkpt lat="35.84581" lon="129.213842"></trkpt><trkpt lat="35.845806" lon="129.213738"></trkpt><trkpt lat="35.845831" lon="129.213625"></trkpt><trkpt lat="35.845865" lon="129.213503"></trkpt><trkpt lat="35.845888" lon="129.213333"></trkpt><trkpt lat="35.845899" lon="129.212739"></trkpt><trkpt lat="35.845922" lon="129.211648"></trkpt><trkpt lat="35.847085" lon="129.21166"></trkpt></trkseg><trkseg><trkpt lat="35.847085" lon="129.21166"></trkpt><trkpt lat="35.847276" lon="129.211662"></trkpt><trkpt lat="35.847267" lon="129.212015"></trkpt><trkpt lat="35.84726" lon="129.212304"></trkpt><trkpt lat="35.847256" lon="129.21247"></trkpt><trkpt lat="35.847245" lon="129.212913"></trkpt><trkpt lat="35.847265" lon="129.213012"></trkpt><trkpt lat="35.847355" lon="129.213028"></trkpt><trkpt lat="35.847359" lon="129.213221"></trkpt><trkpt lat="35.847433" lon="129.213234"></trkpt></trkseg><trkseg><trkpt lat="35.847433" lon="129.213234"></trkpt><trkpt lat="35.847359" lon="129.213221"></trkpt><trkpt lat="35.847355" lon="129.213028"></trkpt><trkpt lat="35.847265" lon="129.213012"></trkpt><trkpt lat="35.847245" lon="129.212913"></trkpt><trkpt lat="35.84724" lon="129.213095"></trkpt><trkpt lat="35.84723" lon="129.213172"></trkpt><trkpt lat="35.847201" lon="129.213229"></trkpt><trkpt lat="35.84716" lon="129.213268"></trkpt><trkpt lat="35.846962" lon="129.213385"></trkpt><trkpt lat="35.846907" lon="129.213472"></trkpt><trkpt lat="35.846887" lon="129.213578"></trkpt><trkpt lat="35.846879" lon="129.213915"></trkpt><trkpt lat="35.846877" lon="129.213972"></trkpt><trkpt lat="35.846621" lon="129.213963"></trkpt></trkseg><trkseg><trkpt lat="35.846621" lon="129.213963"></trkpt><trkpt lat="35.846572" lon="129.213961"></trkpt><trkpt lat="35.845877" lon="129.213935"></trkpt><trkpt lat="35.845888" lon="129.214475"></trkpt><trkpt lat="35.84587" lon="129.21539"></trkpt><trkpt lat="35.845809" lon="129.215396"></trkpt><trkpt lat="35.845793" lon="129.215928"></trkpt><trkpt lat="35.845358" lon="129.215908"></trkpt></trkseg><trkseg><trkpt lat="35.845358" lon="129.215908"></trkpt><trkpt lat="35.845793" lon="129.215928"></trkpt><trkpt lat="35.845809" lon="129.215396"></trkpt><trkpt lat="35.84587" lon="129.21539"></trkpt><trkpt lat="35.845888" lon="129.214475"></trkpt><trkpt lat="35.845877" lon="129.213935"></trkpt><trkpt lat="35.84581" lon="129.213842"></trkpt><trkpt lat="35.845806" lon="129.213738"></trkpt><trkpt lat="35.845831" lon="129.213625"></trkpt><trkpt lat="35.845865" lon="129.213503"></trkpt><trkpt lat="35.845888" lon="129.213333"></trkpt><trkpt lat="35.845899" lon="129.212739"></trkpt><trkpt lat="35.845922" lon="129.211648"></trkpt><trkpt lat="35.845937" lon="129.210944"></trkpt><trkpt lat="35.845944" lon="129.210143"></trkpt><trkpt lat="35.846559" lon="129.210127"></trkpt><trkpt lat="35.84661" lon="129.210123"></trkpt></trkseg></trk><trk><name>불국사 마을</name><type>walking</type><desc>3곳 · 909m 보행 · 약 12분 · 카페 0곳</desc><trkseg><trkpt lat="35.789892" lon="129.331942"></trkpt><trkpt lat="35.789915" lon="129.332121"></trkpt><trkpt lat="35.78994" lon="129.3323"></trkpt><trkpt lat="35.789991" lon="129.332289"></trkpt><trkpt lat="35.789994" lon="129.33232"></trkpt><trkpt lat="35.79001" lon="129.332421"></trkpt><trkpt lat="35.789948" lon="129.33257"></trkpt><trkpt lat="35.789844" lon="129.332618"></trkpt><trkpt lat="35.789774" lon="129.332597"></trkpt><trkpt lat="35.789641" lon="129.332176"></trkpt><trkpt lat="35.789077" lon="129.332287"></trkpt><trkpt lat="35.789066" lon="129.332291"></trkpt><trkpt lat="35.789023" lon="129.332301"></trkpt><trkpt lat="35.78857" lon="129.332399"></trkpt><trkpt lat="35.788567" lon="129.332466"></trkpt><trkpt lat="35.788531" lon="129.332582"></trkpt><trkpt lat="35.788452" lon="129.332697"></trkpt><trkpt lat="35.788385" lon="129.332798"></trkpt><trkpt lat="35.788373" lon="129.332874"></trkpt><trkpt lat="35.788392" lon="129.33293"></trkpt></trkseg><trkseg><trkpt lat="35.788392" lon="129.33293"></trkpt><trkpt lat="35.788373" lon="129.332874"></trkpt><trkpt lat="35.788385" lon="129.332798"></trkpt><trkpt lat="35.788452" lon="129.332697"></trkpt><trkpt lat="35.788531" lon="129.332582"></trkpt><trkpt lat="35.788567" lon="129.332466"></trkpt><trkpt lat="35.78857" lon="129.332399"></trkpt><trkpt lat="35.788152" lon="129.332489"></trkpt><trkpt lat="35.788037" lon="129.332504"></trkpt><trkpt lat="35.787848" lon="129.332529"></trkpt><trkpt lat="35.787786" lon="129.332537"></trkpt><trkpt lat="35.787496" lon="129.332374"></trkpt><trkpt lat="35.787316" lon="129.332382"></trkpt><trkpt lat="35.787214" lon="129.332416"></trkpt><trkpt lat="35.787193" lon="129.332423"></trkpt><trkpt lat="35.78717" lon="129.332431"></trkpt><trkpt lat="35.786896" lon="129.332521"></trkpt><trkpt lat="35.786844" lon="129.332438"></trkpt><trkpt lat="35.786352" lon="129.332728"></trkpt><trkpt lat="35.786789" lon="129.333565"></trkpt><trkpt lat="35.78681" lon="129.333699"></trkpt><trkpt lat="35.78681" lon="129.333828"></trkpt><trkpt lat="35.786781" lon="129.333927"></trkpt><trkpt lat="35.786727" lon="129.333997"></trkpt><trkpt lat="35.786648" lon="129.334025"></trkpt><trkpt lat="35.786538" lon="129.333982"></trkpt><trkpt lat="35.786368" lon="129.333843"></trkpt><trkpt lat="35.786194" lon="129.333852"></trkpt><trkpt lat="35.786033" lon="129.333871"></trkpt><trkpt lat="35.785715" lon="129.333715"></trkpt><trkpt lat="35.785634" lon="129.333736"></trkpt><trkpt lat="35.785545" lon="129.333813"></trkpt><trkpt lat="35.785525" lon="129.333889"></trkpt><trkpt lat="35.785529" lon="129.333992"></trkpt></trkseg></trk>
</gpx>
