{
  "type": "Feature",
  "geometry": {
    "type": "LineString",
    "coordinates": [
      [
        128.891846,
        37.752761
      ],
      [
        128.892632,
        37.753052
      ],
      [
        128.893007,
        37.752682
      ],
      [
        128.893538,
        37.753037
      ],
      [
        128.893853,
        37.753248
      ],
      [
        128.893922,
        37.753293
      ],
      [
        128.89427,
        37.753498
      ],
      [
        128.895324,
        37.754154
      ],
      [
        128.895683,
        37.754374
      ],
      [
        128.895075,
        37.754768
      ],
      [
        128.895683,
        37.754374
      ],
      [
        128.896506,
        37.753851
      ],
      [
        128.897555,
        37.754535
      ],
      [
        128.897902,
        37.754152
      ],
      [
        128.898028,
        37.754012
      ],
      [
        128.89843,
        37.753582
      ],
      [
        128.898736,
        37.753768
      ],
      [
        128.898818,
        37.753816
      ],
      [
        128.898974,
        37.753906
      ],
      [
        128.899219,
        37.754057
      ],
      [
        128.898793,
        37.75445
      ],
      [
        128.898907,
        37.754515
      ],
      [
        128.899203,
        37.754252
      ],
      [
        128.900097,
        37.75346
      ],
      [
        128.900207,
        37.753363
      ],
      [
        128.900308,
        37.753398
      ],
      [
        128.900252,
        37.753342
      ],
      [
        128.900369,
        37.75338
      ],
      [
        128.900301,
        37.7533
      ],
      [
        128.900423,
        37.753336
      ],
      [
        128.900362,
        37.753238
      ],
      [
        128.900492,
        37.753272
      ],
      [
        128.900426,
        37.753172
      ],
      [
        128.900554,
        37.75321
      ],
      [
        128.900489,
        37.753107
      ],
      [
        128.900602,
        37.753137
      ],
      [
        128.900604,
        37.753077
      ],
      [
        128.901477,
        37.75225
      ]
    ]
  },
  "properties": {
    "id": "gangneung-market-first-route-2026-10-07",
    "status": "routing-preview; entrance and market-interior access unconfirmed",
    "label": "시장·먹거리 첫 코스",
    "stopIds": [
      "g27",
      "g8",
      "g26",
      "g1",
      "g72",
      "g7"
    ],
    "stopPointIndices": [
      0,
      9,
      13,
      17,
      22,
      37
    ],
    "meters": 1491,
    "seconds": 1053,
    "legs": [
      {
        "from": "g27",
        "to": "g8",
        "meters": 499,
        "seconds": 341
      },
      {
        "from": "g8",
        "to": "g26",
        "meters": 334,
        "seconds": 250
      },
      {
        "from": "g26",
        "to": "g1",
        "meters": 122,
        "seconds": 87
      },
      {
        "from": "g1",
        "to": "g72",
        "meters": 153,
        "seconds": 106
      },
      {
        "from": "g72",
        "to": "g7",
        "meters": 381,
        "seconds": 270
      }
    ],
    "routingProvider": "Valhalla public pedestrian routing using OpenStreetMap",
    "routingSourceUrl": "https://valhalla1.openstreetmap.de/route?json=%7B%22locations%22%3A%5B%7B%22lat%22%3A37.7525948%2C%22lon%22%3A128.8919443%7D%2C%7B%22lat%22%3A37.7546925%2C%22lon%22%3A128.8949965%7D%2C%7B%22lat%22%3A37.7542002%2C%22lon%22%3A128.8979872%7D%2C%7B%22lat%22%3A37.7540251%2C%22lon%22%3A128.8986238%7D%2C%7B%22lat%22%3A37.75421481%2C%22lon%22%3A128.89915055%7D%2C%7B%22lat%22%3A37.7522636%2C%22lon%22%3A128.901498%7D%5D%2C%22costing%22%3A%22pedestrian%22%2C%22units%22%3A%22kilometers%22%2C%22shape_format%22%3A%22polyline6%22%7D",
    "attribution": "© OpenStreetMap contributors",
    "checkedOn": "2026-10-07",
    "note": "대표 좌표까지의 OSM 보행망 검토 경로다. 관아·굿즈임당의 실제 출입문, 시장 내부 통로 및 월화교 진입점은 현장 확인 전이다. 앱 추천 경로에는 등록하지 않았다."
  }
}
