<?xml version="1.0" encoding="UTF-8"?>
<gpx version="1.1" creator="한걸음 · saved pedestrian routes" xmlns="http://www.topografix.com/GPX/1/1">
<metadata><name>경주 테마별 보행 구간</name><desc>걷는 구간만 저장. 대중교통 구간은 선으로 표시하지 않음. 확인 2026-10-07.</desc></metadata>
<trk><name>왕경·황리단길</name><type>walking</type><desc>8곳 · 3675m 보행 · 약 49분 · 버스 계획 0회(보행선 제외)</desc>
<trkseg>
<trkpt lat="35.8374120" lon="129.2100000"/>
<trkpt lat="35.8373110" lon="129.2100130"/>
<trkpt lat="35.8374330" lon="129.2097010"/>
<trkpt lat="35.8373490" lon="129.2096940"/>
<trkpt lat="35.8366710" lon="129.2096410"/>
<trkpt lat="35.8364220" lon="129.2096220"/>
<trkpt lat="35.8355150" lon="129.2095190"/>
<trkpt lat="35.8352760" lon="129.2095020"/>
<trkpt lat="35.8347110" lon="129.2094620"/>
<trkpt lat="35.8343620" lon="129.2094660"/>
<trkpt lat="35.8342850" lon="129.2094670"/>
<trkpt lat="35.8343620" lon="129.2094660"/>
<trkpt lat="35.8347110" lon="129.2094620"/>
<trkpt lat="35.8346680" lon="129.2099620"/>
<trkpt lat="35.8346490" lon="129.2101770"/>
<trkpt lat="35.8354450" lon="129.2101690"/>
<trkpt lat="35.8354620" lon="129.2100150"/>
<trkpt lat="35.8355150" lon="129.2095190"/>
<trkpt lat="35.8364220" lon="129.2096220"/>
<trkpt lat="35.8364730" lon="129.2093360"/>
<trkpt lat="35.8369120" lon="129.2093320"/>
<trkpt lat="35.8372050" lon="129.2093300"/>
<trkpt lat="35.8374710" lon="129.2093130"/>
<trkpt lat="35.8375880" lon="129.2093120"/>
<trkpt lat="35.8378480" lon="129.2093090"/>
<trkpt lat="35.8379220" lon="129.2093080"/>
<trkpt lat="35.8381290" lon="129.2093050"/>
<trkpt lat="35.8382410" lon="129.2093040"/>
<trkpt lat="35.8383660" lon="129.2092430"/>
<trkpt lat="35.8386500" lon="129.2091050"/>
<trkpt lat="35.8387240" lon="129.2092820"/>
<trkpt lat="35.8387630" lon="129.2093730"/>
<trkpt lat="35.8389360" lon="129.2097860"/>
<trkpt lat="35.8389700" lon="129.2098660"/>
<trkpt lat="35.8395250" lon="129.2099180"/>
<trkpt lat="35.8397500" lon="129.2108000"/>
<trkpt lat="35.8395730" lon="129.2108670"/>
<trkpt lat="35.8391170" lon="129.2110310"/>
<trkpt lat="35.8392720" lon="129.2113740"/>
<trkpt lat="35.8394180" lon="129.2115990"/>
<trkpt lat="35.8394900" lon="129.2118050"/>
<trkpt lat="35.8394860" lon="129.2120160"/>
<trkpt lat="35.8394080" lon="129.2122450"/>
<trkpt lat="35.8392760" lon="129.2125660"/>
<trkpt lat="35.8392010" lon="129.2127070"/>
<trkpt lat="35.8390730" lon="129.2126720"/>
<trkpt lat="35.8389610" lon="129.2127150"/>
<trkpt lat="35.8389130" lon="129.2127330"/>
<trkpt lat="35.8388610" lon="129.2127270"/>
<trkpt lat="35.8388140" lon="129.2126930"/>
<trkpt lat="35.8387550" lon="129.2126250"/>
<trkpt lat="35.8386910" lon="129.2126020"/>
<trkpt lat="35.8386380" lon="129.2125750"/>
<trkpt lat="35.8386100" lon="129.2125290"/>
<trkpt lat="35.8385660" lon="129.2124470"/>
<trkpt lat="35.8385260" lon="129.2123960"/>
<trkpt lat="35.8384800" lon="129.2123740"/>
<trkpt lat="35.8384300" lon="129.2123760"/>
<trkpt lat="35.8383850" lon="129.2124020"/>
<trkpt lat="35.8383530" lon="129.2124490"/>
<trkpt lat="35.8383370" lon="129.2125070"/>
<trkpt lat="35.8383420" lon="129.2125680"/>
<trkpt lat="35.8383660" lon="129.2126220"/>
<trkpt lat="35.8383820" lon="129.2126900"/>
<trkpt lat="35.8383810" lon="129.2127690"/>
<trkpt lat="35.8383740" lon="129.2128350"/>
<trkpt lat="35.8383520" lon="129.2128960"/>
<trkpt lat="35.8383150" lon="129.2129460"/>
<trkpt lat="35.8382680" lon="129.2129800"/>
<trkpt lat="35.8382960" lon="129.2132240"/>
<trkpt lat="35.8383070" lon="129.2133110"/>
<trkpt lat="35.8383290" lon="129.2134740"/>
<trkpt lat="35.8382940" lon="129.2134650"/>
<trkpt lat="35.8381670" lon="129.2135020"/>
<trkpt lat="35.8379180" lon="129.2136280"/>
<trkpt lat="35.8378350" lon="129.2136280"/>
<trkpt lat="35.8376580" lon="129.2137000"/>
<trkpt lat="35.8375660" lon="129.2137220"/>
<trkpt lat="35.8374140" lon="129.2138720"/>
<trkpt lat="35.8371470" lon="129.2139690"/>
<trkpt lat="35.8367910" lon="129.2139210"/>
<trkpt lat="35.8366690" lon="129.2140040"/>
<trkpt lat="35.8365650" lon="129.2141940"/>
<trkpt lat="35.8359470" lon="129.2147210"/>
<trkpt lat="35.8357600" lon="129.2147830"/>
<trkpt lat="35.8356730" lon="129.2148280"/>
<trkpt lat="35.8356840" lon="129.2149360"/>
<trkpt lat="35.8355520" lon="129.2151670"/>
<trkpt lat="35.8354670" lon="129.2152430"/>
<trkpt lat="35.8356650" lon="129.2155780"/>
<trkpt lat="35.8357630" lon="129.2156460"/>
<trkpt lat="35.8357410" lon="129.2156960"/>
<trkpt lat="35.8357080" lon="129.2157680"/>
<trkpt lat="35.8355610" lon="129.2159100"/>
<trkpt lat="35.8354750" lon="129.2160070"/>
<trkpt lat="35.8351250" lon="129.2163180"/>
<trkpt lat="35.8348730" lon="129.2165920"/>
<trkpt lat="35.8347780" lon="129.2166920"/>
<trkpt lat="35.8346700" lon="129.2168010"/>
<trkpt lat="35.8345400" lon="129.2169250"/>
<trkpt lat="35.8344400" lon="129.2170340"/>
<trkpt lat="35.8343550" lon="129.2171520"/>
<trkpt lat="35.8342970" lon="129.2173020"/>
<trkpt lat="35.8342650" lon="129.2174670"/>
<trkpt lat="35.8342480" lon="129.2176910"/>
<trkpt lat="35.8342440" lon="129.2179570"/>
<trkpt lat="35.8342730" lon="129.2183620"/>
<trkpt lat="35.8342910" lon="129.2185380"/>
<trkpt lat="35.8343050" lon="129.2185890"/>
<trkpt lat="35.8343970" lon="129.2186370"/>
<trkpt lat="35.8344740" lon="129.2187490"/>
<trkpt lat="35.8345640" lon="129.2187440"/>
<trkpt lat="35.8346400" lon="129.2187080"/>
<trkpt lat="35.8347430" lon="129.2187340"/>
<trkpt lat="35.8348420" lon="129.2187830"/>
<trkpt lat="35.8348960" lon="129.2189100"/>
<trkpt lat="35.8348970" lon="129.2189950"/>
<trkpt lat="35.8348960" lon="129.2189100"/>
<trkpt lat="35.8348420" lon="129.2187830"/>
<trkpt lat="35.8347430" lon="129.2187340"/>
<trkpt lat="35.8346400" lon="129.2187080"/>
<trkpt lat="35.8345640" lon="129.2187440"/>
<trkpt lat="35.8344740" lon="129.2187490"/>
<trkpt lat="35.8343970" lon="129.2186370"/>
<trkpt lat="35.8343050" lon="129.2185890"/>
<trkpt lat="35.8343360" lon="129.2188890"/>
<trkpt lat="35.8343830" lon="129.2195510"/>
<trkpt lat="35.8344210" lon="129.2199210"/>
<trkpt lat="35.8340150" lon="129.2203420"/>
<trkpt lat="35.8339140" lon="129.2205690"/>
<trkpt lat="35.8338530" lon="129.2207720"/>
<trkpt lat="35.8337880" lon="129.2208200"/>
<trkpt lat="35.8335950" lon="129.2209550"/>
<trkpt lat="35.8333690" lon="129.2210720"/>
<trkpt lat="35.8332080" lon="129.2211640"/>
<trkpt lat="35.8333340" lon="129.2215460"/>
<trkpt lat="35.8333740" lon="129.2217060"/>
<trkpt lat="35.8334170" lon="129.2218990"/>
<trkpt lat="35.8334270" lon="129.2219770"/>
<trkpt lat="35.8334260" lon="129.2220430"/>
<trkpt lat="35.8334100" lon="129.2220820"/>
<trkpt lat="35.8333570" lon="129.2220940"/>
<trkpt lat="35.8334310" lon="129.2223850"/>
<trkpt lat="35.8334970" lon="129.2226750"/>
<trkpt lat="35.8335370" lon="129.2227910"/>
<trkpt lat="35.8336520" lon="129.2230810"/>
<trkpt lat="35.8336750" lon="129.2232300"/>
<trkpt lat="35.8337060" lon="129.2234590"/>
<trkpt lat="35.8337700" lon="129.2236770"/>
<trkpt lat="35.8337790" lon="129.2237700"/>
<trkpt lat="35.8337680" lon="129.2239820"/>
<trkpt lat="35.8338090" lon="129.2241360"/>
<trkpt lat="35.8338490" lon="129.2242050"/>
<trkpt lat="35.8339100" lon="129.2242630"/>
<trkpt lat="35.8338740" lon="129.2247460"/>
<trkpt lat="35.8338640" lon="129.2249360"/>
<trkpt lat="35.8339260" lon="129.2250470"/>
<trkpt lat="35.8338040" lon="129.2252480"/>
<trkpt lat="35.8337400" lon="129.2253590"/>
<trkpt lat="35.8337600" lon="129.2253770"/>
<trkpt lat="35.8337950" lon="129.2254060"/>
<trkpt lat="35.8338570" lon="129.2254580"/>
<trkpt lat="35.8337020" lon="129.2257350"/>
<trkpt lat="35.8333280" lon="129.2263970"/>
<trkpt lat="35.8332730" lon="129.2265010"/>
<trkpt lat="35.8332950" lon="129.2266510"/>
<trkpt lat="35.8333050" lon="129.2267610"/>
<trkpt lat="35.8333820" lon="129.2267650"/>
<trkpt lat="35.8334780" lon="129.2267530"/>
<trkpt lat="35.8335150" lon="129.2267180"/>
<trkpt lat="35.8337420" lon="129.2266960"/>
<trkpt lat="35.8338420" lon="129.2266680"/>
<trkpt lat="35.8340390" lon="129.2265890"/>
<trkpt lat="35.8344300" lon="129.2265300"/>
<trkpt lat="35.8344310" lon="129.2264940"/>
<trkpt lat="35.8346960" lon="129.2264670"/>
</trkseg>
</trk>
<trk><name>월성·교촌·동부 유적</name><type>walking</type><desc>8곳 · 5365m 보행 · 약 72분 · 버스 계획 0회(보행선 제외)</desc>
<trkseg>
<trkpt lat="35.8297600" lon="129.2146610"/>
<trkpt lat="35.8298080" lon="129.2149330"/>
<trkpt lat="35.8298390" lon="129.2150190"/>
<trkpt lat="35.8298900" lon="129.2150720"/>
<trkpt lat="35.8300480" lon="129.2155520"/>
<trkpt lat="35.8301580" lon="129.2158710"/>
<trkpt lat="35.8302080" lon="129.2160230"/>
<trkpt lat="35.8301030" lon="129.2160880"/>
<trkpt lat="35.8297540" lon="129.2162480"/>
<trkpt lat="35.8297850" lon="129.2164010"/>
<trkpt lat="35.8295860" lon="129.2163940"/>
<trkpt lat="35.8290910" lon="129.2163860"/>
<trkpt lat="35.8290410" lon="129.2163860"/>
<trkpt lat="35.8289610" lon="129.2163900"/>
<trkpt lat="35.8289730" lon="129.2167780"/>
<trkpt lat="35.8289560" lon="129.2170380"/>
<trkpt lat="35.8289400" lon="129.2172040"/>
<trkpt lat="35.8289100" lon="129.2173950"/>
<trkpt lat="35.8288840" lon="129.2175610"/>
<trkpt lat="35.8288560" lon="129.2176980"/>
<trkpt lat="35.8288210" lon="129.2177920"/>
<trkpt lat="35.8287800" lon="129.2178590"/>
<trkpt lat="35.8287580" lon="129.2178910"/>
<trkpt lat="35.8287380" lon="129.2179200"/>
<trkpt lat="35.8287140" lon="129.2179850"/>
<trkpt lat="35.8287080" lon="129.2180680"/>
<trkpt lat="35.8287100" lon="129.2181300"/>
<trkpt lat="35.8287890" lon="129.2181310"/>
<trkpt lat="35.8289300" lon="129.2181320"/>
<trkpt lat="35.8289440" lon="129.2181320"/>
<trkpt lat="35.8289500" lon="129.2181320"/>
<trkpt lat="35.8293000" lon="129.2181380"/>
<trkpt lat="35.8295630" lon="129.2181420"/>
<trkpt lat="35.8297510" lon="129.2181440"/>
<trkpt lat="35.8298110" lon="129.2181450"/>
<trkpt lat="35.8298130" lon="129.2179640"/>
<trkpt lat="35.8302570" lon="129.2179640"/>
<trkpt lat="35.8302770" lon="129.2178270"/>
<trkpt lat="35.8303860" lon="129.2178410"/>
<trkpt lat="35.8303410" lon="129.2176710"/>
<trkpt lat="35.8303050" lon="129.2174390"/>
<trkpt lat="35.8303600" lon="129.2174260"/>
<trkpt lat="35.8305190" lon="129.2173650"/>
<trkpt lat="35.8307670" lon="129.2172330"/>
<trkpt lat="35.8307420" lon="129.2171840"/>
<trkpt lat="35.8307830" lon="129.2171650"/>
<trkpt lat="35.8308220" lon="129.2171480"/>
<trkpt lat="35.8308300" lon="129.2171450"/>
<trkpt lat="35.8309310" lon="129.2171030"/>
<trkpt lat="35.8309660" lon="129.2170880"/>
<trkpt lat="35.8309940" lon="129.2170770"/>
<trkpt lat="35.8311970" lon="129.2169910"/>
<trkpt lat="35.8309940" lon="129.2170770"/>
<trkpt lat="35.8309660" lon="129.2170880"/>
<trkpt lat="35.8309310" lon="129.2171030"/>
<trkpt lat="35.8308300" lon="129.2171450"/>
<trkpt lat="35.8308220" lon="129.2171480"/>
<trkpt lat="35.8307830" lon="129.2171650"/>
<trkpt lat="35.8307420" lon="129.2171840"/>
<trkpt lat="35.8303540" lon="129.2164250"/>
<trkpt lat="35.8306830" lon="129.2162610"/>
<trkpt lat="35.8305880" lon="129.2158790"/>
<trkpt lat="35.8304570" lon="129.2152250"/>
<trkpt lat="35.8304570" lon="129.2151140"/>
<trkpt lat="35.8304790" lon="129.2150490"/>
<trkpt lat="35.8305310" lon="129.2150370"/>
<trkpt lat="35.8304820" lon="129.2147430"/>
<trkpt lat="35.8304080" lon="129.2143460"/>
<trkpt lat="35.8310470" lon="129.2141970"/>
<trkpt lat="35.8312560" lon="129.2141480"/>
<trkpt lat="35.8316260" lon="129.2140720"/>
<trkpt lat="35.8318370" lon="129.2140600"/>
<trkpt lat="35.8322220" lon="129.2140820"/>
<trkpt lat="35.8322560" lon="129.2140860"/>
<trkpt lat="35.8323360" lon="129.2140970"/>
<trkpt lat="35.8328150" lon="129.2141610"/>
<trkpt lat="35.8328520" lon="129.2141660"/>
<trkpt lat="35.8329890" lon="129.2141830"/>
<trkpt lat="35.8331990" lon="129.2144150"/>
<trkpt lat="35.8332050" lon="129.2145250"/>
<trkpt lat="35.8334370" lon="129.2146100"/>
<trkpt lat="35.8334790" lon="129.2146260"/>
<trkpt lat="35.8336330" lon="129.2146830"/>
<trkpt lat="35.8338140" lon="129.2147300"/>
<trkpt lat="35.8342050" lon="129.2148340"/>
<trkpt lat="35.8341970" lon="129.2149850"/>
<trkpt lat="35.8341860" lon="129.2151770"/>
<trkpt lat="35.8341710" lon="129.2154820"/>
<trkpt lat="35.8346690" lon="129.2157380"/>
<trkpt lat="35.8346870" lon="129.2157470"/>
<trkpt lat="35.8347940" lon="129.2158560"/>
<trkpt lat="35.8348310" lon="129.2159030"/>
<trkpt lat="35.8349310" lon="129.2160290"/>
<trkpt lat="35.8351250" lon="129.2163180"/>
<trkpt lat="35.8348730" lon="129.2165920"/>
<trkpt lat="35.8347780" lon="129.2166920"/>
<trkpt lat="35.8346700" lon="129.2168010"/>
<trkpt lat="35.8345400" lon="129.2169250"/>
<trkpt lat="35.8344400" lon="129.2170340"/>
<trkpt lat="35.8343550" lon="129.2171520"/>
<trkpt lat="35.8342970" lon="129.2173020"/>
<trkpt lat="35.8342650" lon="129.2174670"/>
<trkpt lat="35.8342480" lon="129.2176910"/>
<trkpt lat="35.8342440" lon="129.2179570"/>
<trkpt lat="35.8342730" lon="129.2183620"/>
<trkpt lat="35.8342910" lon="129.2185380"/>
<trkpt lat="35.8343050" lon="129.2185890"/>
<trkpt lat="35.8343970" lon="129.2186370"/>
<trkpt lat="35.8344740" lon="129.2187490"/>
<trkpt lat="35.8345640" lon="129.2187440"/>
<trkpt lat="35.8346400" lon="129.2187080"/>
<trkpt lat="35.8347430" lon="129.2187340"/>
<trkpt lat="35.8348420" lon="129.2187830"/>
<trkpt lat="35.8348960" lon="129.2189100"/>
<trkpt lat="35.8348970" lon="129.2189950"/>
<trkpt lat="35.8348960" lon="129.2189100"/>
<trkpt lat="35.8348420" lon="129.2187830"/>
<trkpt lat="35.8347430" lon="129.2187340"/>
<trkpt lat="35.8346400" lon="129.2187080"/>
<trkpt lat="35.8345640" lon="129.2187440"/>
<trkpt lat="35.8344740" lon="129.2187490"/>
<trkpt lat="35.8343970" lon="129.2186370"/>
<trkpt lat="35.8343050" lon="129.2185890"/>
<trkpt lat="35.8343360" lon="129.2188890"/>
<trkpt lat="35.8343830" lon="129.2195510"/>
<trkpt lat="35.8344210" lon="129.2199210"/>
<trkpt lat="35.8340150" lon="129.2203420"/>
<trkpt lat="35.8339140" lon="129.2205690"/>
<trkpt lat="35.8338530" lon="129.2207720"/>
<trkpt lat="35.8337880" lon="129.2208200"/>
<trkpt lat="35.8335950" lon="129.2209550"/>
<trkpt lat="35.8333690" lon="129.2210720"/>
<trkpt lat="35.8332080" lon="129.2211640"/>
<trkpt lat="35.8333340" lon="129.2215460"/>
<trkpt lat="35.8333740" lon="129.2217060"/>
<trkpt lat="35.8334170" lon="129.2218990"/>
<trkpt lat="35.8334270" lon="129.2219770"/>
<trkpt lat="35.8334260" lon="129.2220430"/>
<trkpt lat="35.8334100" lon="129.2220820"/>
<trkpt lat="35.8333570" lon="129.2220940"/>
<trkpt lat="35.8334310" lon="129.2223850"/>
<trkpt lat="35.8334970" lon="129.2226750"/>
<trkpt lat="35.8335370" lon="129.2227910"/>
<trkpt lat="35.8336520" lon="129.2230810"/>
<trkpt lat="35.8336750" lon="129.2232300"/>
<trkpt lat="35.8337060" lon="129.2234590"/>
<trkpt lat="35.8337700" lon="129.2236770"/>
<trkpt lat="35.8337790" lon="129.2237700"/>
<trkpt lat="35.8337680" lon="129.2239820"/>
<trkpt lat="35.8338090" lon="129.2241360"/>
<trkpt lat="35.8338490" lon="129.2242050"/>
<trkpt lat="35.8339100" lon="129.2242630"/>
<trkpt lat="35.8338740" lon="129.2247460"/>
<trkpt lat="35.8338640" lon="129.2249360"/>
<trkpt lat="35.8339260" lon="129.2250470"/>
<trkpt lat="35.8338040" lon="129.2252480"/>
<trkpt lat="35.8337400" lon="129.2253590"/>
<trkpt lat="35.8337600" lon="129.2253770"/>
<trkpt lat="35.8337950" lon="129.2254060"/>
<trkpt lat="35.8338570" lon="129.2254580"/>
<trkpt lat="35.8337020" lon="129.2257350"/>
<trkpt lat="35.8333280" lon="129.2263970"/>
<trkpt lat="35.8332730" lon="129.2265010"/>
<trkpt lat="35.8332950" lon="129.2266510"/>
<trkpt lat="35.8333050" lon="129.2267610"/>
<trkpt lat="35.8333820" lon="129.2267650"/>
<trkpt lat="35.8334780" lon="129.2267530"/>
<trkpt lat="35.8335150" lon="129.2267180"/>
<trkpt lat="35.8337420" lon="129.2266960"/>
<trkpt lat="35.8338420" lon="129.2266680"/>
<trkpt lat="35.8340390" lon="129.2265890"/>
<trkpt lat="35.8344300" lon="129.2265300"/>
<trkpt lat="35.8344310" lon="129.2264940"/>
<trkpt lat="35.8346960" lon="129.2264670"/>
<trkpt lat="35.8344310" lon="129.2264940"/>
<trkpt lat="35.8344300" lon="129.2265300"/>
<trkpt lat="35.8340390" lon="129.2265890"/>
<trkpt lat="35.8338420" lon="129.2266680"/>
<trkpt lat="35.8337420" lon="129.2266960"/>
<trkpt lat="35.8335150" lon="129.2267180"/>
<trkpt lat="35.8334780" lon="129.2267530"/>
<trkpt lat="35.8333820" lon="129.2267650"/>
<trkpt lat="35.8333050" lon="129.2267610"/>
<trkpt lat="35.8333360" lon="129.2272680"/>
<trkpt lat="35.8333390" lon="129.2274930"/>
<trkpt lat="35.8333430" lon="129.2278770"/>
<trkpt lat="35.8333250" lon="129.2290090"/>
<trkpt lat="35.8333210" lon="129.2292390"/>
<trkpt lat="35.8343120" lon="129.2292240"/>
<trkpt lat="35.8351390" lon="129.2292110"/>
<trkpt lat="35.8360820" lon="129.2291960"/>
<trkpt lat="35.8360340" lon="129.2304400"/>
<trkpt lat="35.8360260" lon="129.2306490"/>
<trkpt lat="35.8360180" lon="129.2308540"/>
<trkpt lat="35.8360130" lon="129.2309900"/>
<trkpt lat="35.8360130" lon="129.2310380"/>
<trkpt lat="35.8360130" lon="129.2311190"/>
<trkpt lat="35.8360220" lon="129.2311830"/>
<trkpt lat="35.8360520" lon="129.2312210"/>
<trkpt lat="35.8361260" lon="129.2312910"/>
<trkpt lat="35.8362040" lon="129.2312910"/>
<trkpt lat="35.8372520" lon="129.2312820"/>
<trkpt lat="35.8372870" lon="129.2333510"/>
<trkpt lat="35.8373170" lon="129.2334040"/>
<trkpt lat="35.8373830" lon="129.2334310"/>
<trkpt lat="35.8376150" lon="129.2334360"/>
<trkpt lat="35.8378300" lon="129.2334360"/>
<trkpt lat="35.8389260" lon="129.2335460"/>
<trkpt lat="35.8401250" lon="129.2335920"/>
<trkpt lat="35.8402670" lon="129.2336090"/>
<trkpt lat="35.8403130" lon="129.2336090"/>
<trkpt lat="35.8403990" lon="129.2336090"/>
<trkpt lat="35.8404780" lon="129.2336080"/>
<trkpt lat="35.8404770" lon="129.2335450"/>
<trkpt lat="35.8405670" lon="129.2335450"/>
<trkpt lat="35.8404770" lon="129.2335450"/>
<trkpt lat="35.8404780" lon="129.2336080"/>
<trkpt lat="35.8403990" lon="129.2336090"/>
<trkpt lat="35.8403130" lon="129.2336090"/>
<trkpt lat="35.8402670" lon="129.2336090"/>
<trkpt lat="35.8400990" lon="129.2348750"/>
<trkpt lat="35.8399310" lon="129.2357630"/>
<trkpt lat="35.8397870" lon="129.2364720"/>
<trkpt lat="35.8397680" lon="129.2365690"/>
<trkpt lat="35.8395190" lon="129.2378750"/>
<trkpt lat="35.8394850" lon="129.2380880"/>
<trkpt lat="35.8396380" lon="129.2381930"/>
<trkpt lat="35.8397700" lon="129.2384000"/>
<trkpt lat="35.8398180" lon="129.2386220"/>
<trkpt lat="35.8397740" lon="129.2387490"/>
</trkseg>
</trk>
<trk><name>성동·중앙시장</name><type>walking</type><desc>11곳 · 2680m 보행 · 약 36분 · 버스 계획 0회(보행선 제외)</desc>
<trkseg>
<trkpt lat="35.8453580" lon="129.2159080"/>
<trkpt lat="35.8451410" lon="129.2158980"/>
<trkpt lat="35.8451420" lon="129.2158630"/>
<trkpt lat="35.8451420" lon="129.2158680"/>
<trkpt lat="35.8451570" lon="129.2153660"/>
<trkpt lat="35.8444910" lon="129.2153490"/>
<trkpt lat="35.8444320" lon="129.2153470"/>
<trkpt lat="35.8431170" lon="129.2152920"/>
<trkpt lat="35.8426430" lon="129.2152740"/>
<trkpt lat="35.8419050" lon="129.2152470"/>
<trkpt lat="35.8415760" lon="129.2152310"/>
<trkpt lat="35.8414280" lon="129.2152240"/>
<trkpt lat="35.8410550" lon="129.2152040"/>
<trkpt lat="35.8410180" lon="129.2150060"/>
<trkpt lat="35.8409600" lon="129.2148240"/>
<trkpt lat="35.8408420" lon="129.2145150"/>
<trkpt lat="35.8404470" lon="129.2135440"/>
<trkpt lat="35.8406940" lon="129.2134810"/>
<trkpt lat="35.8408430" lon="129.2134860"/>
<trkpt lat="35.8419690" lon="129.2135200"/>
<trkpt lat="35.8419890" lon="129.2129660"/>
<trkpt lat="35.8419690" lon="129.2135200"/>
<trkpt lat="35.8426560" lon="129.2135320"/>
<trkpt lat="35.8431790" lon="129.2135410"/>
<trkpt lat="35.8441910" lon="129.2135470"/>
<trkpt lat="35.8444810" lon="129.2135480"/>
<trkpt lat="35.8444770" lon="129.2138780"/>
<trkpt lat="35.8445320" lon="129.2138800"/>
<trkpt lat="35.8450610" lon="129.2139020"/>
<trkpt lat="35.8458770" lon="129.2139350"/>
<trkpt lat="35.8465720" lon="129.2139610"/>
<trkpt lat="35.8466210" lon="129.2139630"/>
<trkpt lat="35.8468770" lon="129.2139720"/>
<trkpt lat="35.8468790" lon="129.2139150"/>
<trkpt lat="35.8468870" lon="129.2135780"/>
<trkpt lat="35.8469070" lon="129.2134720"/>
<trkpt lat="35.8469620" lon="129.2133850"/>
<trkpt lat="35.8471600" lon="129.2132680"/>
<trkpt lat="35.8472010" lon="129.2132290"/>
<trkpt lat="35.8472300" lon="129.2131720"/>
<trkpt lat="35.8472400" lon="129.2130950"/>
<trkpt lat="35.8472450" lon="129.2129130"/>
<trkpt lat="35.8472650" lon="129.2130120"/>
<trkpt lat="35.8473550" lon="129.2130280"/>
<trkpt lat="35.8473590" lon="129.2132210"/>
<trkpt lat="35.8474330" lon="129.2132340"/>
<trkpt lat="35.8473590" lon="129.2132210"/>
<trkpt lat="35.8473550" lon="129.2130280"/>
<trkpt lat="35.8472650" lon="129.2130120"/>
<trkpt lat="35.8472450" lon="129.2129130"/>
<trkpt lat="35.8472560" lon="129.2124700"/>
<trkpt lat="35.8472600" lon="129.2123040"/>
<trkpt lat="35.8472670" lon="129.2120150"/>
<trkpt lat="35.8472760" lon="129.2116620"/>
<trkpt lat="35.8470850" lon="129.2116600"/>
<trkpt lat="35.8459220" lon="129.2116480"/>
<trkpt lat="35.8459370" lon="129.2109440"/>
<trkpt lat="35.8459440" lon="129.2101430"/>
<trkpt lat="35.8459350" lon="129.2101430"/>
<trkpt lat="35.8458340" lon="129.2101440"/>
<trkpt lat="35.8458690" lon="129.2090060"/>
<trkpt lat="35.8458800" lon="129.2087050"/>
<trkpt lat="35.8458970" lon="129.2084080"/>
<trkpt lat="35.8446900" lon="129.2083970"/>
<trkpt lat="35.8447130" lon="129.2075850"/>
<trkpt lat="35.8447160" lon="129.2074940"/>
<trkpt lat="35.8447330" lon="129.2071660"/>
<trkpt lat="35.8446780" lon="129.2071670"/>
<trkpt lat="35.8446820" lon="129.2070300"/>
<trkpt lat="35.8445850" lon="129.2070300"/>
<trkpt lat="35.8445880" lon="129.2069650"/>
<trkpt lat="35.8445200" lon="129.2069680"/>
<trkpt lat="35.8443960" lon="129.2069690"/>
<trkpt lat="35.8440190" lon="129.2069730"/>
<trkpt lat="35.8440250" lon="129.2067850"/>
<trkpt lat="35.8439620" lon="129.2067850"/>
</trkseg>
</trk>
<trk><name>보문</name><type>walking</type><desc>5곳 · 6132m 보행 · 약 82분 · 버스 계획 2회(보행선 제외)</desc>
<trkseg>
<trkpt lat="35.8420570" lon="129.2842510"/>
<trkpt lat="35.8421740" lon="129.2842420"/>
<trkpt lat="35.8423910" lon="129.2841900"/>
<trkpt lat="35.8425320" lon="129.2840850"/>
<trkpt lat="35.8425760" lon="129.2840500"/>
<trkpt lat="35.8426350" lon="129.2840500"/>
<trkpt lat="35.8428340" lon="129.2843030"/>
<trkpt lat="35.8430830" lon="129.2846220"/>
<trkpt lat="35.8430760" lon="129.2846410"/>
<trkpt lat="35.8430750" lon="129.2847040"/>
<trkpt lat="35.8430860" lon="129.2847320"/>
<trkpt lat="35.8432010" lon="129.2850260"/>
<trkpt lat="35.8432080" lon="129.2850420"/>
<trkpt lat="35.8433570" lon="129.2853480"/>
<trkpt lat="35.8434920" lon="129.2855710"/>
<trkpt lat="35.8435070" lon="129.2855950"/>
<trkpt lat="35.8435530" lon="129.2856750"/>
<trkpt lat="35.8437150" lon="129.2858990"/>
<trkpt lat="35.8437310" lon="129.2858870"/>
<trkpt lat="35.8437750" lon="129.2859400"/>
<trkpt lat="35.8438400" lon="129.2859950"/>
<trkpt lat="35.8438820" lon="129.2860190"/>
<trkpt lat="35.8439460" lon="129.2860460"/>
<trkpt lat="35.8441280" lon="129.2860940"/>
<trkpt lat="35.8443090" lon="129.2861280"/>
<trkpt lat="35.8445870" lon="129.2861800"/>
<trkpt lat="35.8447880" lon="129.2862420"/>
<trkpt lat="35.8448630" lon="129.2863540"/>
<trkpt lat="35.8448880" lon="129.2864210"/>
<trkpt lat="35.8448990" lon="129.2865100"/>
<trkpt lat="35.8448890" lon="129.2866180"/>
<trkpt lat="35.8448150" lon="129.2868290"/>
<trkpt lat="35.8446960" lon="129.2869380"/>
<trkpt lat="35.8443630" lon="129.2872510"/>
<trkpt lat="35.8443180" lon="129.2873430"/>
<trkpt lat="35.8444170" lon="129.2875350"/>
<trkpt lat="35.8444670" lon="129.2876320"/>
<trkpt lat="35.8445420" lon="129.2876340"/>
<trkpt lat="35.8447170" lon="129.2879360"/>
<trkpt lat="35.8445420" lon="129.2876340"/>
<trkpt lat="35.8444670" lon="129.2876320"/>
<trkpt lat="35.8444170" lon="129.2875350"/>
<trkpt lat="35.8443180" lon="129.2873430"/>
<trkpt lat="35.8443630" lon="129.2872510"/>
<trkpt lat="35.8446960" lon="129.2869380"/>
<trkpt lat="35.8448150" lon="129.2868290"/>
<trkpt lat="35.8449510" lon="129.2867010"/>
<trkpt lat="35.8451330" lon="129.2864780"/>
<trkpt lat="35.8452160" lon="129.2863730"/>
<trkpt lat="35.8453420" lon="129.2861690"/>
<trkpt lat="35.8454550" lon="129.2859860"/>
<trkpt lat="35.8455970" lon="129.2857250"/>
<trkpt lat="35.8457410" lon="129.2854040"/>
<trkpt lat="35.8458830" lon="129.2850730"/>
<trkpt lat="35.8463220" lon="129.2840010"/>
<trkpt lat="35.8461380" lon="129.2839020"/>
<trkpt lat="35.8459490" lon="129.2837970"/>
<trkpt lat="35.8458860" lon="129.2837470"/>
<trkpt lat="35.8458010" lon="129.2836770"/>
<trkpt lat="35.8457060" lon="129.2835130"/>
<trkpt lat="35.8456880" lon="129.2834820"/>
<trkpt lat="35.8452950" lon="129.2828130"/>
<trkpt lat="35.8452280" lon="129.2827330"/>
<trkpt lat="35.8449870" lon="129.2824060"/>
<trkpt lat="35.8449400" lon="129.2823380"/>
<trkpt lat="35.8450730" lon="129.2821410"/>
<trkpt lat="35.8451410" lon="129.2819880"/>
<trkpt lat="35.8451940" lon="129.2817100"/>
<trkpt lat="35.8452480" lon="129.2814570"/>
<trkpt lat="35.8452600" lon="129.2812900"/>
<trkpt lat="35.8452650" lon="129.2811380"/>
<trkpt lat="35.8453070" lon="129.2811130"/>
<trkpt lat="35.8453620" lon="129.2810810"/>
<trkpt lat="35.8454360" lon="129.2810570"/>
<trkpt lat="35.8455540" lon="129.2811250"/>
<trkpt lat="35.8456970" lon="129.2811820"/>
<trkpt lat="35.8460780" lon="129.2813640"/>
<trkpt lat="35.8461210" lon="129.2813640"/>
<trkpt lat="35.8462180" lon="129.2813500"/>
<trkpt lat="35.8466550" lon="129.2810510"/>
<trkpt lat="35.8466970" lon="129.2809990"/>
<trkpt lat="35.8467430" lon="129.2809360"/>
<trkpt lat="35.8468280" lon="129.2808070"/>
<trkpt lat="35.8470430" lon="129.2803360"/>
<trkpt lat="35.8471190" lon="129.2801880"/>
<trkpt lat="35.8471970" lon="129.2800480"/>
<trkpt lat="35.8472660" lon="129.2799770"/>
<trkpt lat="35.8473330" lon="129.2799410"/>
<trkpt lat="35.8474840" lon="129.2799140"/>
<trkpt lat="35.8476410" lon="129.2798810"/>
<trkpt lat="35.8477740" lon="129.2798300"/>
<trkpt lat="35.8479010" lon="129.2797690"/>
<trkpt lat="35.8480400" lon="129.2795700"/>
<trkpt lat="35.8481260" lon="129.2794620"/>
<trkpt lat="35.8481150" lon="129.2793390"/>
<trkpt lat="35.8480970" lon="129.2792280"/>
<trkpt lat="35.8481350" lon="129.2791470"/>
<trkpt lat="35.8481720" lon="129.2791020"/>
<trkpt lat="35.8482710" lon="129.2789510"/>
<trkpt lat="35.8483180" lon="129.2789160"/>
<trkpt lat="35.8484630" lon="129.2788630"/>
<trkpt lat="35.8485580" lon="129.2788170"/>
<trkpt lat="35.8487230" lon="129.2786220"/>
<trkpt lat="35.8488850" lon="129.2784080"/>
<trkpt lat="35.8493140" lon="129.2778370"/>
<trkpt lat="35.8495450" lon="129.2775510"/>
<trkpt lat="35.8496500" lon="129.2774130"/>
<trkpt lat="35.8497230" lon="129.2772980"/>
<trkpt lat="35.8497790" lon="129.2772040"/>
<trkpt lat="35.8498700" lon="129.2769370"/>
<trkpt lat="35.8498970" lon="129.2768460"/>
<trkpt lat="35.8499180" lon="129.2766920"/>
<trkpt lat="35.8499680" lon="129.2763910"/>
<trkpt lat="35.8500700" lon="129.2757260"/>
<trkpt lat="35.8501290" lon="129.2753990"/>
<trkpt lat="35.8502330" lon="129.2750720"/>
<trkpt lat="35.8502900" lon="129.2749670"/>
<trkpt lat="35.8503820" lon="129.2748260"/>
<trkpt lat="35.8505200" lon="129.2747240"/>
<trkpt lat="35.8505750" lon="129.2746430"/>
<trkpt lat="35.8507490" lon="129.2743930"/>
<trkpt lat="35.8508520" lon="129.2741810"/>
<trkpt lat="35.8509020" lon="129.2740400"/>
<trkpt lat="35.8509400" lon="129.2738910"/>
<trkpt lat="35.8510070" lon="129.2736310"/>
<trkpt lat="35.8510300" lon="129.2734070"/>
<trkpt lat="35.8510150" lon="129.2732000"/>
<trkpt lat="35.8510310" lon="129.2731000"/>
<trkpt lat="35.8510460" lon="129.2729990"/>
<trkpt lat="35.8512230" lon="129.2727310"/>
<trkpt lat="35.8513140" lon="129.2725050"/>
<trkpt lat="35.8513840" lon="129.2723370"/>
<trkpt lat="35.8514610" lon="129.2722540"/>
<trkpt lat="35.8516480" lon="129.2721060"/>
<trkpt lat="35.8517450" lon="129.2720500"/>
<trkpt lat="35.8518990" lon="129.2719390"/>
<trkpt lat="35.8520380" lon="129.2718670"/>
<trkpt lat="35.8522260" lon="129.2717700"/>
<trkpt lat="35.8525270" lon="129.2716630"/>
<trkpt lat="35.8527440" lon="129.2715630"/>
<trkpt lat="35.8528890" lon="129.2714690"/>
<trkpt lat="35.8529960" lon="129.2714170"/>
<trkpt lat="35.8531250" lon="129.2714010"/>
<trkpt lat="35.8535690" lon="129.2712980"/>
<trkpt lat="35.8539110" lon="129.2710200"/>
<trkpt lat="35.8539780" lon="129.2709110"/>
<trkpt lat="35.8540550" lon="129.2705930"/>
<trkpt lat="35.8540830" lon="129.2704450"/>
<trkpt lat="35.8541100" lon="129.2702150"/>
<trkpt lat="35.8540690" lon="129.2700470"/>
<trkpt lat="35.8540270" lon="129.2699260"/>
<trkpt lat="35.8538940" lon="129.2697640"/>
<trkpt lat="35.8537200" lon="129.2696020"/>
<trkpt lat="35.8536020" lon="129.2694980"/>
<trkpt lat="35.8535010" lon="129.2694320"/>
<trkpt lat="35.8532170" lon="129.2692580"/>
<trkpt lat="35.8531590" lon="129.2692770"/>
<trkpt lat="35.8530810" lon="129.2692840"/>
<trkpt lat="35.8529690" lon="129.2692410"/>
<trkpt lat="35.8527950" lon="129.2690660"/>
<trkpt lat="35.8527220" lon="129.2689830"/>
<trkpt lat="35.8526080" lon="129.2688530"/>
<trkpt lat="35.8525710" lon="129.2688110"/>
<trkpt lat="35.8524520" lon="129.2687180"/>
<trkpt lat="35.8524250" lon="129.2686420"/>
<trkpt lat="35.8522520" lon="129.2681610"/>
<trkpt lat="35.8520150" lon="129.2675000"/>
<trkpt lat="35.8519280" lon="129.2672770"/>
<trkpt lat="35.8519190" lon="129.2670710"/>
<trkpt lat="35.8519410" lon="129.2667490"/>
<trkpt lat="35.8519950" lon="129.2665880"/>
<trkpt lat="35.8521600" lon="129.2662360"/>
<trkpt lat="35.8521820" lon="129.2661320"/>
<trkpt lat="35.8521450" lon="129.2659740"/>
<trkpt lat="35.8520690" lon="129.2657080"/>
<trkpt lat="35.8521160" lon="129.2655770"/>
<trkpt lat="35.8520500" lon="129.2654020"/>
<trkpt lat="35.8518360" lon="129.2648370"/>
<trkpt lat="35.8515170" lon="129.2640060"/>
<trkpt lat="35.8513750" lon="129.2636250"/>
<trkpt lat="35.8513480" lon="129.2635430"/>
<trkpt lat="35.8513090" lon="129.2634350"/>
<trkpt lat="35.8511710" lon="129.2634740"/>
<trkpt lat="35.8510050" lon="129.2634290"/>
<trkpt lat="35.8507380" lon="129.2630500"/>
<trkpt lat="35.8505180" lon="129.2626740"/>
<trkpt lat="35.8505230" lon="129.2625680"/>
<trkpt lat="35.8504290" lon="129.2625350"/>
<trkpt lat="35.8504120" lon="129.2625290"/>
<trkpt lat="35.8502090" lon="129.2624590"/>
<trkpt lat="35.8500950" lon="129.2624190"/>
<trkpt lat="35.8499890" lon="129.2623780"/>
<trkpt lat="35.8499450" lon="129.2623850"/>
<trkpt lat="35.8498290" lon="129.2620860"/>
<trkpt lat="35.8496560" lon="129.2620970"/>
<trkpt lat="35.8498290" lon="129.2620860"/>
<trkpt lat="35.8499450" lon="129.2623850"/>
<trkpt lat="35.8499890" lon="129.2623780"/>
<trkpt lat="35.8500950" lon="129.2624190"/>
<trkpt lat="35.8502090" lon="129.2624590"/>
<trkpt lat="35.8504120" lon="129.2625290"/>
<trkpt lat="35.8504290" lon="129.2625350"/>
<trkpt lat="35.8505230" lon="129.2625680"/>
<trkpt lat="35.8505180" lon="129.2626740"/>
<trkpt lat="35.8507380" lon="129.2630500"/>
<trkpt lat="35.8510050" lon="129.2634290"/>
<trkpt lat="35.8511710" lon="129.2634740"/>
<trkpt lat="35.8513090" lon="129.2634350"/>
<trkpt lat="35.8512130" lon="129.2631740"/>
<trkpt lat="35.8511090" lon="129.2628890"/>
<trkpt lat="35.8509580" lon="129.2624810"/>
<trkpt lat="35.8508460" lon="129.2621810"/>
<trkpt lat="35.8506150" lon="129.2616860"/>
<trkpt lat="35.8505420" lon="129.2615590"/>
<trkpt lat="35.8503550" lon="129.2612330"/>
<trkpt lat="35.8500600" lon="129.2608200"/>
<trkpt lat="35.8500080" lon="129.2607620"/>
<trkpt lat="35.8497680" lon="129.2605010"/>
<trkpt lat="35.8488920" lon="129.2598030"/>
<trkpt lat="35.8485390" lon="129.2595340"/>
<trkpt lat="35.8483930" lon="129.2594450"/>
<trkpt lat="35.8467240" lon="129.2584280"/>
<trkpt lat="35.8466020" lon="129.2583540"/>
<trkpt lat="35.8463260" lon="129.2581840"/>
<trkpt lat="35.8462240" lon="129.2582990"/>
<trkpt lat="35.8462040" lon="129.2583790"/>
<trkpt lat="35.8458740" lon="129.2587600"/>
<trkpt lat="35.8453700" lon="129.2592680"/>
<trkpt lat="35.8451960" lon="129.2594550"/>
<trkpt lat="35.8450940" lon="129.2595620"/>
<trkpt lat="35.8449900" lon="129.2596890"/>
<trkpt lat="35.8448950" lon="129.2598200"/>
<trkpt lat="35.8447950" lon="129.2599880"/>
<trkpt lat="35.8447360" lon="129.2601050"/>
<trkpt lat="35.8446810" lon="129.2602820"/>
<trkpt lat="35.8446360" lon="129.2604360"/>
<trkpt lat="35.8446130" lon="129.2605690"/>
<trkpt lat="35.8446040" lon="129.2607840"/>
<trkpt lat="35.8446230" lon="129.2610060"/>
<trkpt lat="35.8446710" lon="129.2612420"/>
<trkpt lat="35.8447520" lon="129.2614710"/>
<trkpt lat="35.8448910" lon="129.2617220"/>
<trkpt lat="35.8453840" lon="129.2623430"/>
<trkpt lat="35.8459320" lon="129.2630090"/>
<trkpt lat="35.8459890" lon="129.2630810"/>
<trkpt lat="35.8459320" lon="129.2630090"/>
<trkpt lat="35.8453840" lon="129.2623430"/>
<trkpt lat="35.8448910" lon="129.2617220"/>
<trkpt lat="35.8447520" lon="129.2614710"/>
<trkpt lat="35.8446710" lon="129.2612420"/>
<trkpt lat="35.8446230" lon="129.2610060"/>
<trkpt lat="35.8446040" lon="129.2607840"/>
<trkpt lat="35.8446130" lon="129.2605690"/>
<trkpt lat="35.8446360" lon="129.2604360"/>
<trkpt lat="35.8446810" lon="129.2602820"/>
<trkpt lat="35.8447360" lon="129.2601050"/>
<trkpt lat="35.8447950" lon="129.2599880"/>
<trkpt lat="35.8448950" lon="129.2598200"/>
<trkpt lat="35.8449900" lon="129.2596890"/>
<trkpt lat="35.8450940" lon="129.2595620"/>
<trkpt lat="35.8451960" lon="129.2594550"/>
<trkpt lat="35.8453700" lon="129.2592680"/>
<trkpt lat="35.8453250" lon="129.2591680"/>
<trkpt lat="35.8446910" lon="129.2577280"/>
</trkseg>
</trk>
<trk><name>불국사</name><type>walking</type><desc>5곳 · 2190m 보행 · 약 29분 · 버스 계획 2회(보행선 제외)</desc>
<trkseg>
<trkpt lat="35.7898920" lon="129.3319420"/>
<trkpt lat="35.7899150" lon="129.3321210"/>
<trkpt lat="35.7899400" lon="129.3323000"/>
<trkpt lat="35.7899910" lon="129.3322890"/>
<trkpt lat="35.7899940" lon="129.3323200"/>
<trkpt lat="35.7900100" lon="129.3324210"/>
<trkpt lat="35.7899480" lon="129.3325700"/>
<trkpt lat="35.7898440" lon="129.3326180"/>
<trkpt lat="35.7897740" lon="129.3325970"/>
<trkpt lat="35.7896410" lon="129.3321760"/>
<trkpt lat="35.7890770" lon="129.3322870"/>
<trkpt lat="35.7890660" lon="129.3322910"/>
<trkpt lat="35.7890230" lon="129.3323010"/>
<trkpt lat="35.7885700" lon="129.3323990"/>
<trkpt lat="35.7885670" lon="129.3324660"/>
<trkpt lat="35.7885310" lon="129.3325820"/>
<trkpt lat="35.7884520" lon="129.3326970"/>
<trkpt lat="35.7883850" lon="129.3327980"/>
<trkpt lat="35.7883730" lon="129.3328740"/>
<trkpt lat="35.7883920" lon="129.3329300"/>
<trkpt lat="35.7883730" lon="129.3328740"/>
<trkpt lat="35.7883850" lon="129.3327980"/>
<trkpt lat="35.7884520" lon="129.3326970"/>
<trkpt lat="35.7885310" lon="129.3325820"/>
<trkpt lat="35.7885670" lon="129.3324660"/>
<trkpt lat="35.7885700" lon="129.3323990"/>
<trkpt lat="35.7881520" lon="129.3324890"/>
<trkpt lat="35.7880370" lon="129.3325040"/>
<trkpt lat="35.7878480" lon="129.3325290"/>
<trkpt lat="35.7877860" lon="129.3325370"/>
<trkpt lat="35.7874960" lon="129.3323740"/>
<trkpt lat="35.7873160" lon="129.3323820"/>
<trkpt lat="35.7872140" lon="129.3324160"/>
<trkpt lat="35.7871930" lon="129.3324230"/>
<trkpt lat="35.7871700" lon="129.3324310"/>
<trkpt lat="35.7868960" lon="129.3325210"/>
<trkpt lat="35.7868440" lon="129.3324380"/>
<trkpt lat="35.7863520" lon="129.3327280"/>
<trkpt lat="35.7867890" lon="129.3335650"/>
<trkpt lat="35.7868100" lon="129.3336990"/>
<trkpt lat="35.7868100" lon="129.3338280"/>
<trkpt lat="35.7867810" lon="129.3339270"/>
<trkpt lat="35.7867270" lon="129.3339970"/>
<trkpt lat="35.7866480" lon="129.3340250"/>
<trkpt lat="35.7865380" lon="129.3339820"/>
<trkpt lat="35.7863680" lon="129.3338430"/>
<trkpt lat="35.7861940" lon="129.3338520"/>
<trkpt lat="35.7860330" lon="129.3338710"/>
<trkpt lat="35.7857150" lon="129.3337150"/>
<trkpt lat="35.7856340" lon="129.3337360"/>
<trkpt lat="35.7855450" lon="129.3338130"/>
<trkpt lat="35.7855250" lon="129.3338890"/>
<trkpt lat="35.7855290" lon="129.3339920"/>
<trkpt lat="35.7855250" lon="129.3338890"/>
<trkpt lat="35.7855450" lon="129.3338130"/>
<trkpt lat="35.7856340" lon="129.3337360"/>
<trkpt lat="35.7857150" lon="129.3337150"/>
<trkpt lat="35.7860330" lon="129.3338710"/>
<trkpt lat="35.7861940" lon="129.3338520"/>
<trkpt lat="35.7863680" lon="129.3338430"/>
<trkpt lat="35.7865380" lon="129.3339820"/>
<trkpt lat="35.7866480" lon="129.3340250"/>
<trkpt lat="35.7867270" lon="129.3339970"/>
<trkpt lat="35.7867810" lon="129.3339270"/>
<trkpt lat="35.7868100" lon="129.3338280"/>
<trkpt lat="35.7868100" lon="129.3336990"/>
<trkpt lat="35.7867890" lon="129.3335650"/>
<trkpt lat="35.7863520" lon="129.3327280"/>
<trkpt lat="35.7868440" lon="129.3324380"/>
<trkpt lat="35.7867450" lon="129.3321940"/>
<trkpt lat="35.7865550" lon="129.3319790"/>
<trkpt lat="35.7864510" lon="129.3318720"/>
<trkpt lat="35.7864070" lon="129.3318070"/>
<trkpt lat="35.7862580" lon="129.3315810"/>
<trkpt lat="35.7861690" lon="129.3313410"/>
<trkpt lat="35.7861660" lon="129.3311500"/>
<trkpt lat="35.7861870" lon="129.3309710"/>
<trkpt lat="35.7862940" lon="129.3305160"/>
<trkpt lat="35.7863330" lon="129.3303480"/>
<trkpt lat="35.7864590" lon="129.3303560"/>
<trkpt lat="35.7864810" lon="129.3302740"/>
<trkpt lat="35.7865220" lon="129.3302060"/>
<trkpt lat="35.7865490" lon="129.3301760"/>
<trkpt lat="35.7865490" lon="129.3301050"/>
<trkpt lat="35.7865390" lon="129.3300400"/>
<trkpt lat="35.7865270" lon="129.3299800"/>
<trkpt lat="35.7865270" lon="129.3298790"/>
<trkpt lat="35.7865400" lon="129.3298250"/>
<trkpt lat="35.7865620" lon="129.3297730"/>
<trkpt lat="35.7866000" lon="129.3297250"/>
<trkpt lat="35.7866620" lon="129.3296330"/>
<trkpt lat="35.7867220" lon="129.3295320"/>
<trkpt lat="35.7867880" lon="129.3294920"/>
<trkpt lat="35.7868220" lon="129.3294000"/>
<trkpt lat="35.7868920" lon="129.3293360"/>
<trkpt lat="35.7869680" lon="129.3292870"/>
<trkpt lat="35.7870020" lon="129.3292620"/>
<trkpt lat="35.7870280" lon="129.3292100"/>
<trkpt lat="35.7870430" lon="129.3291240"/>
<trkpt lat="35.7870900" lon="129.3290180"/>
<trkpt lat="35.7871290" lon="129.3289890"/>
<trkpt lat="35.7871130" lon="129.3287570"/>
<trkpt lat="35.7870670" lon="129.3283840"/>
<trkpt lat="35.7871910" lon="129.3282260"/>
<trkpt lat="35.7870510" lon="129.3280700"/>
<trkpt lat="35.7869010" lon="129.3279040"/>
<trkpt lat="35.7867480" lon="129.3277380"/>
<trkpt lat="35.7865340" lon="129.3274870"/>
<trkpt lat="35.7865600" lon="129.3274530"/>
<trkpt lat="35.7868030" lon="129.3271340"/>
<trkpt lat="35.7869830" lon="129.3268970"/>
<trkpt lat="35.7868030" lon="129.3271340"/>
<trkpt lat="35.7865600" lon="129.3274530"/>
<trkpt lat="35.7865340" lon="129.3274870"/>
<trkpt lat="35.7865020" lon="129.3275290"/>
<trkpt lat="35.7861460" lon="129.3271210"/>
<trkpt lat="35.7861280" lon="129.3271450"/>
<trkpt lat="35.7860990" lon="129.3271850"/>
<trkpt lat="35.7859520" lon="129.3273820"/>
<trkpt lat="35.7858590" lon="129.3275030"/>
<trkpt lat="35.7857030" lon="129.3277000"/>
<trkpt lat="35.7854990" lon="129.3280010"/>
<trkpt lat="35.7852720" lon="129.3277360"/>
<trkpt lat="35.7851420" lon="129.3279050"/>
</trkseg>
</trk>
<trk><name>감포·전촌</name><type>walking</type><desc>6곳 · 5770m 보행 · 약 77분 · 버스 계획 3회(보행선 제외)</desc>
<trkseg>
<trkpt lat="35.8056250" lon="129.5064270"/>
<trkpt lat="35.8050530" lon="129.5057740"/>
<trkpt lat="35.8043970" lon="129.5050250"/>
<trkpt lat="35.8044040" lon="129.5049900"/>
<trkpt lat="35.8043950" lon="129.5049440"/>
<trkpt lat="35.8043760" lon="129.5048760"/>
<trkpt lat="35.8043680" lon="129.5048240"/>
<trkpt lat="35.8043620" lon="129.5047610"/>
<trkpt lat="35.8043630" lon="129.5047060"/>
<trkpt lat="35.8045090" lon="129.5037760"/>
<trkpt lat="35.8045670" lon="129.5028830"/>
<trkpt lat="35.8050860" lon="129.5026270"/>
<trkpt lat="35.8051140" lon="129.5026170"/>
<trkpt lat="35.8051470" lon="129.5026130"/>
<trkpt lat="35.8052800" lon="129.5026020"/>
<trkpt lat="35.8053210" lon="129.5027580"/>
<trkpt lat="35.8053290" lon="129.5027760"/>
<trkpt lat="35.8053360" lon="129.5027850"/>
<trkpt lat="35.8053460" lon="129.5027900"/>
<trkpt lat="35.8053620" lon="129.5027930"/>
<trkpt lat="35.8058310" lon="129.5027780"/>
<trkpt lat="35.8058450" lon="129.5027800"/>
<trkpt lat="35.8058590" lon="129.5027830"/>
<trkpt lat="35.8071650" lon="129.5034120"/>
<trkpt lat="35.8072010" lon="129.5034290"/>
<trkpt lat="35.8074520" lon="129.5035500"/>
<trkpt lat="35.8075060" lon="129.5035870"/>
<trkpt lat="35.8075290" lon="129.5036110"/>
<trkpt lat="35.8075530" lon="129.5036370"/>
<trkpt lat="35.8079530" lon="129.5041860"/>
<trkpt lat="35.8082620" lon="129.5045930"/>
<trkpt lat="35.8088340" lon="129.5053850"/>
<trkpt lat="35.8088610" lon="129.5054280"/>
<trkpt lat="35.8088730" lon="129.5054520"/>
<trkpt lat="35.8088820" lon="129.5054800"/>
<trkpt lat="35.8088900" lon="129.5055170"/>
<trkpt lat="35.8088940" lon="129.5055590"/>
<trkpt lat="35.8089050" lon="129.5062390"/>
<trkpt lat="35.8089040" lon="129.5062820"/>
<trkpt lat="35.8088990" lon="129.5063180"/>
<trkpt lat="35.8089980" lon="129.5063290"/>
<trkpt lat="35.8092990" lon="129.5063230"/>
<trkpt lat="35.8092660" lon="129.5064750"/>
<trkpt lat="35.8092430" lon="129.5065570"/>
<trkpt lat="35.8091100" lon="129.5070080"/>
<trkpt lat="35.8090850" lon="129.5070710"/>
<trkpt lat="35.8090500" lon="129.5071310"/>
<trkpt lat="35.8089680" lon="129.5072720"/>
<trkpt lat="35.8089080" lon="129.5074000"/>
<trkpt lat="35.8088430" lon="129.5075510"/>
<trkpt lat="35.8088050" lon="129.5076190"/>
<trkpt lat="35.8087690" lon="129.5076680"/>
<trkpt lat="35.8087190" lon="129.5077230"/>
<trkpt lat="35.8086430" lon="129.5079270"/>
<trkpt lat="35.8085980" lon="129.5080750"/>
<trkpt lat="35.8085610" lon="129.5082460"/>
<trkpt lat="35.8085440" lon="129.5083230"/>
<trkpt lat="35.8085260" lon="129.5083880"/>
<trkpt lat="35.8084960" lon="129.5084590"/>
<trkpt lat="35.8084570" lon="129.5085400"/>
<trkpt lat="35.8084390" lon="129.5085850"/>
<trkpt lat="35.8084270" lon="129.5086460"/>
<trkpt lat="35.8084220" lon="129.5087170"/>
<trkpt lat="35.8084270" lon="129.5087740"/>
<trkpt lat="35.8084800" lon="129.5090050"/>
<trkpt lat="35.8084920" lon="129.5090860"/>
<trkpt lat="35.8084950" lon="129.5091880"/>
<trkpt lat="35.8085000" lon="129.5093300"/>
<trkpt lat="35.8084690" lon="129.5093360"/>
<trkpt lat="35.8084420" lon="129.5093470"/>
<trkpt lat="35.8084020" lon="129.5093680"/>
<trkpt lat="35.8079580" lon="129.5097090"/>
<trkpt lat="35.8078310" lon="129.5098260"/>
<trkpt lat="35.8077540" lon="129.5099030"/>
<trkpt lat="35.8077010" lon="129.5099580"/>
<trkpt lat="35.8076720" lon="129.5099980"/>
<trkpt lat="35.8076480" lon="129.5100410"/>
<trkpt lat="35.8076290" lon="129.5100910"/>
<trkpt lat="35.8076180" lon="129.5101380"/>
<trkpt lat="35.8076060" lon="129.5102300"/>
<trkpt lat="35.8076010" lon="129.5102790"/>
<trkpt lat="35.8075910" lon="129.5103250"/>
<trkpt lat="35.8075740" lon="129.5103670"/>
<trkpt lat="35.8075480" lon="129.5104140"/>
<trkpt lat="35.8073820" lon="129.5107380"/>
<trkpt lat="35.8070680" lon="129.5111850"/>
<trkpt lat="35.8073820" lon="129.5107380"/>
<trkpt lat="35.8075480" lon="129.5104140"/>
<trkpt lat="35.8075740" lon="129.5103670"/>
<trkpt lat="35.8075910" lon="129.5103250"/>
<trkpt lat="35.8076010" lon="129.5102790"/>
<trkpt lat="35.8076060" lon="129.5102300"/>
<trkpt lat="35.8076180" lon="129.5101380"/>
<trkpt lat="35.8076290" lon="129.5100910"/>
<trkpt lat="35.8076480" lon="129.5100410"/>
<trkpt lat="35.8076720" lon="129.5099980"/>
<trkpt lat="35.8077010" lon="129.5099580"/>
<trkpt lat="35.8077540" lon="129.5099030"/>
<trkpt lat="35.8078310" lon="129.5098260"/>
<trkpt lat="35.8079580" lon="129.5097090"/>
<trkpt lat="35.8084020" lon="129.5093680"/>
<trkpt lat="35.8084420" lon="129.5093470"/>
<trkpt lat="35.8084690" lon="129.5093360"/>
<trkpt lat="35.8085000" lon="129.5093300"/>
<trkpt lat="35.8084950" lon="129.5091880"/>
<trkpt lat="35.8084920" lon="129.5090860"/>
<trkpt lat="35.8084800" lon="129.5090050"/>
<trkpt lat="35.8084270" lon="129.5087740"/>
<trkpt lat="35.8084220" lon="129.5087170"/>
<trkpt lat="35.8084270" lon="129.5086460"/>
<trkpt lat="35.8084390" lon="129.5085850"/>
<trkpt lat="35.8084570" lon="129.5085400"/>
<trkpt lat="35.8084960" lon="129.5084590"/>
<trkpt lat="35.8085260" lon="129.5083880"/>
<trkpt lat="35.8085440" lon="129.5083230"/>
<trkpt lat="35.8085610" lon="129.5082460"/>
<trkpt lat="35.8085980" lon="129.5080750"/>
<trkpt lat="35.8086430" lon="129.5079270"/>
<trkpt lat="35.8087190" lon="129.5077230"/>
<trkpt lat="35.8087690" lon="129.5076680"/>
<trkpt lat="35.8088050" lon="129.5076190"/>
<trkpt lat="35.8088430" lon="129.5075510"/>
<trkpt lat="35.8089080" lon="129.5074000"/>
<trkpt lat="35.8089680" lon="129.5072720"/>
<trkpt lat="35.8090500" lon="129.5071310"/>
<trkpt lat="35.8090850" lon="129.5070710"/>
<trkpt lat="35.8091100" lon="129.5070080"/>
<trkpt lat="35.8092430" lon="129.5065570"/>
<trkpt lat="35.8092660" lon="129.5064750"/>
<trkpt lat="35.8092990" lon="129.5063230"/>
<trkpt lat="35.8089980" lon="129.5063290"/>
<trkpt lat="35.8088990" lon="129.5063180"/>
<trkpt lat="35.8089040" lon="129.5062820"/>
<trkpt lat="35.8089050" lon="129.5062390"/>
<trkpt lat="35.8088940" lon="129.5055590"/>
<trkpt lat="35.8088900" lon="129.5055170"/>
<trkpt lat="35.8088820" lon="129.5054800"/>
<trkpt lat="35.8088730" lon="129.5054520"/>
<trkpt lat="35.8088610" lon="129.5054280"/>
<trkpt lat="35.8088340" lon="129.5053850"/>
<trkpt lat="35.8082620" lon="129.5045930"/>
<trkpt lat="35.8079530" lon="129.5041860"/>
<trkpt lat="35.8075530" lon="129.5036370"/>
<trkpt lat="35.8075290" lon="129.5036110"/>
<trkpt lat="35.8075060" lon="129.5035870"/>
<trkpt lat="35.8074520" lon="129.5035500"/>
<trkpt lat="35.8072010" lon="129.5034290"/>
<trkpt lat="35.8071650" lon="129.5034120"/>
<trkpt lat="35.8058590" lon="129.5027830"/>
<trkpt lat="35.8059030" lon="129.5026450"/>
<trkpt lat="35.8059070" lon="129.5026210"/>
<trkpt lat="35.8059110" lon="129.5025940"/>
<trkpt lat="35.8059110" lon="129.5025710"/>
<trkpt lat="35.8059010" lon="129.5025200"/>
<trkpt lat="35.8058950" lon="129.5024910"/>
<trkpt lat="35.8059060" lon="129.5024040"/>
<trkpt lat="35.8059270" lon="129.5022430"/>
<trkpt lat="35.8059630" lon="129.5022510"/>
<trkpt lat="35.8059990" lon="129.5017510"/>
<trkpt lat="35.8057760" lon="129.5016560"/>
<trkpt lat="35.8056800" lon="129.5016410"/>
<trkpt lat="35.8056710" lon="129.5016400"/>
<trkpt lat="35.8055370" lon="129.5016380"/>
<trkpt lat="35.8052210" lon="129.5017200"/>
<trkpt lat="35.8050540" lon="129.5017730"/>
<trkpt lat="35.8049960" lon="129.5017910"/>
<trkpt lat="35.8050410" lon="129.5019840"/>
<trkpt lat="35.8049990" lon="129.5019980"/>
<trkpt lat="35.8050230" lon="129.5021190"/>
</trkseg>
<trkseg>
<trkpt lat="35.7928180" lon="129.4987820"/>
<trkpt lat="35.7928790" lon="129.4988410"/>
<trkpt lat="35.7929510" lon="129.4988020"/>
<trkpt lat="35.7929860" lon="129.4988480"/>
<trkpt lat="35.7929740" lon="129.4990300"/>
<trkpt lat="35.7929970" lon="129.4990850"/>
<trkpt lat="35.7930490" lon="129.4991240"/>
<trkpt lat="35.7930790" lon="129.4991120"/>
<trkpt lat="35.7931170" lon="129.4991030"/>
<trkpt lat="35.7931500" lon="129.4991180"/>
<trkpt lat="35.7931760" lon="129.4991650"/>
<trkpt lat="35.7932420" lon="129.4993800"/>
<trkpt lat="35.7932860" lon="129.4994890"/>
<trkpt lat="35.7930960" lon="129.4994630"/>
<trkpt lat="35.7930860" lon="129.4995150"/>
<trkpt lat="35.7933110" lon="129.5002090"/>
<trkpt lat="35.7933990" lon="129.5004610"/>
<trkpt lat="35.7934900" lon="129.5006840"/>
<trkpt lat="35.7935430" lon="129.5007740"/>
<trkpt lat="35.7935820" lon="129.5008160"/>
<trkpt lat="35.7936480" lon="129.5008400"/>
<trkpt lat="35.7937510" lon="129.5008400"/>
<trkpt lat="35.7938010" lon="129.5008180"/>
<trkpt lat="35.7938590" lon="129.5007510"/>
<trkpt lat="35.7941190" lon="129.5005470"/>
<trkpt lat="35.7942090" lon="129.5004750"/>
<trkpt lat="35.7942660" lon="129.5003940"/>
<trkpt lat="35.7943900" lon="129.5001620"/>
<trkpt lat="35.7945070" lon="129.5000280"/>
<trkpt lat="35.7945620" lon="129.4999820"/>
<trkpt lat="35.7946710" lon="129.4999320"/>
<trkpt lat="35.7947160" lon="129.4998280"/>
<trkpt lat="35.7947650" lon="129.4997330"/>
<trkpt lat="35.7950080" lon="129.4995610"/>
<trkpt lat="35.7951820" lon="129.4995340"/>
<trkpt lat="35.7954130" lon="129.4994440"/>
<trkpt lat="35.7954950" lon="129.4994310"/>
<trkpt lat="35.7958540" lon="129.4994870"/>
<trkpt lat="35.7959520" lon="129.4994980"/>
<trkpt lat="35.7960510" lon="129.4995080"/>
<trkpt lat="35.7962030" lon="129.4995170"/>
<trkpt lat="35.7962820" lon="129.4995110"/>
<trkpt lat="35.7963520" lon="129.4994990"/>
<trkpt lat="35.7966100" lon="129.4994280"/>
<trkpt lat="35.7966670" lon="129.4994080"/>
<trkpt lat="35.7971840" lon="129.4991300"/>
<trkpt lat="35.7972300" lon="129.4991160"/>
<trkpt lat="35.7972770" lon="129.4991080"/>
<trkpt lat="35.7973150" lon="129.4991080"/>
<trkpt lat="35.7973590" lon="129.4991080"/>
<trkpt lat="35.7974020" lon="129.4991110"/>
<trkpt lat="35.7974350" lon="129.4991050"/>
<trkpt lat="35.7974830" lon="129.4990920"/>
<trkpt lat="35.7975320" lon="129.4990740"/>
<trkpt lat="35.7977040" lon="129.4989870"/>
<trkpt lat="35.7977560" lon="129.4989610"/>
<trkpt lat="35.7978860" lon="129.4989200"/>
<trkpt lat="35.7979440" lon="129.4988960"/>
<trkpt lat="35.7982010" lon="129.4987770"/>
<trkpt lat="35.7982370" lon="129.4987530"/>
<trkpt lat="35.7983010" lon="129.4987050"/>
<trkpt lat="35.7983230" lon="129.4986920"/>
<trkpt lat="35.7984490" lon="129.4986490"/>
<trkpt lat="35.7985680" lon="129.4986140"/>
<trkpt lat="35.7986260" lon="129.4986000"/>
<trkpt lat="35.7986850" lon="129.4985840"/>
<trkpt lat="35.7987360" lon="129.4985650"/>
<trkpt lat="35.7987390" lon="129.4985150"/>
<trkpt lat="35.7987440" lon="129.4984750"/>
<trkpt lat="35.7987530" lon="129.4984420"/>
<trkpt lat="35.7987690" lon="129.4984070"/>
<trkpt lat="35.7987910" lon="129.4983670"/>
<trkpt lat="35.7987640" lon="129.4983100"/>
<trkpt lat="35.7987410" lon="129.4982410"/>
<trkpt lat="35.7987270" lon="129.4981590"/>
<trkpt lat="35.7984820" lon="129.4952020"/>
<trkpt lat="35.7984590" lon="129.4950370"/>
<trkpt lat="35.7984350" lon="129.4948400"/>
<trkpt lat="35.7983510" lon="129.4942880"/>
<trkpt lat="35.7983220" lon="129.4941560"/>
<trkpt lat="35.7982730" lon="129.4940040"/>
<trkpt lat="35.7982120" lon="129.4938560"/>
<trkpt lat="35.7981510" lon="129.4937370"/>
<trkpt lat="35.7980890" lon="129.4936300"/>
<trkpt lat="35.7980090" lon="129.4935210"/>
<trkpt lat="35.7975190" lon="129.4928970"/>
<trkpt lat="35.7974520" lon="129.4928170"/>
<trkpt lat="35.7973710" lon="129.4927470"/>
<trkpt lat="35.7971350" lon="129.4925710"/>
<trkpt lat="35.7970570" lon="129.4925280"/>
<trkpt lat="35.7966090" lon="129.4923010"/>
<trkpt lat="35.7964290" lon="129.4922210"/>
<trkpt lat="35.7962740" lon="129.4921680"/>
<trkpt lat="35.7961340" lon="129.4921240"/>
<trkpt lat="35.7959920" lon="129.4920920"/>
<trkpt lat="35.7958180" lon="129.4920590"/>
<trkpt lat="35.7956660" lon="129.4920460"/>
<trkpt lat="35.7955090" lon="129.4920380"/>
<trkpt lat="35.7953670" lon="129.4920430"/>
<trkpt lat="35.7952260" lon="129.4920530"/>
<trkpt lat="35.7932700" lon="129.4923490"/>
<trkpt lat="35.7930710" lon="129.4923720"/>
<trkpt lat="35.7929130" lon="129.4923790"/>
<trkpt lat="35.7927970" lon="129.4923760"/>
<trkpt lat="35.7927080" lon="129.4923670"/>
<trkpt lat="35.7926070" lon="129.4923500"/>
<trkpt lat="35.7925020" lon="129.4923210"/>
<trkpt lat="35.7924080" lon="129.4922840"/>
<trkpt lat="35.7923040" lon="129.4922400"/>
<trkpt lat="35.7921690" lon="129.4921700"/>
<trkpt lat="35.7919190" lon="129.4920440"/>
<trkpt lat="35.7917370" lon="129.4919600"/>
<trkpt lat="35.7912630" lon="129.4917140"/>
<trkpt lat="35.7912090" lon="129.4916880"/>
<trkpt lat="35.7911560" lon="129.4918210"/>
<trkpt lat="35.7911430" lon="129.4918510"/>
<trkpt lat="35.7911060" lon="129.4919350"/>
<trkpt lat="35.7910600" lon="129.4920260"/>
<trkpt lat="35.7910100" lon="129.4921090"/>
<trkpt lat="35.7909210" lon="129.4922530"/>
<trkpt lat="35.7907500" lon="129.4925300"/>
<trkpt lat="35.7893380" lon="129.4916820"/>
<trkpt lat="35.7893060" lon="129.4916690"/>
<trkpt lat="35.7892640" lon="129.4916550"/>
<trkpt lat="35.7876300" lon="129.4911450"/>
<trkpt lat="35.7867870" lon="129.4910250"/>
<trkpt lat="35.7866630" lon="129.4910330"/>
<trkpt lat="35.7866540" lon="129.4911160"/>
<trkpt lat="35.7860800" lon="129.4910940"/>
</trkseg>
</trk>
<trk><name>문무왕릉 일대</name><type>walking</type><desc>5곳 · 3305m 보행 · 약 44분 · 버스 계획 2회(보행선 제외)</desc>
<trkseg>
<trkpt lat="35.7480560" lon="129.4771370"/>
<trkpt lat="35.7480390" lon="129.4771180"/>
<trkpt lat="35.7480980" lon="129.4770030"/>
<trkpt lat="35.7480410" lon="129.4769540"/>
<trkpt lat="35.7479820" lon="129.4768600"/>
<trkpt lat="35.7478310" lon="129.4767850"/>
<trkpt lat="35.7476060" lon="129.4771790"/>
<trkpt lat="35.7470560" lon="129.4766410"/>
<trkpt lat="35.7469580" lon="129.4767970"/>
<trkpt lat="35.7468200" lon="129.4770140"/>
<trkpt lat="35.7465720" lon="129.4767870"/>
<trkpt lat="35.7459160" lon="129.4778080"/>
<trkpt lat="35.7458880" lon="129.4778630"/>
<trkpt lat="35.7458690" lon="129.4779150"/>
<trkpt lat="35.7458570" lon="129.4779890"/>
<trkpt lat="35.7458360" lon="129.4781710"/>
<trkpt lat="35.7458170" lon="129.4782980"/>
<trkpt lat="35.7457880" lon="129.4784340"/>
<trkpt lat="35.7457580" lon="129.4785610"/>
<trkpt lat="35.7457170" lon="129.4787120"/>
<trkpt lat="35.7456740" lon="129.4788490"/>
<trkpt lat="35.7455430" lon="129.4791950"/>
<trkpt lat="35.7454430" lon="129.4793910"/>
<trkpt lat="35.7453720" lon="129.4795500"/>
<trkpt lat="35.7448870" lon="129.4805330"/>
<trkpt lat="35.7447700" lon="129.4807420"/>
<trkpt lat="35.7443740" lon="129.4817370"/>
<trkpt lat="35.7443410" lon="129.4817060"/>
<trkpt lat="35.7442860" lon="129.4818600"/>
<trkpt lat="35.7442010" lon="129.4820970"/>
<trkpt lat="35.7441760" lon="129.4821680"/>
<trkpt lat="35.7441550" lon="129.4822370"/>
<trkpt lat="35.7441380" lon="129.4823060"/>
<trkpt lat="35.7441230" lon="129.4823830"/>
<trkpt lat="35.7441120" lon="129.4824660"/>
<trkpt lat="35.7441020" lon="129.4825450"/>
<trkpt lat="35.7440970" lon="129.4826260"/>
<trkpt lat="35.7440940" lon="129.4827830"/>
<trkpt lat="35.7440940" lon="129.4828530"/>
<trkpt lat="35.7441000" lon="129.4829250"/>
<trkpt lat="35.7441100" lon="129.4829850"/>
<trkpt lat="35.7441270" lon="129.4830550"/>
<trkpt lat="35.7441480" lon="129.4831280"/>
<trkpt lat="35.7441780" lon="129.4832060"/>
<trkpt lat="35.7442520" lon="129.4833770"/>
<trkpt lat="35.7443350" lon="129.4835640"/>
<trkpt lat="35.7443730" lon="129.4836400"/>
<trkpt lat="35.7444110" lon="129.4837080"/>
<trkpt lat="35.7444540" lon="129.4837700"/>
<trkpt lat="35.7444990" lon="129.4838280"/>
<trkpt lat="35.7445450" lon="129.4838820"/>
<trkpt lat="35.7446020" lon="129.4839400"/>
<trkpt lat="35.7446620" lon="129.4839940"/>
<trkpt lat="35.7447330" lon="129.4840510"/>
<trkpt lat="35.7448110" lon="129.4841100"/>
<trkpt lat="35.7450000" lon="129.4842500"/>
<trkpt lat="35.7450770" lon="129.4843380"/>
<trkpt lat="35.7451090" lon="129.4843840"/>
<trkpt lat="35.7451300" lon="129.4844200"/>
<trkpt lat="35.7451420" lon="129.4844480"/>
<trkpt lat="35.7451500" lon="129.4844760"/>
<trkpt lat="35.7451540" lon="129.4845160"/>
<trkpt lat="35.7451750" lon="129.4845070"/>
<trkpt lat="35.7452040" lon="129.4844990"/>
<trkpt lat="35.7452350" lon="129.4844990"/>
<trkpt lat="35.7452630" lon="129.4845100"/>
<trkpt lat="35.7452800" lon="129.4845220"/>
<trkpt lat="35.7453720" lon="129.4845880"/>
<trkpt lat="35.7455210" lon="129.4846470"/>
<trkpt lat="35.7456120" lon="129.4847210"/>
<trkpt lat="35.7457130" lon="129.4848030"/>
<trkpt lat="35.7458060" lon="129.4848850"/>
<trkpt lat="35.7458660" lon="129.4849400"/>
<trkpt lat="35.7459240" lon="129.4850040"/>
<trkpt lat="35.7459840" lon="129.4850840"/>
<trkpt lat="35.7460270" lon="129.4851530"/>
<trkpt lat="35.7458240" lon="129.4853350"/>
<trkpt lat="35.7459640" lon="129.4855530"/>
<trkpt lat="35.7459760" lon="129.4855790"/>
<trkpt lat="35.7459770" lon="129.4856110"/>
<trkpt lat="35.7459300" lon="129.4857410"/>
<trkpt lat="35.7459460" lon="129.4858130"/>
<trkpt lat="35.7459810" lon="129.4858740"/>
<trkpt lat="35.7460020" lon="129.4859190"/>
<trkpt lat="35.7460140" lon="129.4859650"/>
<trkpt lat="35.7460300" lon="129.4859970"/>
<trkpt lat="35.7461180" lon="129.4861000"/>
<trkpt lat="35.7461340" lon="129.4861260"/>
<trkpt lat="35.7461310" lon="129.4861510"/>
<trkpt lat="35.7461940" lon="129.4862210"/>
<trkpt lat="35.7463340" lon="129.4863540"/>
<trkpt lat="35.7464680" lon="129.4864680"/>
<trkpt lat="35.7464890" lon="129.4864960"/>
<trkpt lat="35.7465100" lon="129.4865290"/>
<trkpt lat="35.7465240" lon="129.4865660"/>
<trkpt lat="35.7465420" lon="129.4865960"/>
<trkpt lat="35.7465680" lon="129.4866230"/>
<trkpt lat="35.7466010" lon="129.4866440"/>
<trkpt lat="35.7466400" lon="129.4866650"/>
<trkpt lat="35.7467020" lon="129.4866760"/>
<trkpt lat="35.7467340" lon="129.4866820"/>
<trkpt lat="35.7467580" lon="129.4866950"/>
<trkpt lat="35.7467740" lon="129.4866400"/>
<trkpt lat="35.7467890" lon="129.4865970"/>
<trkpt lat="35.7468070" lon="129.4865680"/>
<trkpt lat="35.7468700" lon="129.4864820"/>
<trkpt lat="35.7468070" lon="129.4865680"/>
<trkpt lat="35.7467890" lon="129.4865970"/>
<trkpt lat="35.7467740" lon="129.4866400"/>
<trkpt lat="35.7467580" lon="129.4866950"/>
<trkpt lat="35.7467340" lon="129.4866820"/>
<trkpt lat="35.7467020" lon="129.4866760"/>
<trkpt lat="35.7466400" lon="129.4866650"/>
<trkpt lat="35.7466010" lon="129.4866440"/>
<trkpt lat="35.7465680" lon="129.4866230"/>
<trkpt lat="35.7465420" lon="129.4865960"/>
<trkpt lat="35.7465240" lon="129.4865660"/>
<trkpt lat="35.7465100" lon="129.4865290"/>
<trkpt lat="35.7464980" lon="129.4865390"/>
<trkpt lat="35.7464700" lon="129.4864990"/>
<trkpt lat="35.7464460" lon="129.4864690"/>
<trkpt lat="35.7463270" lon="129.4863690"/>
<trkpt lat="35.7461990" lon="129.4862500"/>
<trkpt lat="35.7461600" lon="129.4862080"/>
<trkpt lat="35.7461290" lon="129.4861690"/>
<trkpt lat="35.7460960" lon="129.4861200"/>
<trkpt lat="35.7459740" lon="129.4859640"/>
<trkpt lat="35.7459470" lon="129.4859350"/>
<trkpt lat="35.7459190" lon="129.4859130"/>
<trkpt lat="35.7458930" lon="129.4859060"/>
<trkpt lat="35.7458600" lon="129.4859060"/>
<trkpt lat="35.7458310" lon="129.4859080"/>
<trkpt lat="35.7458010" lon="129.4859180"/>
<trkpt lat="35.7457760" lon="129.4859330"/>
<trkpt lat="35.7457490" lon="129.4859540"/>
<trkpt lat="35.7457140" lon="129.4859920"/>
<trkpt lat="35.7456820" lon="129.4860380"/>
<trkpt lat="35.7456100" lon="129.4859720"/>
<trkpt lat="35.7455710" lon="129.4859360"/>
<trkpt lat="35.7455400" lon="129.4859030"/>
<trkpt lat="35.7455280" lon="129.4859180"/>
<trkpt lat="35.7454990" lon="129.4858810"/>
<trkpt lat="35.7454670" lon="129.4858360"/>
<trkpt lat="35.7454400" lon="129.4857930"/>
<trkpt lat="35.7454240" lon="129.4857550"/>
<trkpt lat="35.7453470" lon="129.4855170"/>
<trkpt lat="35.7453270" lon="129.4854680"/>
<trkpt lat="35.7453050" lon="129.4854310"/>
<trkpt lat="35.7452820" lon="129.4853930"/>
<trkpt lat="35.7452550" lon="129.4853590"/>
<trkpt lat="35.7452280" lon="129.4853310"/>
<trkpt lat="35.7451970" lon="129.4853040"/>
<trkpt lat="35.7450290" lon="129.4851870"/>
<trkpt lat="35.7449800" lon="129.4851560"/>
<trkpt lat="35.7449210" lon="129.4851270"/>
<trkpt lat="35.7448580" lon="129.4850980"/>
<trkpt lat="35.7448050" lon="129.4850770"/>
<trkpt lat="35.7446870" lon="129.4850320"/>
<trkpt lat="35.7446660" lon="129.4850220"/>
<trkpt lat="35.7446480" lon="129.4850090"/>
<trkpt lat="35.7446300" lon="129.4849840"/>
<trkpt lat="35.7444640" lon="129.4847200"/>
<trkpt lat="35.7444270" lon="129.4846720"/>
<trkpt lat="35.7443940" lon="129.4846330"/>
<trkpt lat="35.7443550" lon="129.4845900"/>
<trkpt lat="35.7441690" lon="129.4843850"/>
<trkpt lat="35.7441450" lon="129.4843640"/>
<trkpt lat="35.7441210" lon="129.4843500"/>
<trkpt lat="35.7440480" lon="129.4843120"/>
<trkpt lat="35.7440240" lon="129.4842930"/>
<trkpt lat="35.7439980" lon="129.4842650"/>
<trkpt lat="35.7439850" lon="129.4842400"/>
<trkpt lat="35.7439740" lon="129.4842020"/>
<trkpt lat="35.7439480" lon="129.4840690"/>
<trkpt lat="35.7439410" lon="129.4840080"/>
<trkpt lat="35.7439250" lon="129.4838320"/>
<trkpt lat="35.7439160" lon="129.4837770"/>
<trkpt lat="35.7439050" lon="129.4837260"/>
<trkpt lat="35.7438880" lon="129.4836630"/>
<trkpt lat="35.7438100" lon="129.4834180"/>
<trkpt lat="35.7437880" lon="129.4833660"/>
<trkpt lat="35.7437460" lon="129.4832740"/>
<trkpt lat="35.7437170" lon="129.4832050"/>
<trkpt lat="35.7437010" lon="129.4831590"/>
<trkpt lat="35.7436870" lon="129.4830910"/>
<trkpt lat="35.7436810" lon="129.4830230"/>
<trkpt lat="35.7436770" lon="129.4829110"/>
<trkpt lat="35.7436810" lon="129.4828590"/>
<trkpt lat="35.7436900" lon="129.4828210"/>
<trkpt lat="35.7437030" lon="129.4827930"/>
<trkpt lat="35.7437290" lon="129.4827510"/>
<trkpt lat="35.7437590" lon="129.4827230"/>
<trkpt lat="35.7437860" lon="129.4827140"/>
<trkpt lat="35.7438670" lon="129.4826760"/>
<trkpt lat="35.7438930" lon="129.4826590"/>
<trkpt lat="35.7439100" lon="129.4826300"/>
<trkpt lat="35.7439210" lon="129.4825930"/>
<trkpt lat="35.7439340" lon="129.4825180"/>
<trkpt lat="35.7439500" lon="129.4823920"/>
<trkpt lat="35.7439600" lon="129.4823170"/>
<trkpt lat="35.7439770" lon="129.4822400"/>
<trkpt lat="35.7440420" lon="129.4820420"/>
<trkpt lat="35.7440730" lon="129.4819730"/>
<trkpt lat="35.7441100" lon="129.4819130"/>
<trkpt lat="35.7442390" lon="129.4817180"/>
<trkpt lat="35.7443130" lon="129.4816140"/>
<trkpt lat="35.7446590" lon="129.4807310"/>
<trkpt lat="35.7447190" lon="129.4806030"/>
<trkpt lat="35.7447290" lon="129.4805220"/>
<trkpt lat="35.7447340" lon="129.4804350"/>
<trkpt lat="35.7447320" lon="129.4803560"/>
<trkpt lat="35.7447240" lon="129.4802790"/>
<trkpt lat="35.7447130" lon="129.4802160"/>
<trkpt lat="35.7446930" lon="129.4801520"/>
<trkpt lat="35.7446680" lon="129.4800930"/>
<trkpt lat="35.7446340" lon="129.4800430"/>
<trkpt lat="35.7445870" lon="129.4799960"/>
<trkpt lat="35.7445140" lon="129.4799420"/>
<trkpt lat="35.7433180" lon="129.4791700"/>
<trkpt lat="35.7432350" lon="129.4791250"/>
<trkpt lat="35.7431650" lon="129.4790910"/>
<trkpt lat="35.7430860" lon="129.4790590"/>
<trkpt lat="35.7429990" lon="129.4790320"/>
<trkpt lat="35.7429140" lon="129.4790100"/>
<trkpt lat="35.7428400" lon="129.4790020"/>
<trkpt lat="35.7427420" lon="129.4789990"/>
<trkpt lat="35.7426500" lon="129.4790040"/>
<trkpt lat="35.7425460" lon="129.4790180"/>
<trkpt lat="35.7424510" lon="129.4790410"/>
<trkpt lat="35.7423560" lon="129.4790720"/>
<trkpt lat="35.7422620" lon="129.4791230"/>
<trkpt lat="35.7421660" lon="129.4791800"/>
<trkpt lat="35.7420790" lon="129.4792410"/>
<trkpt lat="35.7419930" lon="129.4793110"/>
<trkpt lat="35.7419030" lon="129.4794000"/>
<trkpt lat="35.7418270" lon="129.4794860"/>
<trkpt lat="35.7417560" lon="129.4795770"/>
<trkpt lat="35.7416910" lon="129.4796710"/>
<trkpt lat="35.7416350" lon="129.4797730"/>
<trkpt lat="35.7415870" lon="129.4798720"/>
<trkpt lat="35.7412210" lon="129.4807500"/>
<trkpt lat="35.7406310" lon="129.4821770"/>
<trkpt lat="35.7405580" lon="129.4823550"/>
<trkpt lat="35.7404830" lon="129.4825300"/>
<trkpt lat="35.7404230" lon="129.4826460"/>
<trkpt lat="35.7403850" lon="129.4827110"/>
<trkpt lat="35.7403370" lon="129.4827770"/>
<trkpt lat="35.7402850" lon="129.4828340"/>
<trkpt lat="35.7402130" lon="129.4829090"/>
<trkpt lat="35.7401180" lon="129.4829930"/>
<trkpt lat="35.7400490" lon="129.4830470"/>
<trkpt lat="35.7399830" lon="129.4830930"/>
<trkpt lat="35.7400550" lon="129.4835140"/>
<trkpt lat="35.7397600" lon="129.4836070"/>
<trkpt lat="35.7396820" lon="129.4836330"/>
<trkpt lat="35.7395980" lon="129.4836650"/>
<trkpt lat="35.7392960" lon="129.4837900"/>
<trkpt lat="35.7392590" lon="129.4838120"/>
<trkpt lat="35.7392190" lon="129.4838450"/>
<trkpt lat="35.7391790" lon="129.4838730"/>
<trkpt lat="35.7391130" lon="129.4839050"/>
<trkpt lat="35.7383650" lon="129.4842090"/>
<trkpt lat="35.7381440" lon="129.4843070"/>
<trkpt lat="35.7380360" lon="129.4843460"/>
<trkpt lat="35.7379740" lon="129.4843650"/>
<trkpt lat="35.7379250" lon="129.4843770"/>
</trkseg>
</trk>
<trk><name>양남 주상절리</name><type>walking</type><desc>5곳 · 6281m 보행 · 약 84분 · 버스 계획 2회(보행선 제외)</desc>
<trkseg>
<trkpt lat="35.6917570" lon="129.4767580"/>
<trkpt lat="35.6921090" lon="129.4765970"/>
<trkpt lat="35.6934990" lon="129.4753730"/>
<trkpt lat="35.6935900" lon="129.4752130"/>
<trkpt lat="35.6935680" lon="129.4751930"/>
<trkpt lat="35.6934200" lon="129.4750310"/>
<trkpt lat="35.6931230" lon="129.4746760"/>
<trkpt lat="35.6927990" lon="129.4742900"/>
<trkpt lat="35.6924880" lon="129.4740370"/>
<trkpt lat="35.6924090" lon="129.4739800"/>
<trkpt lat="35.6923430" lon="129.4739440"/>
<trkpt lat="35.6922940" lon="129.4739200"/>
<trkpt lat="35.6922360" lon="129.4738950"/>
<trkpt lat="35.6921440" lon="129.4738690"/>
<trkpt lat="35.6921010" lon="129.4738580"/>
<trkpt lat="35.6913830" lon="129.4736750"/>
<trkpt lat="35.6911450" lon="129.4737390"/>
<trkpt lat="35.6908870" lon="129.4739860"/>
<trkpt lat="35.6908220" lon="129.4740830"/>
<trkpt lat="35.6907870" lon="129.4740780"/>
<trkpt lat="35.6906400" lon="129.4740460"/>
<trkpt lat="35.6904520" lon="129.4740300"/>
<trkpt lat="35.6904000" lon="129.4740310"/>
<trkpt lat="35.6903450" lon="129.4740440"/>
<trkpt lat="35.6902370" lon="129.4740710"/>
<trkpt lat="35.6901940" lon="129.4740780"/>
<trkpt lat="35.6901450" lon="129.4740760"/>
<trkpt lat="35.6898410" lon="129.4740320"/>
<trkpt lat="35.6897850" lon="129.4740200"/>
<trkpt lat="35.6896520" lon="129.4739970"/>
<trkpt lat="35.6895120" lon="129.4739850"/>
<trkpt lat="35.6892750" lon="129.4739880"/>
<trkpt lat="35.6891520" lon="129.4739790"/>
<trkpt lat="35.6890400" lon="129.4739680"/>
<trkpt lat="35.6889120" lon="129.4739530"/>
<trkpt lat="35.6885620" lon="129.4738890"/>
<trkpt lat="35.6881960" lon="129.4738280"/>
<trkpt lat="35.6877590" lon="129.4737570"/>
<trkpt lat="35.6873370" lon="129.4736860"/>
<trkpt lat="35.6871950" lon="129.4736610"/>
<trkpt lat="35.6870560" lon="129.4736310"/>
<trkpt lat="35.6869240" lon="129.4735890"/>
<trkpt lat="35.6868000" lon="129.4735450"/>
<trkpt lat="35.6866580" lon="129.4734860"/>
<trkpt lat="35.6865470" lon="129.4734310"/>
<trkpt lat="35.6864280" lon="129.4733690"/>
<trkpt lat="35.6862900" lon="129.4732850"/>
<trkpt lat="35.6861390" lon="129.4731850"/>
<trkpt lat="35.6860090" lon="129.4730970"/>
<trkpt lat="35.6856540" lon="129.4728240"/>
<trkpt lat="35.6838840" lon="129.4714920"/>
<trkpt lat="35.6834370" lon="129.4711590"/>
<trkpt lat="35.6831820" lon="129.4709730"/>
<trkpt lat="35.6829940" lon="129.4708360"/>
<trkpt lat="35.6823550" lon="129.4703770"/>
<trkpt lat="35.6822150" lon="129.4702700"/>
<trkpt lat="35.6820580" lon="129.4701470"/>
<trkpt lat="35.6819230" lon="129.4700240"/>
<trkpt lat="35.6818350" lon="129.4699270"/>
<trkpt lat="35.6817640" lon="129.4698400"/>
<trkpt lat="35.6816930" lon="129.4697400"/>
<trkpt lat="35.6816330" lon="129.4696360"/>
<trkpt lat="35.6815530" lon="129.4694580"/>
<trkpt lat="35.6814890" lon="129.4692980"/>
<trkpt lat="35.6814430" lon="129.4691450"/>
<trkpt lat="35.6814110" lon="129.4690220"/>
<trkpt lat="35.6813840" lon="129.4688720"/>
<trkpt lat="35.6813660" lon="129.4686990"/>
<trkpt lat="35.6812830" lon="129.4677820"/>
<trkpt lat="35.6811990" lon="129.4678330"/>
<trkpt lat="35.6811490" lon="129.4678610"/>
<trkpt lat="35.6810990" lon="129.4678830"/>
<trkpt lat="35.6810510" lon="129.4678980"/>
<trkpt lat="35.6809060" lon="129.4679400"/>
<trkpt lat="35.6808670" lon="129.4679600"/>
<trkpt lat="35.6808260" lon="129.4679830"/>
<trkpt lat="35.6807300" lon="129.4680490"/>
<trkpt lat="35.6806860" lon="129.4680880"/>
<trkpt lat="35.6806310" lon="129.4681380"/>
<trkpt lat="35.6805820" lon="129.4681910"/>
<trkpt lat="35.6804840" lon="129.4683200"/>
<trkpt lat="35.6804500" lon="129.4683620"/>
<trkpt lat="35.6804170" lon="129.4683920"/>
<trkpt lat="35.6803770" lon="129.4684120"/>
<trkpt lat="35.6802870" lon="129.4684520"/>
<trkpt lat="35.6799970" lon="129.4685520"/>
<trkpt lat="35.6798720" lon="129.4686470"/>
<trkpt lat="35.6798600" lon="129.4686240"/>
<trkpt lat="35.6797380" lon="129.4687220"/>
<trkpt lat="35.6796400" lon="129.4688030"/>
<trkpt lat="35.6794820" lon="129.4689010"/>
<trkpt lat="35.6793370" lon="129.4691280"/>
<trkpt lat="35.6792740" lon="129.4693040"/>
<trkpt lat="35.6792390" lon="129.4694840"/>
<trkpt lat="35.6792980" lon="129.4699600"/>
<trkpt lat="35.6794030" lon="129.4701500"/>
<trkpt lat="35.6795660" lon="129.4705240"/>
<trkpt lat="35.6797320" lon="129.4705890"/>
<trkpt lat="35.6797730" lon="129.4705770"/>
<trkpt lat="35.6797840" lon="129.4705370"/>
<trkpt lat="35.6797810" lon="129.4705050"/>
<trkpt lat="35.6797940" lon="129.4704730"/>
<trkpt lat="35.6797820" lon="129.4703950"/>
<trkpt lat="35.6798480" lon="129.4703690"/>
<trkpt lat="35.6799470" lon="129.4703610"/>
<trkpt lat="35.6800250" lon="129.4703730"/>
<trkpt lat="35.6800730" lon="129.4703490"/>
<trkpt lat="35.6801540" lon="129.4702100"/>
<trkpt lat="35.6802250" lon="129.4702220"/>
<trkpt lat="35.6802760" lon="129.4702710"/>
<trkpt lat="35.6805200" lon="129.4704180"/>
<trkpt lat="35.6806410" lon="129.4705910"/>
<trkpt lat="35.6806790" lon="129.4706860"/>
<trkpt lat="35.6806830" lon="129.4707490"/>
<trkpt lat="35.6806780" lon="129.4708020"/>
<trkpt lat="35.6806570" lon="129.4708510"/>
<trkpt lat="35.6805840" lon="129.4709610"/>
<trkpt lat="35.6805720" lon="129.4710010"/>
<trkpt lat="35.6805930" lon="129.4710590"/>
<trkpt lat="35.6806290" lon="129.4711110"/>
<trkpt lat="35.6806920" lon="129.4711530"/>
<trkpt lat="35.6807450" lon="129.4711660"/>
<trkpt lat="35.6808020" lon="129.4711650"/>
<trkpt lat="35.6808530" lon="129.4711390"/>
<trkpt lat="35.6808600" lon="129.4711340"/>
<trkpt lat="35.6809260" lon="129.4711100"/>
<trkpt lat="35.6810220" lon="129.4711120"/>
<trkpt lat="35.6811130" lon="129.4711230"/>
<trkpt lat="35.6811410" lon="129.4711330"/>
<trkpt lat="35.6812120" lon="129.4712140"/>
<trkpt lat="35.6812510" lon="129.4712350"/>
<trkpt lat="35.6813980" lon="129.4712370"/>
<trkpt lat="35.6814600" lon="129.4712510"/>
<trkpt lat="35.6815130" lon="129.4712890"/>
<trkpt lat="35.6816640" lon="129.4715250"/>
<trkpt lat="35.6817860" lon="129.4716000"/>
<trkpt lat="35.6818460" lon="129.4716250"/>
<trkpt lat="35.6818830" lon="129.4716170"/>
<trkpt lat="35.6819500" lon="129.4715750"/>
<trkpt lat="35.6819860" lon="129.4715030"/>
<trkpt lat="35.6820380" lon="129.4714640"/>
<trkpt lat="35.6820630" lon="129.4715660"/>
<trkpt lat="35.6822490" lon="129.4715890"/>
<trkpt lat="35.6823990" lon="129.4716330"/>
<trkpt lat="35.6824810" lon="129.4717060"/>
<trkpt lat="35.6825610" lon="129.4717340"/>
<trkpt lat="35.6826550" lon="129.4718000"/>
<trkpt lat="35.6830710" lon="129.4721030"/>
<trkpt lat="35.6832270" lon="129.4721540"/>
<trkpt lat="35.6833090" lon="129.4721660"/>
<trkpt lat="35.6834230" lon="129.4722030"/>
<trkpt lat="35.6837890" lon="129.4723570"/>
<trkpt lat="35.6839800" lon="129.4724630"/>
<trkpt lat="35.6840500" lon="129.4725050"/>
<trkpt lat="35.6842210" lon="129.4726750"/>
<trkpt lat="35.6843610" lon="129.4727480"/>
<trkpt lat="35.6844140" lon="129.4727610"/>
<trkpt lat="35.6844690" lon="129.4727810"/>
<trkpt lat="35.6844860" lon="129.4728110"/>
<trkpt lat="35.6845070" lon="129.4728170"/>
<trkpt lat="35.6845090" lon="129.4728350"/>
<trkpt lat="35.6845730" lon="129.4728390"/>
<trkpt lat="35.6846180" lon="129.4728930"/>
<trkpt lat="35.6846920" lon="129.4729520"/>
<trkpt lat="35.6847490" lon="129.4729900"/>
<trkpt lat="35.6847860" lon="129.4730350"/>
<trkpt lat="35.6848250" lon="129.4730640"/>
<trkpt lat="35.6848570" lon="129.4730760"/>
<trkpt lat="35.6848720" lon="129.4731060"/>
<trkpt lat="35.6850300" lon="129.4732310"/>
<trkpt lat="35.6853330" lon="129.4734030"/>
<trkpt lat="35.6858030" lon="129.4739100"/>
<trkpt lat="35.6858120" lon="129.4740050"/>
<trkpt lat="35.6858760" lon="129.4740570"/>
<trkpt lat="35.6858920" lon="129.4740120"/>
<trkpt lat="35.6859130" lon="129.4740250"/>
<trkpt lat="35.6858820" lon="129.4741410"/>
<trkpt lat="35.6859400" lon="129.4741690"/>
<trkpt lat="35.6859920" lon="129.4740140"/>
<trkpt lat="35.6860750" lon="129.4740710"/>
<trkpt lat="35.6861220" lon="129.4739680"/>
<trkpt lat="35.6862450" lon="129.4740250"/>
<trkpt lat="35.6861850" lon="129.4742670"/>
<trkpt lat="35.6862450" lon="129.4740250"/>
<trkpt lat="35.6861220" lon="129.4739680"/>
<trkpt lat="35.6860750" lon="129.4740710"/>
<trkpt lat="35.6859920" lon="129.4740140"/>
<trkpt lat="35.6859400" lon="129.4741690"/>
<trkpt lat="35.6858820" lon="129.4741410"/>
<trkpt lat="35.6859130" lon="129.4740250"/>
<trkpt lat="35.6858920" lon="129.4740120"/>
<trkpt lat="35.6858760" lon="129.4740570"/>
<trkpt lat="35.6858120" lon="129.4740050"/>
<trkpt lat="35.6858030" lon="129.4739100"/>
<trkpt lat="35.6853330" lon="129.4734030"/>
<trkpt lat="35.6850300" lon="129.4732310"/>
<trkpt lat="35.6848720" lon="129.4731060"/>
<trkpt lat="35.6848570" lon="129.4730760"/>
<trkpt lat="35.6848250" lon="129.4730640"/>
<trkpt lat="35.6847860" lon="129.4730350"/>
<trkpt lat="35.6847490" lon="129.4729900"/>
<trkpt lat="35.6846920" lon="129.4729520"/>
<trkpt lat="35.6846180" lon="129.4728930"/>
<trkpt lat="35.6845730" lon="129.4728390"/>
<trkpt lat="35.6845090" lon="129.4728350"/>
<trkpt lat="35.6845070" lon="129.4728170"/>
<trkpt lat="35.6844860" lon="129.4728110"/>
<trkpt lat="35.6844690" lon="129.4727810"/>
<trkpt lat="35.6844140" lon="129.4727610"/>
<trkpt lat="35.6843610" lon="129.4727480"/>
<trkpt lat="35.6842210" lon="129.4726750"/>
<trkpt lat="35.6840500" lon="129.4725050"/>
<trkpt lat="35.6839800" lon="129.4724630"/>
<trkpt lat="35.6838040" lon="129.4723650"/>
<trkpt lat="35.6837890" lon="129.4723570"/>
<trkpt lat="35.6834230" lon="129.4722030"/>
<trkpt lat="35.6833090" lon="129.4721660"/>
<trkpt lat="35.6832270" lon="129.4721540"/>
<trkpt lat="35.6830710" lon="129.4721030"/>
<trkpt lat="35.6826550" lon="129.4718000"/>
<trkpt lat="35.6825610" lon="129.4717340"/>
<trkpt lat="35.6824810" lon="129.4717060"/>
<trkpt lat="35.6823990" lon="129.4716330"/>
<trkpt lat="35.6822490" lon="129.4715890"/>
<trkpt lat="35.6820630" lon="129.4715660"/>
<trkpt lat="35.6820380" lon="129.4714640"/>
<trkpt lat="35.6819860" lon="129.4715030"/>
<trkpt lat="35.6819500" lon="129.4715750"/>
<trkpt lat="35.6818830" lon="129.4716170"/>
<trkpt lat="35.6818460" lon="129.4716250"/>
<trkpt lat="35.6817860" lon="129.4716000"/>
<trkpt lat="35.6816640" lon="129.4715250"/>
<trkpt lat="35.6815130" lon="129.4712890"/>
<trkpt lat="35.6814600" lon="129.4712510"/>
<trkpt lat="35.6813980" lon="129.4712370"/>
<trkpt lat="35.6812510" lon="129.4712350"/>
<trkpt lat="35.6812120" lon="129.4712140"/>
<trkpt lat="35.6811410" lon="129.4711330"/>
<trkpt lat="35.6811130" lon="129.4711230"/>
<trkpt lat="35.6810220" lon="129.4711120"/>
<trkpt lat="35.6809260" lon="129.4711100"/>
<trkpt lat="35.6808600" lon="129.4711340"/>
<trkpt lat="35.6808530" lon="129.4711390"/>
<trkpt lat="35.6808020" lon="129.4711650"/>
<trkpt lat="35.6807450" lon="129.4711660"/>
<trkpt lat="35.6806920" lon="129.4711530"/>
<trkpt lat="35.6806290" lon="129.4711110"/>
<trkpt lat="35.6805930" lon="129.4710590"/>
<trkpt lat="35.6805720" lon="129.4710010"/>
<trkpt lat="35.6805840" lon="129.4709610"/>
<trkpt lat="35.6806570" lon="129.4708510"/>
<trkpt lat="35.6806780" lon="129.4708020"/>
<trkpt lat="35.6806830" lon="129.4707490"/>
<trkpt lat="35.6806790" lon="129.4706860"/>
<trkpt lat="35.6806410" lon="129.4705910"/>
<trkpt lat="35.6805200" lon="129.4704180"/>
<trkpt lat="35.6802760" lon="129.4702710"/>
<trkpt lat="35.6802250" lon="129.4702220"/>
<trkpt lat="35.6801540" lon="129.4702100"/>
<trkpt lat="35.6800730" lon="129.4703490"/>
<trkpt lat="35.6800250" lon="129.4703730"/>
<trkpt lat="35.6799470" lon="129.4703610"/>
<trkpt lat="35.6798480" lon="129.4703690"/>
<trkpt lat="35.6797820" lon="129.4703950"/>
<trkpt lat="35.6797940" lon="129.4704730"/>
<trkpt lat="35.6797810" lon="129.4705050"/>
<trkpt lat="35.6797840" lon="129.4705370"/>
<trkpt lat="35.6797730" lon="129.4705770"/>
<trkpt lat="35.6797320" lon="129.4705890"/>
<trkpt lat="35.6795660" lon="129.4705240"/>
<trkpt lat="35.6794030" lon="129.4701500"/>
<trkpt lat="35.6792980" lon="129.4699600"/>
<trkpt lat="35.6792390" lon="129.4694840"/>
<trkpt lat="35.6792740" lon="129.4693040"/>
<trkpt lat="35.6793370" lon="129.4691280"/>
<trkpt lat="35.6794820" lon="129.4689010"/>
<trkpt lat="35.6796400" lon="129.4688030"/>
<trkpt lat="35.6796700" lon="129.4687430"/>
<trkpt lat="35.6797040" lon="129.4686700"/>
<trkpt lat="35.6797530" lon="129.4685660"/>
<trkpt lat="35.6797950" lon="129.4684690"/>
<trkpt lat="35.6797770" lon="129.4684290"/>
<trkpt lat="35.6798240" lon="129.4682870"/>
<trkpt lat="35.6798380" lon="129.4682340"/>
<trkpt lat="35.6798470" lon="129.4681680"/>
<trkpt lat="35.6798500" lon="129.4680060"/>
<trkpt lat="35.6798450" lon="129.4679320"/>
<trkpt lat="35.6797980" lon="129.4675430"/>
<trkpt lat="35.6797950" lon="129.4674770"/>
<trkpt lat="35.6797990" lon="129.4674150"/>
<trkpt lat="35.6798220" lon="129.4673000"/>
<trkpt lat="35.6797760" lon="129.4671150"/>
<trkpt lat="35.6797660" lon="129.4670560"/>
<trkpt lat="35.6797600" lon="129.4669800"/>
<trkpt lat="35.6797410" lon="129.4667460"/>
<trkpt lat="35.6797360" lon="129.4666880"/>
<trkpt lat="35.6797230" lon="129.4666220"/>
<trkpt lat="35.6797040" lon="129.4665650"/>
<trkpt lat="35.6796830" lon="129.4665140"/>
<trkpt lat="35.6796600" lon="129.4664630"/>
<trkpt lat="35.6796320" lon="129.4664230"/>
<trkpt lat="35.6796070" lon="129.4663960"/>
<trkpt lat="35.6795730" lon="129.4663690"/>
<trkpt lat="35.6795410" lon="129.4663360"/>
<trkpt lat="35.6795030" lon="129.4662940"/>
<trkpt lat="35.6789260" lon="129.4655510"/>
<trkpt lat="35.6789120" lon="129.4655230"/>
<trkpt lat="35.6789020" lon="129.4654820"/>
<trkpt lat="35.6788800" lon="129.4653380"/>
<trkpt lat="35.6788690" lon="129.4653060"/>
<trkpt lat="35.6788540" lon="129.4652820"/>
<trkpt lat="35.6788260" lon="129.4652580"/>
<trkpt lat="35.6786530" lon="129.4651450"/>
<trkpt lat="35.6786160" lon="129.4651240"/>
<trkpt lat="35.6785130" lon="129.4650770"/>
<trkpt lat="35.6784890" lon="129.4650560"/>
<trkpt lat="35.6784690" lon="129.4650260"/>
<trkpt lat="35.6784300" lon="129.4649480"/>
<trkpt lat="35.6784110" lon="129.4649000"/>
<trkpt lat="35.6783790" lon="129.4648300"/>
<trkpt lat="35.6783510" lon="129.4647750"/>
<trkpt lat="35.6783180" lon="129.4647270"/>
<trkpt lat="35.6782560" lon="129.4646770"/>
<trkpt lat="35.6781680" lon="129.4646060"/>
<trkpt lat="35.6781340" lon="129.4645820"/>
<trkpt lat="35.6781020" lon="129.4645480"/>
<trkpt lat="35.6780780" lon="129.4645470"/>
<trkpt lat="35.6780640" lon="129.4645460"/>
<trkpt lat="35.6780010" lon="129.4645160"/>
<trkpt lat="35.6775100" lon="129.4642980"/>
<trkpt lat="35.6775120" lon="129.4642730"/>
<trkpt lat="35.6775080" lon="129.4642500"/>
<trkpt lat="35.6774980" lon="129.4642290"/>
<trkpt lat="35.6774830" lon="129.4642130"/>
<trkpt lat="35.6774650" lon="129.4642040"/>
<trkpt lat="35.6774450" lon="129.4642030"/>
<trkpt lat="35.6774260" lon="129.4642100"/>
<trkpt lat="35.6774100" lon="129.4642240"/>
<trkpt lat="35.6773980" lon="129.4642440"/>
<trkpt lat="35.6773950" lon="129.4642550"/>
<trkpt lat="35.6769140" lon="129.4640580"/>
<trkpt lat="35.6768780" lon="129.4640400"/>
<trkpt lat="35.6768410" lon="129.4640220"/>
<trkpt lat="35.6768000" lon="129.4640600"/>
<trkpt lat="35.6767520" lon="129.4641000"/>
<trkpt lat="35.6766990" lon="129.4641320"/>
<trkpt lat="35.6766390" lon="129.4641640"/>
<trkpt lat="35.6766050" lon="129.4641800"/>
<trkpt lat="35.6765690" lon="129.4641500"/>
<trkpt lat="35.6764850" lon="129.4641780"/>
<trkpt lat="35.6764110" lon="129.4641930"/>
<trkpt lat="35.6763310" lon="129.4641960"/>
<trkpt lat="35.6762590" lon="129.4641910"/>
<trkpt lat="35.6761780" lon="129.4641770"/>
<trkpt lat="35.6756700" lon="129.4640440"/>
<trkpt lat="35.6753680" lon="129.4639660"/>
<trkpt lat="35.6752110" lon="129.4639310"/>
<trkpt lat="35.6750330" lon="129.4638960"/>
<trkpt lat="35.6745530" lon="129.4637960"/>
<trkpt lat="35.6741310" lon="129.4637150"/>
<trkpt lat="35.6741450" lon="129.4636380"/>
<trkpt lat="35.6741310" lon="129.4637150"/>
<trkpt lat="35.6745530" lon="129.4637960"/>
<trkpt lat="35.6750330" lon="129.4638960"/>
<trkpt lat="35.6752110" lon="129.4639310"/>
<trkpt lat="35.6753680" lon="129.4639660"/>
<trkpt lat="35.6756700" lon="129.4640440"/>
<trkpt lat="35.6761780" lon="129.4641770"/>
<trkpt lat="35.6762590" lon="129.4641910"/>
<trkpt lat="35.6763310" lon="129.4641960"/>
<trkpt lat="35.6764110" lon="129.4641930"/>
<trkpt lat="35.6764850" lon="129.4641780"/>
<trkpt lat="35.6765690" lon="129.4641500"/>
<trkpt lat="35.6766050" lon="129.4641800"/>
<trkpt lat="35.6766390" lon="129.4641640"/>
<trkpt lat="35.6766990" lon="129.4641320"/>
<trkpt lat="35.6767520" lon="129.4641000"/>
<trkpt lat="35.6768000" lon="129.4640600"/>
<trkpt lat="35.6768410" lon="129.4640220"/>
<trkpt lat="35.6768780" lon="129.4640400"/>
<trkpt lat="35.6768110" lon="129.4641080"/>
<trkpt lat="35.6767400" lon="129.4641610"/>
<trkpt lat="35.6766550" lon="129.4642050"/>
<trkpt lat="35.6765600" lon="129.4642460"/>
<trkpt lat="35.6764880" lon="129.4642730"/>
<trkpt lat="35.6764090" lon="129.4642850"/>
<trkpt lat="35.6763400" lon="129.4642880"/>
<trkpt lat="35.6762720" lon="129.4642840"/>
<trkpt lat="35.6761890" lon="129.4642690"/>
<trkpt lat="35.6760990" lon="129.4642480"/>
<trkpt lat="35.6752760" lon="129.4640380"/>
<trkpt lat="35.6751680" lon="129.4640150"/>
<trkpt lat="35.6734880" lon="129.4636930"/>
<trkpt lat="35.6734030" lon="129.4636840"/>
<trkpt lat="35.6733280" lon="129.4636850"/>
<trkpt lat="35.6721270" lon="129.4637710"/>
</trkseg>
</trk>
</gpx>
