<?xml version="1.0" encoding="UTF-8"?>
<gpx version="1.1" creator="Hangeoreum · OpenStreetMap/Valhalla pedestrian geometry" xmlns="http://www.topografix.com/GPX/1/1">
<metadata><name>강문·초당마을 · 확정 방문 순서</name><desc>Walk-mode legs only; transit legs are intentionally not connected. 10 walking legs, 0 omitted for pin snap over 80m. Source: OpenStreetMap/Valhalla; checked 2026-10-07.</desc><link href="https://www.openstreetmap.org/copyright"><text>© OpenStreetMap contributors</text></link></metadata>
<wpt lat="37.79169839544907" lon="128.9075339258423"><name>01 아르떼뮤지엄 강릉</name><desc>Representative place pin; entrance not verified</desc></wpt><wpt lat="37.7917949" lon="128.9097365"><name>02 허균·허난설헌 기념공원</name><desc>Representative place pin; entrance not verified</desc></wpt><wpt lat="37.79103562487218" lon="128.9101867745931"><name>03 초희전통차체험관</name><desc>Representative place pin; entrance not verified</desc></wpt><wpt lat="37.79060924" lon="128.91497522"><name>04 원조초당순두부</name><desc>Representative place pin; entrance not verified</desc></wpt><wpt lat="37.792853268313756" lon="128.914529131473"><name>05 카페 툇마루</name><desc>Representative place pin; entrance not verified</desc></wpt><wpt lat="37.7922884465996" lon="128.917115241913"><name>06 초당110</name><desc>Representative place pin; entrance not verified</desc></wpt><wpt lat="37.7941028" lon="128.9192316"><name>07 강문해변</name><desc>Representative place pin; entrance not verified</desc></wpt><wpt lat="37.79508044" lon="128.91761085"><name>08 강문떡갈비</name><desc>Representative place pin; entrance not verified</desc></wpt><wpt lat="37.794532313371874" lon="128.9183005090944"><name>09 유리알유희</name><desc>Representative place pin; entrance not verified</desc></wpt><wpt lat="37.79538116648078" lon="128.91662417089313"><name>10 서울양계</name><desc>Representative place pin; entrance not verified</desc></wpt><wpt lat="37.7977252179" lon="128.9166745373"><name>11 강문솟대다리</name><desc>Representative place pin; entrance not verified</desc></wpt><trk><name>강문·초당마을 · 확정 방문 순서 · 도보 구간</name><type>walking route segments</type><trkseg><trkpt lat="37.791776" lon="128.907827"></trkpt><trkpt lat="37.792162" lon="128.907663"></trkpt><trkpt lat="37.793096" lon="128.907361"></trkpt><trkpt lat="37.793548" lon="128.907162"></trkpt><trkpt lat="37.793729" lon="128.907424"></trkpt><trkpt lat="37.793725" lon="128.907689"></trkpt><trkpt lat="37.793301" lon="128.907846"></trkpt><trkpt lat="37.793187" lon="128.908067"></trkpt><trkpt lat="37.793034" lon="128.908236"></trkpt><trkpt lat="37.792888" lon="128.908557"></trkpt><trkpt lat="37.792658" lon="128.908758"></trkpt><trkpt lat="37.792387" lon="128.90897"></trkpt><trkpt lat="37.79198" lon="128.909127"></trkpt><trkpt lat="37.791875" lon="128.909185"></trkpt><trkpt lat="37.791775" lon="128.909219"></trkpt><trkpt lat="37.791743" lon="128.909274"></trkpt><trkpt lat="37.791665" lon="128.90941"></trkpt><trkpt lat="37.791587" lon="128.909517"></trkpt><trkpt lat="37.791597" lon="128.909604"></trkpt><trkpt lat="37.79159" lon="128.909694"></trkpt><trkpt lat="37.79159" lon="128.909694"></trkpt></trkseg><trkseg><trkpt lat="37.79159" lon="128.909694"></trkpt><trkpt lat="37.791597" lon="128.909604"></trkpt><trkpt lat="37.791587" lon="128.909517"></trkpt><trkpt lat="37.791542" lon="128.909565"></trkpt><trkpt lat="37.791455" lon="128.909895"></trkpt><trkpt lat="37.791335" lon="128.910279"></trkpt><trkpt lat="37.791329" lon="128.910302"></trkpt></trkseg><trkseg><trkpt lat="37.791329" lon="128.910302"></trkpt><trkpt lat="37.79129" lon="128.910462"></trkpt><trkpt lat="37.791189" lon="128.910991"></trkpt><trkpt lat="37.791154" lon="128.911016"></trkpt><trkpt lat="37.791128" lon="128.911034"></trkpt><trkpt lat="37.790789" lon="128.911302"></trkpt><trkpt lat="37.790808" lon="128.911427"></trkpt><trkpt lat="37.790863" lon="128.911749"></trkpt><trkpt lat="37.790974" lon="128.912027"></trkpt><trkpt lat="37.791051" lon="128.912171"></trkpt><trkpt lat="37.791192" lon="128.912403"></trkpt><trkpt lat="37.791307" lon="128.912542"></trkpt><trkpt lat="37.792299" lon="128.913444"></trkpt><trkpt lat="37.792363" lon="128.913496"></trkpt><trkpt lat="37.792584" lon="128.913698"></trkpt><trkpt lat="37.792791" lon="128.913893"></trkpt><trkpt lat="37.791379" lon="128.91415"></trkpt><trkpt lat="37.790837" lon="128.914325"></trkpt><trkpt lat="37.79048" lon="128.914472"></trkpt></trkseg><trkseg><trkpt lat="37.79048" lon="128.914472"></trkpt><trkpt lat="37.790837" lon="128.914325"></trkpt><trkpt lat="37.791379" lon="128.91415"></trkpt><trkpt lat="37.792791" lon="128.913893"></trkpt><trkpt lat="37.793068" lon="128.914135"></trkpt></trkseg><trkseg><trkpt lat="37.793068" lon="128.914135"></trkpt><trkpt lat="37.793086" lon="128.914151"></trkpt><trkpt lat="37.79316" lon="128.914218"></trkpt><trkpt lat="37.793708" lon="128.914712"></trkpt><trkpt lat="37.791703" lon="128.916325"></trkpt><trkpt lat="37.791782" lon="128.916444"></trkpt><trkpt lat="37.791845" lon="128.916546"></trkpt><trkpt lat="37.791965" lon="128.916679"></trkpt><trkpt lat="37.792061" lon="128.916758"></trkpt><trkpt lat="37.792191" lon="128.916852"></trkpt><trkpt lat="37.792354" lon="128.916996"></trkpt></trkseg><trkseg><trkpt lat="37.792354" lon="128.916996"></trkpt><trkpt lat="37.792513" lon="128.917137"></trkpt><trkpt lat="37.792776" lon="128.917321"></trkpt><trkpt lat="37.793049" lon="128.917489"></trkpt><trkpt lat="37.793636" lon="128.91734"></trkpt><trkpt lat="37.794514" lon="128.917259"></trkpt><trkpt lat="37.794851" lon="128.917225"></trkpt><trkpt lat="37.79502" lon="128.917205"></trkpt><trkpt lat="37.794907" lon="128.917406"></trkpt><trkpt lat="37.794835" lon="128.917572"></trkpt><trkpt lat="37.794739" lon="128.917854"></trkpt><trkpt lat="37.794678" lon="128.918047"></trkpt><trkpt lat="37.794603" lon="128.918253"></trkpt><trkpt lat="37.794529" lon="128.918366"></trkpt><trkpt lat="37.794463" lon="128.918455"></trkpt><trkpt lat="37.794343" lon="128.91858"></trkpt><trkpt lat="37.794216" lon="128.918686"></trkpt><trkpt lat="37.79394" lon="128.918907"></trkpt></trkseg><trkseg><trkpt lat="37.79394" lon="128.918907"></trkpt><trkpt lat="37.794216" lon="128.918686"></trkpt><trkpt lat="37.794343" lon="128.91858"></trkpt><trkpt lat="37.794463" lon="128.918455"></trkpt><trkpt lat="37.794529" lon="128.918366"></trkpt><trkpt lat="37.794603" lon="128.918253"></trkpt><trkpt lat="37.794678" lon="128.918047"></trkpt><trkpt lat="37.794739" lon="128.917854"></trkpt><trkpt lat="37.794835" lon="128.917572"></trkpt><trkpt lat="37.794879" lon="128.917471"></trkpt></trkseg><trkseg><trkpt lat="37.794879" lon="128.917471"></trkpt><trkpt lat="37.794835" lon="128.917572"></trkpt><trkpt lat="37.794739" lon="128.917854"></trkpt><trkpt lat="37.794678" lon="128.918047"></trkpt><trkpt lat="37.794603" lon="128.918253"></trkpt><trkpt lat="37.794556" lon="128.918325"></trkpt></trkseg><trkseg><trkpt lat="37.794556" lon="128.918325"></trkpt><trkpt lat="37.794603" lon="128.918253"></trkpt><trkpt lat="37.794678" lon="128.918047"></trkpt><trkpt lat="37.794739" lon="128.917854"></trkpt><trkpt lat="37.794835" lon="128.917572"></trkpt><trkpt lat="37.794907" lon="128.917406"></trkpt><trkpt lat="37.79502" lon="128.917205"></trkpt><trkpt lat="37.795148" lon="128.917029"></trkpt><trkpt lat="37.795232" lon="128.916936"></trkpt><trkpt lat="37.795354" lon="128.916828"></trkpt><trkpt lat="37.795446" lon="128.916753"></trkpt></trkseg><trkseg><trkpt lat="37.795446" lon="128.916753"></trkpt><trkpt lat="37.795511" lon="128.916701"></trkpt><trkpt lat="37.795642" lon="128.91659"></trkpt><trkpt lat="37.795951" lon="128.916367"></trkpt><trkpt lat="37.796134" lon="128.916245"></trkpt><trkpt lat="37.796173" lon="128.916227"></trkpt><trkpt lat="37.796214" lon="128.916208"></trkpt><trkpt lat="37.796435" lon="128.916139"></trkpt><trkpt lat="37.796651" lon="128.916612"></trkpt><trkpt lat="37.796766" lon="128.916791"></trkpt><trkpt lat="37.79679" lon="128.916859"></trkpt><trkpt lat="37.796855" lon="128.916897"></trkpt><trkpt lat="37.797038" lon="128.917196"></trkpt><trkpt lat="37.797099" lon="128.917197"></trkpt><trkpt lat="37.797148" lon="128.917153"></trkpt><trkpt lat="37.797512" lon="128.916767"></trkpt><trkpt lat="37.797595" lon="128.916685"></trkpt><trkpt lat="37.797707" lon="128.916676"></trkpt><trkpt lat="37.797725" lon="128.916675"></trkpt></trkseg></trk>
</gpx>
