<?xml version="1.0" encoding="UTF-8"?>
<gpx version="1.1" creator="Hangeoreum · OpenStreetMap/Valhalla pedestrian geometry" xmlns="http://www.topografix.com/GPX/1/1">
<metadata><name>커피거리·안목 · 확정 방문 순서</name><desc>Walk-mode legs only; transit legs are intentionally not connected. 8 walking legs, 0 omitted for pin snap over 80m. Source: OpenStreetMap/Valhalla; checked 2026-10-07.</desc><link href="https://www.openstreetmap.org/copyright"><text>© OpenStreetMap contributors</text></link></metadata>
<wpt lat="37.7801011" lon="128.9371318"><name>01 송정해변·송림</name><desc>Representative place pin; entrance not verified</desc></wpt><wpt lat="37.77427302928627" lon="128.94322117043347"><name>02 환희컵박물관</name><desc>Representative place pin; entrance not verified</desc></wpt><wpt lat="37.7742852" lon="128.9451009"><name>03 안목해변</name><desc>Representative place pin; entrance not verified</desc></wpt><wpt lat="37.77321492" lon="128.94516362"><name>04 안목항물회</name><desc>Representative place pin; entrance not verified</desc></wpt><wpt lat="37.77263198939384" lon="128.947241042645"><name>05 커피커퍼 안목1호점</name><desc>Representative place pin; entrance not verified</desc></wpt><wpt lat="37.77280979519951" lon="128.95304263811488"><name>06 강릉항</name><desc>Representative place pin; entrance not verified</desc></wpt><wpt lat="37.768135288333" lon="128.951362699457"><name>07 솔바람다리</name><desc>Representative place pin; entrance not verified</desc></wpt><wpt lat="37.765592927550614" lon="128.9525713449356"><name>08 삼교리동치미막국수 남항진점</name><desc>Representative place pin; entrance not verified</desc></wpt><wpt lat="37.7643337061904" lon="128.954844024035"><name>09 남항진해변</name><desc>Representative place pin; entrance not verified</desc></wpt><trk><name>커피거리·안목 · 확정 방문 순서 · 도보 구간</name><type>walking route segments</type><trkseg><trkpt lat="37.779964" lon="128.936969"></trkpt><trkpt lat="37.779779" lon="128.937218"></trkpt><trkpt lat="37.779728" lon="128.937282"></trkpt><trkpt lat="37.77963" lon="128.937458"></trkpt><trkpt lat="37.778887" lon="128.938548"></trkpt><trkpt lat="37.778216" lon="128.939463"></trkpt><trkpt lat="37.778004" lon="128.939762"></trkpt><trkpt lat="37.777693" lon="128.939272"></trkpt><trkpt lat="37.777648" lon="128.938995"></trkpt><trkpt lat="37.777414" lon="128.938621"></trkpt><trkpt lat="37.777289" lon="128.938933"></trkpt><trkpt lat="37.777168" lon="128.939199"></trkpt><trkpt lat="37.777074" lon="128.939405"></trkpt><trkpt lat="37.776915" lon="128.939661"></trkpt><trkpt lat="37.774128" lon="128.943029"></trkpt></trkseg><trkseg><trkpt lat="37.774128" lon="128.943029"></trkpt><trkpt lat="37.773988" lon="128.943199"></trkpt><trkpt lat="37.773648" lon="128.943665"></trkpt><trkpt lat="37.773502" lon="128.943897"></trkpt><trkpt lat="37.773415" lon="128.944069"></trkpt><trkpt lat="37.773087" lon="128.944704"></trkpt><trkpt lat="37.773022" lon="128.944829"></trkpt><trkpt lat="37.772482" lon="128.945874"></trkpt><trkpt lat="37.77241" lon="128.946015"></trkpt><trkpt lat="37.772624" lon="128.945959"></trkpt><trkpt lat="37.772947" lon="128.945832"></trkpt><trkpt lat="37.773155" lon="128.945731"></trkpt><trkpt lat="37.773385" lon="128.945612"></trkpt><trkpt lat="37.773396" lon="128.94558"></trkpt><trkpt lat="37.773413" lon="128.945552"></trkpt><trkpt lat="37.773435" lon="128.94553"></trkpt><trkpt lat="37.77346" lon="128.945517"></trkpt><trkpt lat="37.773488" lon="128.945512"></trkpt><trkpt lat="37.773515" lon="128.945517"></trkpt><trkpt lat="37.773541" lon="128.94553"></trkpt><trkpt lat="37.773695" lon="128.945395"></trkpt><trkpt lat="37.774085" lon="128.944959"></trkpt><trkpt lat="37.774137" lon="128.944898"></trkpt></trkseg><trkseg><trkpt lat="37.774137" lon="128.944898"></trkpt><trkpt lat="37.774085" lon="128.944959"></trkpt><trkpt lat="37.773695" lon="128.945395"></trkpt><trkpt lat="37.773541" lon="128.94553"></trkpt><trkpt lat="37.773515" lon="128.945517"></trkpt><trkpt lat="37.773488" lon="128.945512"></trkpt><trkpt lat="37.77346" lon="128.945517"></trkpt><trkpt lat="37.773435" lon="128.94553"></trkpt><trkpt lat="37.773413" lon="128.945552"></trkpt><trkpt lat="37.773396" lon="128.94558"></trkpt><trkpt lat="37.773385" lon="128.945612"></trkpt><trkpt lat="37.773155" lon="128.945731"></trkpt><trkpt lat="37.772947" lon="128.945832"></trkpt><trkpt lat="37.772624" lon="128.945959"></trkpt><trkpt lat="37.77241" lon="128.946015"></trkpt><trkpt lat="37.772482" lon="128.945874"></trkpt><trkpt lat="37.773022" lon="128.944829"></trkpt><trkpt lat="37.77318" lon="128.945075"></trkpt><trkpt lat="37.773161" lon="128.9451"></trkpt></trkseg><trkseg><trkpt lat="37.773161" lon="128.9451"></trkpt><trkpt lat="37.77318" lon="128.945075"></trkpt><trkpt lat="37.773022" lon="128.944829"></trkpt><trkpt lat="37.772482" lon="128.945874"></trkpt><trkpt lat="37.77241" lon="128.946015"></trkpt><trkpt lat="37.772624" lon="128.945959"></trkpt><trkpt lat="37.772947" lon="128.945832"></trkpt><trkpt lat="37.773155" lon="128.945731"></trkpt><trkpt lat="37.773385" lon="128.945612"></trkpt><trkpt lat="37.773382" lon="128.945653"></trkpt><trkpt lat="37.773388" lon="128.945692"></trkpt><trkpt lat="37.773404" lon="128.945728"></trkpt><trkpt lat="37.773427" lon="128.945756"></trkpt><trkpt lat="37.773456" lon="128.945774"></trkpt><trkpt lat="37.773487" lon="128.94578"></trkpt><trkpt lat="37.773519" lon="128.945774"></trkpt><trkpt lat="37.773548" lon="128.945757"></trkpt><trkpt lat="37.773512" lon="128.946002"></trkpt><trkpt lat="37.773321" lon="128.946374"></trkpt><trkpt lat="37.773027" lon="128.94693"></trkpt><trkpt lat="37.772886" lon="128.947113"></trkpt><trkpt lat="37.772687" lon="128.947324"></trkpt></trkseg><trkseg><trkpt lat="37.772687" lon="128.947324"></trkpt><trkpt lat="37.771948" lon="128.94811"></trkpt><trkpt lat="37.771623" lon="128.948529"></trkpt><trkpt lat="37.771333" lon="128.948938"></trkpt><trkpt lat="37.771152" lon="128.949267"></trkpt><trkpt lat="37.771012" lon="128.949572"></trkpt><trkpt lat="37.770903" lon="128.949965"></trkpt><trkpt lat="37.772112" lon="128.950464"></trkpt><trkpt lat="37.772414" lon="128.950796"></trkpt><trkpt lat="37.772651" lon="128.951057"></trkpt><trkpt lat="37.772899" lon="128.951338"></trkpt><trkpt lat="37.772914" lon="128.95186"></trkpt><trkpt lat="37.772938" lon="128.953038"></trkpt></trkseg><trkseg><trkpt lat="37.772938" lon="128.953038"></trkpt><trkpt lat="37.772914" lon="128.95186"></trkpt><trkpt lat="37.772899" lon="128.951338"></trkpt><trkpt lat="37.772651" lon="128.951057"></trkpt><trkpt lat="37.772414" lon="128.950796"></trkpt><trkpt lat="37.772112" lon="128.950464"></trkpt><trkpt lat="37.770903" lon="128.949965"></trkpt><trkpt lat="37.770888" lon="128.950029"></trkpt><trkpt lat="37.770855" lon="128.950259"></trkpt><trkpt lat="37.770816" lon="128.950252"></trkpt><trkpt lat="37.770777" lon="128.950263"></trkpt><trkpt lat="37.770743" lon="128.95029"></trkpt><trkpt lat="37.770719" lon="128.95033"></trkpt><trkpt lat="37.770706" lon="128.950377"></trkpt><trkpt lat="37.770671" lon="128.950233"></trkpt><trkpt lat="37.770617" lon="128.950046"></trkpt><trkpt lat="37.770606" lon="128.950011"></trkpt><trkpt lat="37.770563" lon="128.949873"></trkpt><trkpt lat="37.770493" lon="128.949563"></trkpt><trkpt lat="37.770518" lon="128.949352"></trkpt><trkpt lat="37.769605" lon="128.950399"></trkpt><trkpt lat="37.769389" lon="128.950648"></trkpt><trkpt lat="37.769184" lon="128.950869"></trkpt><trkpt lat="37.76911" lon="128.951052"></trkpt><trkpt lat="37.769084" lon="128.951154"></trkpt><trkpt lat="37.769038" lon="128.951227"></trkpt><trkpt lat="37.768988" lon="128.951336"></trkpt><trkpt lat="37.768346" lon="128.95135"></trkpt><trkpt lat="37.768135" lon="128.951354"></trkpt></trkseg><trkseg><trkpt lat="37.768135" lon="128.951354"></trkpt><trkpt lat="37.767865" lon="128.951358"></trkpt><trkpt lat="37.76725" lon="128.951379"></trkpt><trkpt lat="37.767267" lon="128.951611"></trkpt><trkpt lat="37.767256" lon="128.951619"></trkpt><trkpt lat="37.767244" lon="128.951612"></trkpt><trkpt lat="37.767226" lon="128.95142"></trkpt><trkpt lat="37.767197" lon="128.951381"></trkpt><trkpt lat="37.767098" lon="128.951425"></trkpt><trkpt lat="37.766393" lon="128.951962"></trkpt><trkpt lat="37.766222" lon="128.952075"></trkpt><trkpt lat="37.765771" lon="128.952759"></trkpt></trkseg><trkseg><trkpt lat="37.765771" lon="128.952759"></trkpt><trkpt lat="37.76566" lon="128.952928"></trkpt><trkpt lat="37.765558" lon="128.953083"></trkpt><trkpt lat="37.76515" lon="128.953507"></trkpt><trkpt lat="37.764794" lon="128.953807"></trkpt><trkpt lat="37.764305" lon="128.95399"></trkpt><trkpt lat="37.764264" lon="128.954006"></trkpt><trkpt lat="37.764263" lon="128.954006"></trkpt></trkseg></trk>
</gpx>
