{
  "type": "FeatureCollection",
  "name": "Gangneung sea pedestrian legs",
  "metadata": {
    "checkedOn": "2026-10-07",
    "source": "OpenStreetMap/Valhalla public pedestrian router",
    "attribution": "© OpenStreetMap contributors",
    "note": "Only walk-mode legs are routed. Transit-mode gaps remain separate. Place pins may not be entrances."
  },
  "features": [
    {
      "type": "Feature",
      "properties": {
        "themeId": "sea",
        "legIndex": 1,
        "from": "g14",
        "to": "g156",
        "fromName": "송정해변·송림",
        "toName": "환희컵박물관",
        "meters": 987,
        "minutes": 12,
        "startSnapMeters": 21,
        "endSnapMeters": 23,
        "accepted": true,
        "pinType": {
          "from": "route-pin",
          "to": "representative-map-pin"
        }
      },
      "geometry": {
        "type": "LineString",
        "coordinates": [
          [
            128.936969,
            37.779964
          ],
          [
            128.937218,
            37.779779
          ],
          [
            128.937282,
            37.779728
          ],
          [
            128.937458,
            37.77963
          ],
          [
            128.938548,
            37.778887
          ],
          [
            128.939463,
            37.778216
          ],
          [
            128.939762,
            37.778004
          ],
          [
            128.939272,
            37.777693
          ],
          [
            128.938995,
            37.777648
          ],
          [
            128.938621,
            37.777414
          ],
          [
            128.938933,
            37.777289
          ],
          [
            128.939199,
            37.777168
          ],
          [
            128.939405,
            37.777074
          ],
          [
            128.939661,
            37.776915
          ],
          [
            128.943029,
            37.774128
          ]
        ]
      }
    },
    {
      "type": "Feature",
      "properties": {
        "themeId": "sea",
        "legIndex": 2,
        "from": "g156",
        "to": "g4",
        "fromName": "환희컵박물관",
        "toName": "안목해변",
        "meters": 550,
        "minutes": 7,
        "startSnapMeters": 23,
        "endSnapMeters": 24,
        "accepted": true,
        "pinType": {
          "from": "representative-map-pin",
          "to": "route-pin"
        }
      },
      "geometry": {
        "type": "LineString",
        "coordinates": [
          [
            128.943029,
            37.774128
          ],
          [
            128.943199,
            37.773988
          ],
          [
            128.943665,
            37.773648
          ],
          [
            128.943897,
            37.773502
          ],
          [
            128.944069,
            37.773415
          ],
          [
            128.944704,
            37.773087
          ],
          [
            128.944829,
            37.773022
          ],
          [
            128.945874,
            37.772482
          ],
          [
            128.946015,
            37.77241
          ],
          [
            128.945959,
            37.772624
          ],
          [
            128.945832,
            37.772947
          ],
          [
            128.945731,
            37.773155
          ],
          [
            128.945612,
            37.773385
          ],
          [
            128.94558,
            37.773396
          ],
          [
            128.945552,
            37.773413
          ],
          [
            128.94553,
            37.773435
          ],
          [
            128.945517,
            37.77346
          ],
          [
            128.945512,
            37.773488
          ],
          [
            128.945517,
            37.773515
          ],
          [
            128.94553,
            37.773541
          ],
          [
            128.945395,
            37.773695
          ],
          [
            128.944959,
            37.774085
          ],
          [
            128.944898,
            37.774137
          ]
        ]
      }
    },
    {
      "type": "Feature",
      "properties": {
        "themeId": "sea",
        "legIndex": 3,
        "from": "g4",
        "to": "g171",
        "fromName": "안목해변",
        "toName": "안목항물회",
        "meters": 379,
        "minutes": 5,
        "startSnapMeters": 24,
        "endSnapMeters": 8,
        "accepted": true,
        "pinType": {
          "from": "route-pin",
          "to": "representative-map-pin"
        }
      },
      "geometry": {
        "type": "LineString",
        "coordinates": [
          [
            128.944898,
            37.774137
          ],
          [
            128.944959,
            37.774085
          ],
          [
            128.945395,
            37.773695
          ],
          [
            128.94553,
            37.773541
          ],
          [
            128.945517,
            37.773515
          ],
          [
            128.945512,
            37.773488
          ],
          [
            128.945517,
            37.77346
          ],
          [
            128.94553,
            37.773435
          ],
          [
            128.945552,
            37.773413
          ],
          [
            128.94558,
            37.773396
          ],
          [
            128.945612,
            37.773385
          ],
          [
            128.945731,
            37.773155
          ],
          [
            128.945832,
            37.772947
          ],
          [
            128.945959,
            37.772624
          ],
          [
            128.946015,
            37.77241
          ],
          [
            128.945874,
            37.772482
          ],
          [
            128.944829,
            37.773022
          ],
          [
            128.945075,
            37.77318
          ],
          [
            128.9451,
            37.773161
          ]
        ]
      }
    },
    {
      "type": "Feature",
      "properties": {
        "themeId": "sea",
        "legIndex": 4,
        "from": "g171",
        "to": "g189",
        "fromName": "안목항물회",
        "toName": "커피커퍼 안목1호점",
        "meters": 470,
        "minutes": 6,
        "startSnapMeters": 8,
        "endSnapMeters": 10,
        "accepted": true,
        "pinType": {
          "from": "representative-map-pin",
          "to": "representative-map-pin"
        }
      },
      "geometry": {
        "type": "LineString",
        "coordinates": [
          [
            128.9451,
            37.773161
          ],
          [
            128.945075,
            37.77318
          ],
          [
            128.944829,
            37.773022
          ],
          [
            128.945874,
            37.772482
          ],
          [
            128.946015,
            37.77241
          ],
          [
            128.945959,
            37.772624
          ],
          [
            128.945832,
            37.772947
          ],
          [
            128.945731,
            37.773155
          ],
          [
            128.945612,
            37.773385
          ],
          [
            128.945653,
            37.773382
          ],
          [
            128.945692,
            37.773388
          ],
          [
            128.945728,
            37.773404
          ],
          [
            128.945756,
            37.773427
          ],
          [
            128.945774,
            37.773456
          ],
          [
            128.94578,
            37.773487
          ],
          [
            128.945774,
            37.773519
          ],
          [
            128.945757,
            37.773548
          ],
          [
            128.946002,
            37.773512
          ],
          [
            128.946374,
            37.773321
          ],
          [
            128.94693,
            37.773027
          ],
          [
            128.947113,
            37.772886
          ],
          [
            128.947324,
            37.772687
          ]
        ]
      }
    },
    {
      "type": "Feature",
      "properties": {
        "themeId": "sea",
        "legIndex": 5,
        "from": "g189",
        "to": "g158",
        "fromName": "커피커퍼 안목1호점",
        "toName": "강릉항",
        "meters": 718,
        "minutes": 9,
        "startSnapMeters": 10,
        "endSnapMeters": 14,
        "accepted": true,
        "pinType": {
          "from": "representative-map-pin",
          "to": "representative-map-pin"
        }
      },
      "geometry": {
        "type": "LineString",
        "coordinates": [
          [
            128.947324,
            37.772687
          ],
          [
            128.94811,
            37.771948
          ],
          [
            128.948529,
            37.771623
          ],
          [
            128.948938,
            37.771333
          ],
          [
            128.949267,
            37.771152
          ],
          [
            128.949572,
            37.771012
          ],
          [
            128.949965,
            37.770903
          ],
          [
            128.950464,
            37.772112
          ],
          [
            128.950796,
            37.772414
          ],
          [
            128.951057,
            37.772651
          ],
          [
            128.951338,
            37.772899
          ],
          [
            128.95186,
            37.772914
          ],
          [
            128.953038,
            37.772938
          ]
        ]
      }
    },
    {
      "type": "Feature",
      "properties": {
        "themeId": "sea",
        "legIndex": 6,
        "from": "g158",
        "to": "g37",
        "fromName": "강릉항",
        "toName": "솔바람다리",
        "meters": 891,
        "minutes": 11,
        "startSnapMeters": 14,
        "endSnapMeters": 1,
        "accepted": true,
        "pinType": {
          "from": "representative-map-pin",
          "to": "route-pin"
        }
      },
      "geometry": {
        "type": "LineString",
        "coordinates": [
          [
            128.953038,
            37.772938
          ],
          [
            128.95186,
            37.772914
          ],
          [
            128.951338,
            37.772899
          ],
          [
            128.951057,
            37.772651
          ],
          [
            128.950796,
            37.772414
          ],
          [
            128.950464,
            37.772112
          ],
          [
            128.949965,
            37.770903
          ],
          [
            128.950029,
            37.770888
          ],
          [
            128.950259,
            37.770855
          ],
          [
            128.950252,
            37.770816
          ],
          [
            128.950263,
            37.770777
          ],
          [
            128.95029,
            37.770743
          ],
          [
            128.95033,
            37.770719
          ],
          [
            128.950377,
            37.770706
          ],
          [
            128.950233,
            37.770671
          ],
          [
            128.950046,
            37.770617
          ],
          [
            128.950011,
            37.770606
          ],
          [
            128.949873,
            37.770563
          ],
          [
            128.949563,
            37.770493
          ],
          [
            128.949352,
            37.770518
          ],
          [
            128.950399,
            37.769605
          ],
          [
            128.950648,
            37.769389
          ],
          [
            128.950869,
            37.769184
          ],
          [
            128.951052,
            37.76911
          ],
          [
            128.951154,
            37.769084
          ],
          [
            128.951227,
            37.769038
          ],
          [
            128.951336,
            37.768988
          ],
          [
            128.95135,
            37.768346
          ],
          [
            128.951354,
            37.768135
          ]
        ]
      }
    },
    {
      "type": "Feature",
      "properties": {
        "themeId": "sea",
        "legIndex": 7,
        "from": "g37",
        "to": "g297",
        "fromName": "솔바람다리",
        "toName": "삼교리동치미막국수 남항진점",
        "meters": 345,
        "minutes": 5,
        "startSnapMeters": 1,
        "endSnapMeters": 26,
        "accepted": true,
        "pinType": {
          "from": "route-pin",
          "to": "representative-map-pin"
        }
      },
      "geometry": {
        "type": "LineString",
        "coordinates": [
          [
            128.951354,
            37.768135
          ],
          [
            128.951358,
            37.767865
          ],
          [
            128.951379,
            37.76725
          ],
          [
            128.951611,
            37.767267
          ],
          [
            128.951619,
            37.767256
          ],
          [
            128.951612,
            37.767244
          ],
          [
            128.95142,
            37.767226
          ],
          [
            128.951381,
            37.767197
          ],
          [
            128.951425,
            37.767098
          ],
          [
            128.951962,
            37.766393
          ],
          [
            128.952075,
            37.766222
          ],
          [
            128.952759,
            37.765771
          ]
        ]
      }
    },
    {
      "type": "Feature",
      "properties": {
        "themeId": "sea",
        "legIndex": 8,
        "from": "g297",
        "to": "g38",
        "fromName": "삼교리동치미막국수 남항진점",
        "toName": "남항진해변",
        "meters": 205,
        "minutes": 3,
        "startSnapMeters": 26,
        "endSnapMeters": 74,
        "accepted": true,
        "pinType": {
          "from": "representative-map-pin",
          "to": "route-pin"
        }
      },
      "geometry": {
        "type": "LineString",
        "coordinates": [
          [
            128.952759,
            37.765771
          ],
          [
            128.952928,
            37.76566
          ],
          [
            128.953083,
            37.765558
          ],
          [
            128.953507,
            37.76515
          ],
          [
            128.953807,
            37.764794
          ],
          [
            128.95399,
            37.764305
          ],
          [
            128.954006,
            37.764264
          ],
          [
            128.954006,
            37.764263
          ]
        ]
      }
    }
  ]
}
